Zip_Code,SPDES_Permit,Street_address,City,State,Country,Latitude,Longitude
11772,NY0208752,387 E MAIN ST,PATCHOGUE,NY,USA,,
13403,NY0218090,9678 RIVER RD,MARCY,NY,USA,43.13,-75.25
,NY0247367,E SIDE WATER SUPPLY,WEBSTER/PENFIELD,NY,USA,,
10512,NY0264041,842 FAIR ST,CARMEL,NY,USA,41.47,-73.64
,NY0266850,ENTIRE WATER DISTRICT WIDE,SUFFOLK,NY,USA,,
12440,NY0272442,186 MOHONK RD,HIGH FALLS,NY,USA,,
14801,NY0020320,FRONT ST,ADDISON,NY,USA,42.11,-77.22
13433,NY0030341,LINCOLN ST,PORT LEYDEN,NY,USA,43.59,-75.34
14855,NY0247251,GRANGE ST,JASPER,NY,USA,42.12,-77.5
12144,NY0205397,RTE 4,DEFREESTVILLE,NY,USA,42.67,-73.69
13069,NY0243931,960 S FIRST ST (CO RTE 57) - W SIDE - S OF ST RTE 481,FULTON,NY,USA,43.31,-76.39
14048,NY0002321,106 POINT DR NORTH,DUNKIRK,NY,USA,42.49,-79.35
12083,NY0268879,ST RTE 32 - IN BRYANTS PLZ,GREENVILLE,NY,USA,42.43,-74.02
12144,NY0026034,80 COLUMBIA TPKE,RENSSELAER,NY,USA,42.63,-73.74
12944,NY0256480,308 TREMBLEAU RD,KEESEVILLE,NY,USA,44.52,-73.41
12543,NY0023272,ST RTE 208 - E SIDE - BETWEEN COUNTRY CLUB DR & ARISTOTLE DR,MAYBROOK,NY,USA,41.5,-74.21
13166,NY0020559,2601 EARL ST,WEEDSPORT,NY,USA,43.05,-76.57
13164,NY0231924,2951 ENERGY DR,WARNERS,NY,USA,43.1,-76.3
10509,NY0062570,SCOTT PL & NOEL CT,BREWSTER,NY,USA,41.41,-73.61
13685,NY0270148,19199 Concrete Dr,Hounsfield,NY,USA,43.96,-75.99
13421,NY0026956,387 HARDEN ST,ONEIDA,NY,USA,43.1,-75.65
14822,NY0269573,ST RTE 70 - N SIDE - S OF CANASERAGA CRK - JUST E OF VILLAGE LINE,CANASERAGA,NY,USA,42.47,-77.77
11224,NY0276782,NEPTUNE AVE AT W 21ST ST,BROOKLYN,NY,USA,40.58,-73.99
14052,NY0202606,798 OLEAN RD,EAST AURORA,NY,USA,42.74,-78.6
12996,NY0256251,343 FARRELL RD,WILLSBORO,NY,USA,44.39,-73.39
14063,NY0291196,4556 WEBSTER RD,FREDONIA,NY,USA,42.42,-79.36
11784,NY0091081,221 MORICHES RD,SAINT JAMES,NY,USA,40.87,-73.14
12143,NY0005037,1916 US RTE 9W,RAVENA,NY,USA,42.5,-73.81
12477,NY0031208,DOCK ST,SAUGERTIES,NY,USA,42.07,-73.94
10603,NY0264270,24 FISHER LN,WHITE PLAINS,NY,USA,41.05,-73.77
,NY0262773,1771 DRYDEN RD (ST RTE 13) SOUTH SIDE|200' E KNOLLWOOD DR,DRYDEN,NY,USA,42.48,-76.37
11729,NY0226904,1929 DEER PARK AVE,DEER PARK,NY,USA,40.76,-73.33
14702,NY0003433,105 WATER ST,JAMESTOWN,NY,USA,42.09,-79.23
12564,NY0281107,W DOVER RD (CO RTE 21) & RIVER RD,PAWLING,NY,USA,41.59,-73.6
10969,NY0280437,385 GLENWOOD RD,PINE ISLAND,NY,USA,41.28,-74.48
14885,NY0246999,768 SPUR RD,TROUPSBURG,NY,USA,42.04,-77.54
14098,NY0024678,30 RAILROAD AVE,LYNDONVILLE,NY,USA,43.33,-78.39
12468,NY0263028,102 CO RTE 7 - ACCESS RD OFF MAPLE AVE,PRATTSVILLE,NY,USA,42.32,-74.43
13053,NY0029190,WALL ST,DRYDEN,NY,USA,42.49,-76.31
13459,NY0212199,22821 STE RTE 165 AT WEST CREEK,COBLESTILL,NY,USA,42.72,-74.61
11717,NY0108898,1650 ISLIP AVE,BRENTWOOD,NY,USA,40.78,-73.22
12084,NY0022225,NOTT RD,GUILDERLAND,NY,USA,42.69,-73.91
12754,NY0260053,CO RTE 175 AT ST RTE 17,LIBERTY,NY,USA,41.78,-74.73
12186,NY0084999,46 SCHOOL RD,VOORHEESVILLE,NY,USA,42.66,-73.94
13045,NY0027197,2000 ST RTE 392,CORTLAND,NY,USA,42.51,-76.14
11727,NY0266540,3669B ST RTE 112,CORAM,NY,USA,40.85,-73
11722,NY0237027,138 WHEELER RD,CENTRAL ISLIP,NY,USA,40.8,-73.21
,NY0244970,US RTE 11 - W SIDE - S OF MOLTION RD,LAFAYETTE,NY,USA,42.9,-76.11
14870,NY0078409,9579 VOCATIONAL DR,PAINTED POST,NY,USA,42.19,-77.14
12849,NY0202495,ST RTE 22,MIDDLE GRANVILLE,NY,USA,43.43,-73.29
12945,NY0256374,ST RTE 86 - 1 MI E OF ST RTE 30,LAKE CLEAR,NY,USA,44.37,-74.22
14464,NY0025631,8100 NEWCO DR,HAMLIN,NY,USA,43.36,-77.92
14227,NY0091731,STRASBOURG DR,CHEEKTOWAGA & W SENECA,NY,USA,42.88,-78.76
13126,NY0243992,ST RTE 104,SCRIBA,NY,USA,43.47,-76.44
14070,NY0032093,ALDRICH ST,GOWANDA,NY,USA,42.47,-78.94
,NY0268577,44 DALLIBA AVE,WATERVLIET,NY,USA,42.72,-73.71
12182,NY0124788,OAKWOOD AVE,LANSINGBURGH,NY,USA,42.76,-73.66
12051,NY0033545,88 S RIVER ST,COXSACKIE,NY,USA,42.35,-73.79
14536,NY0258741,11589 ST RTE 19A,PORTAGEVILLE,NY,USA,42.51,-78.07
13755,NY0249521,RT 30,DOWNSVILLE,NY,USA,42.08,-74.98
14059,NY0203360,CORNER OF BOWEN & BULLIS RD,ELMA,NY,USA,42.84,-78.63
13730,NY0108227,ST RTE 7 NE OF VILLAGE,AFTON,NY,USA,42.24,-75.52
12202,NY0021016,50 CHURCH ST - PORT OF ALBANY,ALBANY,NY,USA,42.63,-73.76
12789,NY0247901,GLEN WILD RD,WOODRIDGE,NY,USA,41.67,-74.58
14522,NY0000078,1666 DIVISION ST,PALMYRA,NY,USA,43.07,-77.22
13820,NY0263320,5560 ST HWY 7,ONEONTA,NY,USA,42.46,-75.02
11776,NY0227188,564 JEFFERSON PLZ,PORT JEFFERSON STATION,NY,USA,40.93,-73.05
14474,NY0161004,1235 RUSH-SCOTTSVILLE RD,RUSH,NY,USA,43,-77.67
11722,NY0210048,1555 ISLIP AVE,CENTRAL ISLIP,NY,USA,40.78,-73.22
14001,NY0031003,33 LEWIS RD @ KIBLER AVE,AKRON,NY,USA,43.03,-78.51
11105,NY0267538,17-10 STEINWAY ST,ASTORIA,NY,USA,40.78,-73.9
11788,NY0136964,116 MOTOR PKWY|SCTM# 800-118-2-6,HAUPPAUGE,NY,USA,40.81,-73.26
11958,NY0279897,2745 PECONIC LN,PECONIC,NY,USA,41.05,-72.46
14043,NY0110698,317  BORDEN RD,DEPEW,NY,USA,42.9,-78.7
14850,NY0002933,620 S AURORA ST,ITHACA,NY,USA,42.43,-76.5
13625,NY0022012,SPRING ST,COLTON,NY,USA,44.56,-74.94
12518,NY0022144,360 SHORE RD,CORNWALL,NY,USA,41.45,-74.02
,NY0260185,92 OLD SAW MILL RIVER DR,EASTVIEW,NY,USA,41.08,-73.82
12550,NY0026310,2 RENWICK ST,NEWBURGH,NY,USA,41.49,-74.01
13045,NY0108995,3933 US RTE 11 - S SIDE - E OF RIVER,CORTLAND,NY,USA,42.59,-76.15
11978,NY0086029,644B MONTAUK HWY,WESTHAMPTON BEACH,NY,USA,40.82,-72.63
10963,NY0034436,HEATHER LN,OTISVILLE,NY,USA,41.44,-74.56
,NY0264491,ST RTE 199 AT BRIDGE TOLL BOOTH,ULSTER,NY,USA,41.98,-73.96
12528,NY0264008,US RTE 9W @ RED TOP RD,HIGHLAND,NY,USA,41.75,-73.96
,NY0028401,14740 DENSMORE ST,GAINES,NY,USA,43.25,-78.17
14072,NY0102741,318 BASELINE RD,GRAND ISLAND,NY,USA,42.97,-78.97
,NY0251038,EXIT 20-NYS THRUWAY,ULSTER,NY,USA,41.95,-74.03
11547,NY0005916,SHORE RD,GLENWOOD LANDING,NY,USA,40.83,-73.65
12838,NY0265209,ST RTE 149 - N SIDE - E OF KINGSBURY TOWNLINE,HARTFORD,NY,USA,43.38,-73.48
12065,NY0131768,RIVERVIEW RD - 0.5 MI E OF GROOMS RD,CLIFTON PARK,NY,USA,42.83,-73.87
13901,NY0262358,25 BROOME ST SUSQUEHANNA RIVER,BINGHAMTON,NY,USA,42.1,-75.9
14225,NY0171611,3101 BROADWAY,CHEEKTOWAGA,NY,USA,42.9,-78.76
,NY0226947,ENTIRE WATER DISTRICT WIDE,SUFFOLK,NY,USA,,
13131,NY0107654,RED MILL RD,PARISH,NY,USA,43.42,-76.13
11971,NY0253413,46205 MAIN RD,SOUTHOLD,NY,USA,41.05,-72.44
13026,NY0023558,MAIN ST ST RTE 90 - E SIDE - BETW CO RTE 43A & LAKE RD,AURORA,NY,USA,42.74,-76.7
,NY0276669,KOSCIUSZKO BRIDGE OVER NEWTOWN CREEK,BROOKLYN/LIC,NY,USA,,
14903,NY0004081,2243 CORNING RD,ELMIRA HEIGHTS,NY,USA,42.13,-76.83
10590,NY0274526,ST RTE 121 & MAPLE LN,SOUTHEAST,NY,USA,41.37,-73.58
13142,NY0213616,CO RT 2A,RICHLAND,NY,USA,43.55,-76.09
11733,NY0225941,14 RESEARCH WAY,SETAUKET,NY,USA,40.9,-73.09
,NY0267449,100 OSER AVE|SCTM# 800-185-01-60.2,HAUPPAUGE,NY,USA,40.82,-73.24
10526,NY0065706,101 NASH RD,GOLDENS BRIDGE,NY,USA,41.3,-73.66
10993,NY0008010,140 SAMSONDALE AVE,WEST HAVERSTRAW,NY,USA,41.21,-73.97
13069,NY0032468,1850 CO RTE 57|NORTH OF OWENS RD,FULTON,NY,USA,43.3,-76.38
13622,NY0257940,CO RTE 8 - E SIDE - N OF ST RTE 12E,CHAUMONT,NY,USA,44.08,-76.15
13618,NY0021393,ELM & LAKE STS,CAPE VINCENT,NY,USA,44.13,-76.32
12185,NY0261360,BET BOSTON  & MAINE RR & HOOSICK RIVER,VALLEY FALLS,NY,USA,42.9,-73.57
12701,NY0030724,OLD BAILEY RD,MONTICELLO,NY,USA,41.66,-74.66
12528,NY0024295,15 RIVER RD,HIGHLAND,NY,USA,41.72,-73.95
12027,NY0252034,811 SARATOGA RD (ST RTE 50) - N OF LAKE HILL RD,BURNT HILLS,NY,USA,42.91,-73.9
14710,NY0275930,2943 Open Meadows Rd,Ashville,NY,USA,42.13,-79.45
11235,NY0276928,2601 OCEAN PKWY @ AVE Z,BROOKLYN,NY,USA,40.59,-73.97
14423,NY0072079,100 SUNNY SOL BLVD,CALEDONIA,NY,USA,42.98,-77.84
13607,NY0022501,35 ANTHONY ST,ALEXANDRIA BAY,NY,USA,44.34,-75.91
12566,NY0110019,HARDENBURGH RD AT SHAWANGUNK KILL,PINE BUSH,NY,USA,41.62,-74.3
11951,NY0226441,346 NEIGHBORHOOD RD,MASTIC BEACH,NY,USA,40.76,-72.86
14760,NY0258407,4222 ST RTE 417,OLEAN,NY,USA,42.11,-78.53
14004,NY0021857,FAIRVIEW & EAST ALAURA DR,ALDEN,NY,USA,42.89,-78.57
13617,NY0236586,125 SULLIVAN DR,CANTON,NY,USA,44.61,-75.17
14424,NY0000311,5250 NORTH ST,CANANDAIGUA,NY,USA,42.91,-77.3
14519,NY0027171,2200 LAKE RD,ONTARIO,NY,USA,43.27,-77.28
12144,NY0242462,317 COLUMBIA STREET,RENSSELAER,NY,USA,42.63,-73.75
,NY0264784,EAST DELAWARE TUNNEL,GRAHAMSVILLE,NY,USA,41.86,-74.51
14701,NY0106895,51 GIFFORD AVE,CELORON,NY,USA,42.11,-79.27
14807,NY0004219,25 HURLBUT ST,ARKPORT,NY,USA,42.39,-77.7
,NY0271934,WASHINGTON ST - E SIDE|N OF CO RTE 129,WOODHULL,NY,USA,42.08,-77.41
14569,NY0025607,RT 19 A,WARSAW,NY,USA,42.7,-78.12
12789,NY0023493,274 RIVER RD,WOODRIDGE,NY,USA,41.7,-74.61
13142,NY0261734,3981 PORT & JEFFERSON STS,PULASKI,NY,USA,43.56,-76.13
14445,NY0098400,603 W COMMERCIAL ST,EAST ROCHESTER,NY,USA,43.12,-77.5
11747,NY0267074,642 WALT WHITMAN RD,MELVILLE,NY,USA,40.8,-73.41
14202,NY0242772,GULL LANDING|40 WATERFRONT CIR,BUFFALO,NY,USA,42.88,-78.88
10567,NY0106372,2065 E MAIN ST,CORTLANDT MANOR,NY,USA,41.3,-73.88
11550,NY0206342,45 INTERSECTION ST,HEMPSTEAD,NY,USA,40.72,-73.63
13502,NY0121894,525 FRENCH RD,UTICA,NY,USA,43.09,-75.28
,NY0164933,STOWE RD,BEEKMAN,NY,USA,41.63,-73.65
12167,NY0021555,RAILROAD AVE,STAMFORD,NY,USA,42.4,-74.63
10017,NY0201120,866 UN PLAZA,NEW YORK,NY,USA,40.75,-73.97
11518,NY0026450,2 MARJORIE LN,EAST ROCKAWAY,NY,USA,40.63,-73.66
11696,NY0030872,555 DOUGHTY BLVD,INWOOD,NY,USA,40.63,-73.75
11946,NY0211532,218 WEST MONTAUK HWY|SCTM # 900-221-2-14,HAMPTON BAYS,NY,USA,40.87,-72.54
,NY0268208,DUNDERBERG RD,CENTRAL VALLEY,NY,USA,41.32,-74.14
12828,NY0007048,381 UPPER BROADWAY,FORT EDWARD,NY,USA,43.29,-73.59
11725,NY0195987,49 MALL DR,COMMACK,NY,USA,40.81,-73.27
11779,NY0279838,717 HAWKINS AVE,LAKE RONKONKOMA,NY,USA,40.84,-73.11
12919,NY0256609,40 Canal St,Champlain,NY,USA,44.99,-73.46
12010,NY0240516,ERIE ST EXT,AMSTERDAM,NY,USA,42.93,-74.19
,NY0262871,107 OXBOW RD,MILFORD,NY,USA,42.6,-74.95
13343,NY0020281,BLUE ST,GLENFIELD,NY,USA,43.72,-75.4
12305,NY0020516,300 ANTHONY ST,SCHENECTADY,NY,USA,42.84,-73.92
14550,NY0000418,45 RIBAUD AVE E,SILVER SPRINGS,NY,USA,42.66,-78.08
10705,NY0026689,1 FERNBROOK ST |LUDLOW DOCK SOUTH,YONKERS,NY,USA,40.92,-73.91
14001,NY0258555,18 NEWTON AVE,AKRON,NY,USA,43.03,-78.5
12186,NY0030139,STONINGTON HILL RD,VOORHEESVILLE,NY,USA,42.65,-73.93
11101,NY0276961,52-03 Center Blvd,Long Island City,NY,USA,40.74,-73.96
10035,NY0026131,WARDS ISLAND - E SIDE,NEW YORK,NY,USA,40.79,-73.92
14870,NY0023906,3212 CANADA RD,ERWIN,NY,USA,42.15,-77.09
14304,NY0099503,7227 WILLIAMS RD,NIAGARA FALLS,NY,USA,43.07,-78.94
,NY0098876,1498 RTE 301,CARMEL,NY,USA,41.47,-73.82
13069,NY0001902,100 STATE ST,FULTON,NY,USA,43.32,-76.41
12207,NY0025747,HUDSON RIVER,ALBANY,NY,USA,42.65,-73.75
,NY0261386,ST RTE 32 - W SIDE - 1� MIS S OF ST RTE 81,GREENVILLE,NY,USA,42.4,-74.03
10980,NY0028851,24 NORTH ST,STONY POINT,NY,USA,41.22,-73.97
,NY0268348,ST RTE 203  - 0.5 MI E OF SPENCERTOWN,AUSTERLITZ,NY,USA,42.32,-73.54
12603,NY0149489,41 FIREMENS WAY,POUGHKEEPSIE,NY,USA,41.68,-73.85
12549,NY0247782,201 CO RTE 416,MONTGOMERY,NY,USA,41.5,-74.25
14437,NY0160547,I-390 AND COMMERCE DR,DANSVILLE,NY,USA,42.57,-77.72
11105,NY0005118,18-01 20TH AVE,ASTORIA,NY,USA,40.79,-73.9
13760,NY0027669,40 ANSON RD,ENDICOTT,NY,USA,42.09,-76.09
13114,NY0036617,ACADEMY ST,MEXICO,NY,USA,43.47,-76.24
12176,NY0110485,463 WEST RD,SURPRISE,NY,USA,42.39,-73.99
13045,NY0262498,2000 ST RTE 392|GRIDLEY CREEK,CORTLAND,NY,USA,42.51,-76.15
12701,NY0214507,HANOVER DR,MONTICELLO,NY,USA,41.66,-74.71
12188,NY0229920,7 SCHOOLHOUSE LN,WATERFORD,NY,USA,42.82,-73.67
12138,NY0223107,136 COONBROOK RD,PETERSBURG,NY,USA,42.74,-73.36
11717,NY0267163,771 COMMACK RD,BRENTWOOD,NY,USA,40.76,-73.23
14901,NY0036986,1700 LAKE ST,ELMIRA,NY,USA,42.12,-76.81
11746,NY0108359,1 NORDEN LN AND 10 & 15 STEPAR PL,HUNTINGTON STATION,NY,USA,40.84,-73.43
11787,NY0266388,141-145 ST RTE 25A,KINGS PARK,NY,USA,40.88,-73.26
13077,NY0232734,156 S MAIN ST,HOMER,NY,USA,42.63,-76.18
14171,NY0269271,10282 ROCK SPRINGS RD,WEST VALLEY,NY,USA,42.45,-78.65
11754,NY0266922,75 MAIN ST,KINGS PARK,NY,USA,40.89,-73.26
10541,NY0105252,NORTH RD & ORCHARD RD,MAHOPAC,NY,USA,41.38,-73.79
14138,NY0204846,RAILROAD ST EXT,SOUTH DAYTON,NY,USA,42.36,-79.05
14753,NY0029068,625 SPITTLER RD|US RTE 219 & RAILROAD AVE,LIMESTONE,NY,USA,42.03,-78.63
11801,NY0270407,939 S BROADWAY,HICKSVILLE,NY,USA,40.75,-73.5
11901,NY0226602,1900 CO RTE 58,RIVERHEAD,NY,USA,40.92,-72.71
13357,NY0245097,11 REMINGTON AVE,ILION,NY,USA,43.01,-75.03
14522,NY0025101,613 E MAIN ST,PALMYRA,NY,USA,43.06,-77.22
,NY0248169,475 W HARTSDALE AVE,HARTSDALE,NY,USA,41.03,-73.8
13367,NY0257753,NUMBER FOUR RD,WATSON,NY,USA,43.82,-75.33
12834,NY0131555,6 ACADEMY ST,GREENWICH,NY,USA,43.09,-73.49
10918,NY0081329,ST RTE 94 - S SIDE - END OF TETZ RD; 66 TETZ RD,CHESTER,NY,USA,41.34,-74.3
12915,NY0255726,CO RD 24,BRAINARDSVILLE,NY,USA,44.86,-74.04
13021,NY0156311,3186 GATES RD,AUBURN,NY,USA,42.96,-76.53
11980,NY0271471,50 ZORN BLVD,SOUTH YAPHANK,NY,USA,40.81,-72.94
12550,NY0005347,49 RIVER RD,NEW WINDSOR,NY,USA,41.48,-74.01
14757,NY0020826,CLARK ST,MAYVILLE,NY,USA,42.24,-79.5
12866,NY0265519,2202 Route 50,Saratoga Springs,NY,USA,43.04,-73.83
14451,NY0246832,MAPLE AVENUE EXTENSION,SODUS,NY,USA,43.27,-77.06
,NY0281271,LAKESHORE & LAKESIDE DRS,NORTH SALEM,NY,USA,41.36,-73.58
11763,NY0210838,2690 ST RTE 112,MEDFORD,NY,USA,40.82,-73
10509,NY0235059,560 NORTH MAIN ST,BREWSTER,NY,USA,41.4,-73.62
10048,NY0006033,1 WORLD TRADE CTR/WEST ST & LIBERTY ST,NEW YORK,NY,USA,40.71,-74.01
12412,NY0259616,4131 ST RTE 28,BOICEVILLE,NY,USA,42.01,-74.27
14715,NY0102067,SALT RISING RD,BOLIVAR,NY,USA,42.07,-78.08
,NY0264415,ST RTE 199 OVER THE HUDSON RIVER,ULSTER,NY,USA,41.98,-73.95
14468,NY0028231,170 PAYNE BEACH RD,HILTON,NY,USA,43.32,-77.74
14850,NY0244261,1000 HUDSON ST EXT,ITHACA,NY,USA,42.43,-76.49
12090,NY0006491,12 DAVIS ST,HOOSICK FALLS,NY,USA,42.91,-73.36
10541,NY0031828,GREENWAY TER & VINELAND RD,MAHOPAC,NY,USA,41.34,-73.78
11948,NY0252816,3165 MAIN RD,LAUREL,NY,USA,40.97,-72.56
12936,NY0256471,ST RTE 22|OUTFALL TO LIBRARY BRK,ESSEX,NY,USA,44.31,-73.35
14202,NY0103012,PARKER RD,BUFFALO,NY,USA,42.67,-78.47
11789,NY0266701,249 ECHO AVE,SOUND BEACH,NY,USA,40.95,-72.99
12180,NY0260843,7 ADAMS ST,TROY,NY,USA,42.72,-73.7
12986,NY0029939,WATER ST,TUPPER LAKE,NY,USA,44.23,-74.48
14219,NY0001368,3043 Lake Shore Rd,Blasdell,NY,USA,42.8,-78.85
14769,NY0275441,6218 E MAIN|US RTE 20,PORTLAND,NY,USA,42.38,-79.46
13827,NY0022730,BROADWAY RD,OWEGO,NY,USA,42.1,-76.23
11716,NY0227269,1600 LOCUST AVE,BOHEMIA,NY,USA,40.78,-73.12
11978,NY0279871,150 RIVERHEAD RD,WESTHAMPTON BEACH,NY,USA,40.84,-72.64
11705,NY0220621,885 MONTAUK HWY,BAYPORT,NY,USA,40.75,-73.05
12120,NY0240770,MAIN ST,RENSSELAERVILLE,NY,USA,42.51,-74.13
13690,NY0236578,ST RTE 3 - NEAR 4078 ST RTE 3,STAR LAKE,NY,USA,44.16,-75.04
12149,NY0103713,RTE 7,RICHMONDVILLE,NY,USA,42.64,-74.58
14564,NY0000744,280 MAPLE AVE,VICTOR,NY,USA,42.98,-77.41
12550,NY0250457,1 MAGUIRE WAY,NEWBURGH,NY,USA,41.51,-74.08
,NY0243531,NICHOLS RUN RD,LIMESTONE,NY,USA,42.01,-78.58
13413,NY0257109,CHENANGO RD,NEW HARTFORD,NY,USA,43.09,-75.29
14589,NY0035530,7901 HAMILTON ST EXT,WILLIAMSON,NY,USA,43.28,-77.19
13790,NY0023981,CHOCONUT CREEK @ SUSQUEHANNA RIVER,JOHNSON CITY,NY,USA,42.11,-75.98
,NY0233200,CASTLE CREEK RD @ PENNVIEW APTS,CHENANGO,NY,USA,42.19,-75.9
12498,NY0109711,ST RT 212 - S SIDE - W OF ZENA RD,WOODSTOCK,NY,USA,42.04,-74.09
13073,NY0025585,157 CAYUGA ST,GROTON,NY,USA,42.6,-76.37
12545,NY0025429,39 NORTH AVE,MILLBROOK,NY,USA,41.79,-73.7
12186,NY0107051,PLEASANT ST,VOORHEESVILLE,NY,USA,42.65,-73.92
14818,NY0271772,5345 PARK AVE|CO RTE 2 & ST RTE 414 - WEST-CENTRAL PART OF TOWN,HECTOR,NY,USA,42.5,-76.88
14502,NY0023612,135 MAIN ST|ST RTE 31 - S SIDE - OPPOSITE QUAKER RD,MACEDON,NY,USA,43.07,-77.29
10926,NY0275123,41 ARDEN HOUSE RD,HARRIMAN,NY,USA,41.31,-74.14
,NY0069019,500 BISON PKWY,BUFFALO,NY,USA,42.89,-78.8
13360,NY0265853,FERN PARK|5TH LAKE OUTLET CHANNEL,INLET,NY,USA,43.75,-74.8
13204,NY0027081,650 HIAWATHA BLVD W,SYRACUSE,NY,USA,43.06,-76.18
13642,NY0020117,4727 ST RTE 58|NATURAL DAM RD - S SIDE OF RD,GOUVERNEUR,NY,USA,44.33,-75.49
10509,NY0075078,PROSPECT HILL RD - PUTNAM JCT,BREWSTER,NY,USA,41.41,-73.62
14411,NY0162370,ALLENS BRIDGE RD,ALBION,NY,USA,43.23,-78.27
14652,NY0272001,1999 LAKE AVE,ROCHESTER,NY,USA,43.2,-77.65
13862,NY0262552,2740 US RTE 11|E SIDE - S OF ST RTE 26,WHITNEY POINT,NY,USA,42.33,-75.96
14569,NY0021504,240 PURDY AVE,WARSAW,NY,USA,42.75,-78.14
14461,NY0160814,BETWEEN KEARNEY RD & FLINT CREEK,GORHAM,NY,USA,42.8,-77.13
13080,NY0105881,24 N BEAVER ST,JORDAN,NY,USA,43.07,-76.47
10541,NY0030678,CARY ST - OFF ST RTE 6N,MAHOPAC,NY,USA,41.34,-73.78
14120,NY0001198,673 WALCK RD,NORTH TONAWANDA,NY,USA,43.05,-78.86
14219,NY0095401,S-3690 LAKESHORE RD,HAMBURG,NY,USA,42.79,-78.85
13420,NY0021351,117 PULLMAN AVE,OLD FORGE,NY,USA,43.7,-74.98
,NY0267007,74 MALL DR,COMMACK,NY,USA,40.81,-73.27
11542,NY0026620,100 MORRIS AVE,GLEN COVE,NY,USA,40.86,-73.64
,NY0265926,"TREATMENT PLANT: POTTER & BUTLER RDS, MOREAU; |WATER MAIN: MOREAU-MALTA",MOREAU,NY,USA,43.27,-73.74
10940,NY0024422,600 ST RTE 211 E,MIDDLETOWN,NY,USA,41.44,-74.37
13476,NY0020249,40 VAN EPPS ST,VERNON,NY,USA,43.08,-75.55
14482,NY0000779,130 GILBERT ST,LEROY,NY,USA,42.97,-78.01
11788,NY0077429,500 BLYDENBURGH RD,HAUPPAUGE,NY,USA,40.82,-73.18
12029,NY0206121,12948 ST RTE 22,CANAAN,NY,USA,42.37,-73.43
13041,NY0026751,RTE 370 & RIVERBEND DR,BALDWINSVILLE,NY,USA,43.17,-76.41
14011,NY0100099,3368 DUNBAR RD,ATTICA,NY,USA,42.84,-78.26
12759,NY0024538,1077 ST RTE 52 | N OF EVENS LAKE,LOCH SHELDRAKE,NY,USA,41.77,-74.65
14031,NY0001741,8615 WEHRLE DR,CLARENCE,NY,USA,42.96,-78.65
13662,NY0257541,ST RTE 131 AND CO RTE 42,MASSENA CENTER,NY,USA,44.96,-74.84
10044,NY0276758,1 MAIN ST|SOUTHERN ROOSEVELT ISLAND,NEW YORK,NY,USA,40.75,-73.96
11788,NY0225207,40 ENGINEERS RD,HAUPPAUGE,NY,USA,40.81,-73.24
,NY0267376,ENTIRE WATER DISTRICT WIDE,SUFFOLK,NY,USA,,
14519,NY0000493,1503 LAKE RD,ONTARIO,NY,USA,43.28,-77.31
10598,NY0026743,2200 GREENWOOD ST,YORKTOWN HEIGHTS,NY,USA,41.28,-73.77
14830,NY0162957,76-82 EAST MARKET ST,CORNING,NY,USA,42.14,-77.05
13041,NY0030317,4300 OAK ORCHARD RD,CLAY,NY,USA,43.2,-76.21
11933,NY0277835,2114 SOUND AVE,BAITING HOLLOW,NY,USA,40.96,-72.76
14735,NY0203858,20 N GENESEE ST,FILLMORE,NY,USA,42.48,-78.1
12025,NY0251739,S SECOND AVE,BROADALBIN,NY,USA,43.05,-74.2
10980,NY0006432,70 GRASSY POINT RD,STONY POINT,NY,USA,41.22,-73.97
12801,NY0029050,2 SHERMANTOWN RD,GLENS FALLS,NY,USA,43.31,-73.62
14424,NY0025968,183 SALTONSTALL ST,CANANDAIGUA,NY,USA,42.88,-77.27
11222,NY0267724,400 KINGSLAND AVE,BROOKLYN,NY,USA,40.73,-73.94
12186,NY0223891,16 MAPLE RD|ST RTE 155 @ ST RTE 85A,VOORHEESVILLE,NY,USA,42.65,-73.92
14532,NY0227706,1735 ST RTE 14,PHELPS,NY,USA,42.95,-76.98
14619,NY0095389,675 BROOKS AVE,ROCHESTER,NY,USA,43.13,-77.65
12543,NY0110744,HENRY HENNING DR,MAYBROOK,NY,USA,41.51,-74.2
13157,NY0036790,3100 VIENNA RD,SYLVAN BEACH,NY,USA,43.21,-75.72
13790,NY0003875,720 RIVERSIDE DR,JOHNSON CITY,NY,USA,42.11,-75.97
12572,NY0099295,COVE RD,RHINEBECK,NY,USA,41.88,-73.92
14711,NY0269441,ST RTE 19,BELFAST,NY,USA,42.34,-78.12
12776,NY0034983,2255 OLD RTE 17 - S OF COUNTY LINE,ROSCOE,NY,USA,41.95,-74.93
11798,NY0266990,1339 STRAIGHT PATH RD|SCTM# 100-80-2-6 & 7,WYANDANCH,NY,USA,40.74,-73.37
11779,NY0173703,100 ARRIVAL AVE,RONKONKOMA,NY,USA,40.79,-73.1
12158,NY0268909,123 CO RTE 101,SELKIRK,NY,USA,42.52,-73.85
11105,NY0201235,31-01 20TH AVE,ASTORIA,NY,USA,40.78,-73.91
13662,NY0236047,ALCOA POWER CANAL RD|N MAIN ST GATE,MASSENA,NY,USA,44.95,-74.89
13425,NY0020923,MILL ST,ORISKANY FALLS,NY,USA,42.94,-75.46
,NY0245801,3545 CO RTE 16,MONTOUR FALLS,NY,USA,42.35,-76.88
,NY0218481,OLD QUARRY RD OFF PROSPECT-TRENTON FALLS RD,TRENTON,NY,USA,43.29,-75.15
11024,NY0226661,300 STEAMBOAT RD,KINGS POINT,NY,USA,40.81,-73.76
12919,NY0230791,ROUTE 9,CHAMPLAIN,NY,USA,44.96,-73.44
12883,NY0004413,568 SHORE AIRPORT RD,TICONDEROGA,NY,USA,43.89,-73.4
13461,NY0084638,KENWOOD AVE,SHERRILL,NY,USA,43.06,-75.6
13615,NY0031232,STATE ST,BROWNVILLE,NY,USA,44,-75.98
12033,NY0268518,1902 RIVER RD|ST RTE 9J,CASTLETON ON HUDSON,NY,USA,42.54,-73.75
,NY0267210,ENTIRE WATER DISTRICT WIDE,SUFFOLK,NY,USA,,
10901,NY0022748,RIDGE AVE,SUFFERN,NY,USA,41.11,-74.16
12553,NY0280984,181 Forge Hill Rd,New Windsor,NY,USA,41.46,-74.04
10924,NY0031518,END OF CYPRESS RD - WEST OF ST RTE 17,GOSHEN,NY,USA,41.4,-74.34
14432,NY0247103,2 COULTER RD,CLIFTON SPRINGS,NY,USA,42.96,-77.14
12582,NY0087840,3530 RTE 52,STORMVILLE,NY,USA,41.54,-73.73
12760,NY0264296,11617 ST RTE 97,LONG EDDY,NY,USA,41.85,-75.13
13664,NY0206997,HIGH ST,MORRISTOWN,NY,USA,44.59,-75.64
13309,NY0006840,ST RTE 12 - E SIDE AT COUNTY LINE,BOONVILLE,NY,USA,43.53,-75.32
12029,NY0282332,13640 RTE 22,CANAAN,NY,USA,42.42,-73.41
13642,NY0257630,260 GROVE ST,GOUVERNEUR,NY,USA,44.33,-75.46
12082,NY0261025,3349 ST RTE 2 & CAMEL HILL RD,GRAFTON,NY,USA,42.76,-73.52
12501,NY0248304,ST RTE 343,DOVER PLAINS,NY,USA,41.75,-73.59
,NY0157121,RATHBURN RD,GRANBY,NY,USA,43.33,-76.5
12977,NY0107433,NYS RTE 86,RAY BROOK,NY,USA,44.3,-74.08
10924,NY0005622,ONE 6� STATION RD,GOSHEN,NY,USA,41.4,-74.36
14865,NY0021865,MARINA DR,MONTOUR FALLS,NY,USA,42.35,-76.85
14471,NY0107255,US RTE 20A,HONEOYE,NY,USA,42.79,-77.51
13221,NY0233251,3551 BURNET AVE,SYRACUSE,NY,USA,43.07,-76.09
13815,NY0244660,COUNTRY CLUB RD - OFF CO RTE 44,PLYMOUTH,NY,USA,42.58,-75.56
14098,NY0161683,ST RTE 63 - N END - E SIDE,SHADIGEE,NY,USA,43.37,-78.39
12827,NY0030627,CANAL ST,FORT ANN,NY,USA,43.42,-73.49
14304,NY0203700,6686 WALMORE RD,WHEATFIELD,NY,USA,43.1,-78.93
11746,NY0237591,1279 JERICHO TPK,HUNTINGTON STATION,NY,USA,40.83,-73.36
11953,NY0080667,2 SHORT ST,MIDDLE ISLAND,NY,USA,40.89,-72.93
10546,NY0274542,180 SAW MILL RIVER RD,MILLWOOD,NY,USA,41.18,-73.81
14737,NY0259110,8088 ST RTE 16,FRANKLINVILLE,NY,USA,42.35,-78.45
14770,NY0020966,COWELL ST,PORTVILLE,NY,USA,42.04,-78.34
12183,NY0006734,3 TIBBITS AVE,GREEN ISLAND,NY,USA,42.75,-73.69
14207,NY0000574,2995 RIVER RD,BUFFALO,NY,USA,42.96,-78.91
13088,NY0261912,107 SEVENTH NORTH ST,LIVERPOOL,NY,USA,43.09,-76.17
,NY0266761,ENTIRE WATER DISTRICT WIDE,SUFFOLK,NY,USA,,
13652,NY0257532,102 WATER ST  (CO RTE 17),HERMON,NY,USA,44.47,-75.24
,NY0268691,ST RTE 66 - E SIDE - SOUTH OF RADLEY RD,NASSAU,NY,USA,42.58,-73.51
14850,NY0026638,525 THIRD ST,ITHACA,NY,USA,42.45,-76.51
13756,NY0104256,BRIDGE ST,EAST BRANCH,NY,USA,41.99,-75.13
12513,NY0242209,ST RTE 9H - E SIDE - N OF SCHOOLHOUSE RD,CLAVERACK,NY,USA,42.2,-73.73
11961,NY0079359,720 WHISKEY RD,RIDGE,NY,USA,40.91,-72.9
12835,NY0020184,WOODWARD AVE EXT,HADLEY,NY,USA,43.32,-73.85
14125,NY0001562,2750 MAPLE AVE,OAKFIELD,NY,USA,43.06,-78.3
11772,NY0023922,1 HAMMOND ST,PATCHOGUE,NY,USA,40.76,-73.02
13459,NY0249785,ST RTE 10,SHARON SPRINGS,NY,USA,42.78,-74.63
13667,NY0003042,100 REMINGTON AVE,NORFOLK,NY,USA,44.8,-75
10022,NY0200778,514 E 60TH ST,NEW YORK,NY,USA,40.76,-73.96
,NY0271004,LAKE NANUET DR,NANUET,NY,USA,41.08,-74
14489,NY0022551,50 Clyde Rd,Lyons,NY,USA,43.06,-76.98
12870,NY0255939,US RTE 9 @ ST RTE 74,SCHROON LAKE,NY,USA,43.87,-73.75
14203,NY0033987,3750 RIVER RD,TONAWANDA,NY,USA,42.98,-78.94
,NY0227072,ENTIRE WATER DISTRICT WIDE,SUFFOLK,NY,USA,,
12937,NY0027863,44 HIGH ST |ST RTE 37 - HOPKINS PT,FORT COVINGTON,NY,USA,44.99,-74.49
,NY0275824,8398 W MAIN ST (ST RTE 20),WESTFIELD,NY,USA,42.31,-79.6
14719,NY0242951,124 MAIN ST,CATTARAUGUS,NY,USA,42.33,-78.87
10803,NY0103632,4301 BOSTON POST RD,PELHAM MANOR,NY,USA,40.89,-73.82
10987,NY0260347,10 E VILLAGE RD,TUXEDO,NY,USA,41.19,-74.18
11931,NY0075957,311 WEST LN|SCTM 600-066-02-2.1,AQUEBOGUE,NY,USA,40.96,-72.63
12472,NY0109061,136 CREEK LOCKS RD,ROSENDALE,NY,USA,41.85,-74.07
11931,NY0005304,10 EDGAR AVE,AQUEBOGUE,NY,USA,40.94,-72.62
12701,NY0022454,WAVERLY AVE,MONTICELLO,NY,USA,41.64,-74.67
12547,NY0008613,681 SOUTH RD,MILTON,NY,USA,41.65,-73.96
13464,NY0244287,SCHOOL RD,SMYRNA,NY,USA,42.69,-75.56
13619,NY0025151,20 HEWITT DR|END OF ROAD OFF LATHROP ST,WEST CARTHAGE,NY,USA,43.98,-75.63
12572,NY0035688,SLATE DOCK RD,RHINEBECK,NY,USA,41.93,-73.95
14847,NY0029289,CAYUGA ST,INTERLAKEN,NY,USA,42.62,-76.72
11550,NY0106879,1540 BEECH ST,ATLANTIC BEACH,NY,USA,40.59,-73.72
12033,NY0030970,ST RTE 9J - S MAIN ST,CASTLETON ON HUDSON,NY,USA,42.54,-73.75
11797,NY0020478,SUTHERLAND DR,WOODBURY,NY,USA,41.36,-74.1
14203,NY0001945,120 CHILDS ST,BUFFALO,NY,USA,42.86,-78.86
14760,NY0073547,1695 SENECA AVE,OLEAN,NY,USA,42.07,-78.4
14542,NY0271918,W SIDE OF GALEN RD (ST RTE 414),ROSE,NY,USA,43.18,-76.84
10928,NY0149411,31-71 MINE DOCK RD,HIGHLANDS,NY,USA,41.33,-73.99
14516,NY0002585,4754 ST RTE 414,NORTH ROSE,NY,USA,43.18,-76.89
12524,NY0060976,75 INDUSTRIAL WAY,FISHKILL,NY,USA,41.52,-73.98
14527,NY0029726,30 ELMWOOD AVE,PENN YAN,NY,USA,42.66,-77.04
10994,NY0259772,TOWN LINE RD,WEST NYACK,NY,USA,41.09,-73.99
13027,NY0028509,2885 BELGIUM RD,BALDWINSVILLE,NY,USA,43.17,-76.31
11951,NY0266361,197 MASTIC BEACH RD,MASTIC BEACH,NY,USA,40.78,-72.85
12183,NY0033031,SWAN ST / HAMILTON ST / SARATOGA ST,GREEN ISLAND,NY,USA,42.74,-73.69
13601,NY0000957,213 FACTORY ST,WATERTOWN,NY,USA,43.98,-75.91
11961,NY0226688,2020 WILLIAM FLOYD PKWY,RIDGE,NY,USA,40.88,-72.89
10918,NY0007943,25 OAKLAND AVE,CHESTER,NY,USA,41.36,-74.28
11694,NY0276855,108-20 Rockaway Beach Blvd,Rockaway Park,NY,USA,40.58,-73.83
13035,NY0108502,ALBANY ST,CAZENOVIA,NY,USA,42.93,-75.85
14855,NY0246441,ST RTE 417 & ST RTE 36,JASPER,NY,USA,42.12,-77.53
13068,NY0110493,DPW DR,FREEVILLE,NY,USA,42.51,-76.34
14036,NY0109746,8420 ALLEGHANY RD (ST RTE 77),CORFU,NY,USA,43,-78.41
11973,NY0005835,53 BELL AVE|SCTM  200-505-1-1.002,UPTON,NY,USA,40.87,-72.88
,NY0282511,2869 New Scotland Rd,New Scotland,NY,USA,42.62,-73.98
,NY0268003,ADJ TO WESTCHESTER CO CORRECTIONAL ON N SIDE OF GRASSLANDS RD,GREENBURGH,NY,USA,41.08,-73.81
11952,NY0226793,12250-2 ST RTE 25 (MAIN RD),MATTITUCK,NY,USA,40.99,-72.53
12144,NY0026026,FOOT OF WATER ST,RENSSELAER,NY,USA,42.65,-73.74
11793,NY0026859,3340 MERRICK RD & CEDAR CREEK PK,WANTAGH,NY,USA,40.65,-73.51
14560,NY0246450,7737 KELLOGG RD,SPRINGWATER,NY,USA,42.64,-77.6
,NY0228478,ROCHESTER-C ROW FROM HEMLOCK LAKE TO CITY,LIVINGSTON & MONROE CO,NY,USA,42.78,-77.61
10996,NY0274666,IMNE-MIL-PWE-M|BLDG 667A RUGER RD,WEST POINT,NY,USA,41.39,-73.98
10590,NY0030767,400 OAKRIDGE DR,SOUTH SALEM,NY,USA,41.21,-73.52
12569,NY0006173,410 NORTH AVE,PLEASANT VALLEY,NY,USA,41.77,-73.81
11729,NY0279960,730 GRAND BLVD,DEER PARK,NY,USA,40.76,-73.31
12023,NY0268976,ST RTE 443 - N SIDE - W OF SCHOOL,BERNE,NY,USA,42.63,-74.15
11742,NY0180645,660 UNION AVE,HOLTSVILLE,NY,USA,40.81,-73.05
,NY0272876,70 ELM ST,GREENWOOD LAKE,NY,USA,41.23,-74.3
13903,NY0106542,60 GOULD RD,FENTON,NY,USA,42.21,-75.83
12935,NY0256579,5209 US RTE 11,ELLENBURG DEPOT,NY,USA,44.9,-73.81
10987,NY0260142,EAST LAKE ROAD,TUXEDO PARK,NY,USA,41.19,-74.21
13637,NY0024660,8724 NOBLE ST,EVANS MILLS,NY,USA,44.09,-75.81
10528,NY0075132,240 AIRPORT RD|ST RTE 120,PURCHASE,NY,USA,41.07,-73.71
13350,NY0097764,378 GROS BLVD,HERKIMER,NY,USA,43.03,-74.97
11222,NY0276880,11 West St,Brooklyn,NY,USA,40.73,-73.96
12190,NY0201511,RTE 30,WELLS,NY,USA,43.41,-74.29
14201,NY0269743,196 PORTER AVE,BUFFALO,NY,USA,42.9,-78.9
10962,NY0007579,542 ST RTE 303,ORANGEBURG,NY,USA,41.06,-73.95
12182,NY0205401,55 LEVERSEE RD,TROY,NY,USA,42.79,-73.65
11222,NY0026204,329-69 GREENPOINT AVE,BROOKLYN,NY,USA,40.73,-73.95
12601,NY0026255,173 KITTREDGE PL,POUGHKEEPSIE,NY,USA,41.72,-73.94
11794,NY0109291,NICOLLS RD - W SIDE,STONY BROOK,NY,USA,40.91,-73.12
13740,NY0261289,MAIN ST & COULTER BROOK RD,BOVINA CENTER,NY,USA,42.26,-74.77
13403,NY0235733,9005 OLD RIVER RD/BIGELOW DRIVE,MARCY,NY,USA,43.17,-75.3
13630,NY0034762,CO RTE 17,DE KALB JUNCTION,NY,USA,44.51,-75.28
14901,NY0035742,600 MILTON ST,ELMIRA,NY,USA,42.07,-76.78
13760,NY0003808,1093 CLARK ST,ENDICOTT,NY,USA,42.11,-76.05
12189,NY0023361,BROADWAY,WATERVLIET,NY,USA,42.72,-73.71
10541,NY0031356,US RTE 6 & BREWSTER AVE,CARMEL,NY,USA,41.42,-73.67
6390,NY0199214,FOX LN,FISHERS ISLAND,NY,USA,41.25,-72.03
13815,NY0004243,158 ST RTE 320,NORWICH,NY,USA,42.55,-75.52
12061,NY0122980,301 AMERICAN OIL RD,EAST GREENBUSH,NY,USA,42.61,-73.76
13108,NY0262048,2540 PLEASANT VALLEY RD,MARCELLUS,NY,USA,42.98,-76.33
14608,NY0247286,250-310 EXCHANGE BLVD,ROCHESTER,NY,USA,43.15,-77.61
12477,NY0274747,240 ULSTER AVE,SAUGERTIES,NY,USA,42.08,-73.97
12812,NY0256161,WATER PLANT RD,BLUE MOUNTAIN LAKE,NY,USA,43.87,-74.44
13617,NY0085006,MCADOO RD|334 CO RTE 16,CANTON,NY,USA,44.56,-75.32
12751,NY0166090,ST RTE 42,KIAMESHA LAKE,NY,USA,41.58,-74.63
12763,NY0145696,CHURCH RD - OPPOSITE LAUREL,MOUNTAIN DALE,NY,USA,41.69,-74.53
13142,NY0231673,7695 ROME RD,PULASKI,NY,USA,43.55,-76.1
14323,NY0002836,390 ELMWOOD AVE,ROCHESTER,NY,USA,43.12,-77.63
14530,NY0022985,7572 WATER STREET RD,PERRY,NY,USA,42.72,-77.98
12594,NY0086070,3206 PLEASANT RIDGE RD,WINGDALE,NY,USA,41.64,-73.61
12157,NY0249718,4860 ST RTE 30,SCHOHARIE,NY,USA,42.63,-74.32
11717,NY0267279,105 EMJAY BLVD,BRENTWOOD,NY,USA,40.78,-73.28
12035,NY0263087,662 ST RTE 30A - OPPOSITE S MAIN ST,CENTRAL BRIDGE,NY,USA,42.71,-74.33
13456,NY0257222,2620 HOLMAN CITY RD,SAUQUOIT,NY,USA,42.99,-75.24
12779,NY0234231,GRIFF CT & LAUREL AVE,SOUTH FALLSBURG,NY,USA,41.71,-74.63
12996,NY0239682,76 GILLILAND LN,WILLSBORO,NY,USA,44.37,-73.39
13057,NY0244813,6176 E MOLLOY RD,EAST SYRACUSE,NY,USA,43.1,-76.09
14840,NY0108979,17 WHEELER AVE,HAMMONDSPORT,NY,USA,42.41,-77.23
11716,NY0199648,180 ORVILLE DR,BOHEMIA,NY,USA,40.77,-73.1
12481,NY0251305,2389 ST RTE 28A,SHOKAN,NY,USA,41.97,-74.19
11784,NY0227005,1250 MIDDLE COUNTRY RD,SELDEN,NY,USA,40.86,-73.06
11101,NY0005193,38-54 VERNON BLVD,QUEENS,NY,USA,40.76,-73.95
12068,NY0032433,29 S BRIDGE ST,FONDA,NY,USA,42.95,-74.36
12547,NY0259829,DOCK ST,MILTON,NY,USA,41.65,-73.96
12167,NY0262790,ST RTE 23 - N SIDE AT MURPHY RD,STAMFORD,NY,USA,42.41,-74.6
13904,NY0101231,UPPER COURT ST,BINGHAMTON,NY,USA,42.1,-75.84
13158,NY0214167,6935 ST RTE 91,TRUXTON,NY,USA,42.74,-76.03
14036,NY0108430,FIELDCREST DR,CORFU,NY,USA,42.96,-78.41
12525,NY0274496,14 GRIST MILL LN,GARDINER,NY,USA,41.69,-74.18
14420,NY0033057,500 HOLLEY ST,BROCKPORT,NY,USA,43.21,-77.96
12839,NY0265292,438 VAUGHN RD,HUDSON FALLS,NY,USA,43.35,-73.57
14611,NY0002127,1000 WEST AVE,ROCHESTER,NY,USA,43.14,-77.67
14151,NY0202924,640 YOUNG ST,TONAWANDA,NY,USA,43,-78.86
13783,NY0089702,LABARRE ST,HANCOCK,NY,USA,41.94,-75.28
14034,NY0242748,PALMERTON ST,COLLINS,NY,USA,42.49,-78.92
13605,NY0215775,23 PHELPS ST,ADAMS,NY,USA,43.81,-76.03
11968,NY0226033,DAVID WHITES LN,SOUTHAMPTON,NY,USA,40.9,-72.38
12801,NY0008150,313 WARREN ST,GLENS FALLS,NY,USA,43.31,-73.62
11572,NY0279935,3705 HAMPTON RD|PARCEL 43  BLOCK 400  LOT 202,OCEANSIDE,NY,USA,40.62,-73.65
14507,NY0063517,910 ST RTE 245,MIDDLESEX,NY,USA,42.72,-77.27
12866,NY0248657,5 PETRIFIED GARDENS RD,SARATOGA SPRINGS,NY,USA,43.08,-73.85
,NY0241652,SMITH BLVD PORT OF ALBANY,ALBANY,NY,USA,42.62,-73.76
11779,NY0077330,519 NICHOLS RD,RONKONKOMA,NY,USA,40.82,-73.15
10567,NY0030503,POST HEADQUARTERS|RTE 6 AND RT 202,CORTLANDT MANOR,NY,USA,41.3,-73.94
14047,NY0258385,722 STURGEON PT RD,DERBY,NY,USA,42.69,-79.04
13902,NY0107069,SWARTOUT RD,TORREY,NY,USA,42.68,-76.96
,NY0260509,656 CO RTE 33,MIDDLEFIELD,NY,USA,42.63,-74.94
10965,NY0004600,401 N MIDDLETOWN RD,PEARL RIVER,NY,USA,41.08,-74.02
13901,NY0024414,4480 OLD VESTAL RD,VESTAL,NY,USA,42.1,-75.96
11731,NY0227129,290 LARKFIELD RD,EAST NORTHPORT,NY,USA,40.87,-73.32
14034,NY0275701,14020 JENNINGS RD,COLLINS,NY,USA,42.5,-78.88
,NY0100846,10176 GLENMORE RD,ANNSVILLE,NY,USA,43.35,-75.62
13460,NY0021466,W STATE ST,SHERBURNE,NY,USA,42.68,-75.51
14001,NY0002941,COUNTY LINE RD SOUTH OF SCHURR RD,AKRON,NY,USA,42.97,-78.47
10969,NY0271357,607 CO RTE 1,PINE ISLAND,NY,USA,41.29,-74.46
12564,NY0004618,157 CHARLES COLMAN BLVD,PAWLING,NY,USA,41.57,-73.6
12477,NY0208396,VAN VLIERDEN RD @ CARRELIS RD,BLUE MOUNTAIN,NY,USA,42.11,-74.02
13632,NY0215791,CAROLINE ST,DEPAUVILLE,NY,USA,44.14,-76.07
11952,NY0252344,44075 MAIN RD (SR#25),MATTITUCK,NY,USA,41.04,-72.45
14469,NY0103039,7629 RTE 5 & 20,BLOOMFIELD,NY,USA,42.9,-77.45
12524,NY0270571,172 US RTE 9,FISHKILL,NY,USA,41.5,-73.9
12871,NY0251950,ROUTE 32,SARATOGA,NY,USA,43.07,-73.63
11754,NY0279722,125 MEADOW RD W|SCTM#800-27-4-3.3,KINGS PARK,NY,USA,40.88,-73.26
14845,NY0004103,200 WESTINGHOUSE CIR,HORSEHEADS,NY,USA,42.16,-76.84
12412,NY0274038,ST RTE 28 @ ST RTE 28A,BOICEVILLE,NY,USA,42.01,-74.27
12553,NY0024261,1106 RIVER RD,NEW WINDSOR,NY,USA,41.48,-74.01
11368,NY0276642,30TH ST AND 10TH AVE,NEW YORK,NY,USA,40.75,-74
10509,NY0110353,PUTNAM AVE - W OF METRO-NORTH,BREWSTER,NY,USA,41.4,-73.62
10950,NY0105112,470 ST RTE 32,WOODBURY,NY,USA,41.35,-74.17
,NY0264547,CO RTE 83,PINE PLAINS,NY,USA,41.97,-73.66
13662,NY0000132,194 CO RTE 45,MASSENA,NY,USA,44.98,-74.75
13667,NY0023604,RIVER RD AND CO RTE 38,NORFOLK,NY,USA,44.8,-75
10962,NY0259993,560 ST RTE 303,ORANGEBURG,NY,USA,41.06,-73.95
12740,NY0026549,ST RTES 42 & 55|REYNOLDS RD,GRAHAMSVILLE,NY,USA,41.84,-74.54
11050,NY0266671,ENTIRE WATER DISTRICT,SANDS POINT,NY,USA,40.8,-73.73
,NY0028771,STERLING LAKE RD,WARWICK,NY,USA,41.16,-74.26
11782,NY0237361,5640 SUNRISE HWY  UNIT #6,SAYVILLE,NY,USA,40.76,-73.08
13323,NY0021385,NORTON AVE,CLINTON,NY,USA,43.06,-75.38
13669,NY0121088,701 CEDAR ST,OGDENSBURG,NY,USA,44.68,-75.5
12543,NY0145718,125 NEELYTOWN RD,MONTGOMERY,NY,USA,41.5,-74.22
12158,NY0072371,ST RTE 32 EXTENDING SOUTH & EAST TO US RTE 9W,FEURA BUSH TO SELKIRK,NY,USA,42.56,-73.85
13668,NY0002461,7971 ST RTE 56 - W SIDE - 1 MI N OF BRAY RD,NORWOOD,NY,USA,44.79,-74.99
12455,NY0026531,41158 ST RTE 28,MARGARETVILLE,NY,USA,42.14,-74.65
10314,NY0007145,"1900 SOUTH AVE|B:1801, L:35,75",STATEN ISLAND,NY,USA,40.6,-74.2
12828,NY0183695,17 CORTLAND ST,FORT EDWARD,NY,USA,43.26,-73.58
13365,NY0022403,223 RIVER RD E,LITTLE FALLS,NY,USA,43.04,-74.84
12742,NY0035645,LAKE LOUISE MARIE RD,THOMPSON,NY,USA,41.62,-74.59
14107,NY0072061,1550 BALMER RD,MODEL CITY,NY,USA,43.23,-78.98
14568,NY0025704,3451 ONTARIO CTR RD,WALWORTH,NY,USA,43.13,-77.3
14303,NY0258415,2400 BUFFALO AVE,NIAGARA FALLS,NY,USA,43.08,-79.03
12157,NY0023655,DEPOT LN,SCHOHARIE,NY,USA,42.67,-74.31
,NY0235776,MIDDLE RD,REMSEN,NY,USA,43.32,-75.18
14012,NY0061913,7389 LAKE RD,BARKER,NY,USA,43.35,-78.63
,NY0264903,US RTE 209 AND MCDONALD RD,MAMAKATING,NY,USA,41.59,-74.47
14870,NY0021008,100 CHEMUNG ST,PAINTED POST,NY,USA,42.16,-77.09
12143,NY0106992,FILTRATION PLANT RD,RAVENA,NY,USA,42.47,-73.82
14502,NY0000329,729 PITTSFORD-PALMYRA RD (ST RTE 31),MACEDON,NY,USA,43.07,-77.34
14469,NY0246034,6680 RTES 5 & 20,BLOOMFIELD,NY,USA,42.88,-77.4
13021,NY0025623,E LAKE RD,AUBURN,NY,USA,42.88,-76.52
13088,NY0002101,497 ELECTRONICS PKWY,LIVERPOOL,NY,USA,43.11,-76.19
14840,NY0098566,BULLY HILL RD (GREYTON H TAYLOR MEMORIAL DR),HAMMONDSPORT,NY,USA,42.43,-77.21
13814,NY0004138,6826 ST RTE 12,NORTH NORWICH,NY,USA,42.6,-75.53
13304,NY0122009,NORTH ST,BARNEVELD,NY,USA,43.28,-75.19
12734,NY0247944,504 SWAN LAKE RD - TOWN RD 58,FERNDALE,NY,USA,41.74,-74.74
14590,NY0106305,6864 WADSWORTH RD,WOLCOTT,NY,USA,43.25,-76.79
11722,NY0211591,18 E SUFFOLK AVE,CENTRAL ISLIP,NY,USA,40.79,-73.2
14218,NY0030881,661 WILLET RD,BUFFALO,NY,USA,42.8,-78.8
10962,NY0148989,330 BLAISDELL RD,ORANGEBURG,NY,USA,41.04,-73.98
12549,NY0026433,BACHELOR ST - W END,MONTGOMERY,NY,USA,41.53,-74.25
11725,NY0279846,209 COMMACK RD,COMMACK,NY,USA,40.84,-73.3
12524,NY0208400,247 US RTE 9|@ I-84,FISHKILL,NY,USA,41.51,-73.9
13778,NY0157490,13 CHERRY ST,GREENE,NY,USA,42.33,-75.77
14807,NY0229512,66 WEST ST,ARKPORT,NY,USA,42.4,-77.7
14468,NY0246468,198 E MANITOU RD,HILTON,NY,USA,43.3,-77.72
14227,NY0002852,500 COMO PARK BLVD,CHEEKTOWAGA,NY,USA,42.89,-78.74
10801,NY0268224,2 COONEY HILL RD|KENSICO RESERVOIR - NE SIDE,NORTH CASTLE,NY,USA,41.1,-73.73
12309,NY0007030,1 RESEARCH CIR,NISKAYUNA,NY,USA,42.83,-73.88
10512,NY0264466,1099 RTE 52,KENT,NY,USA,41.49,-73.68
13069,NY0262064,32 SILK RD,FULTON,NY,USA,43.34,-76.38
,NY0226921,ENTIRE WATER DISTRICT WIDE,SUFFOLK,NY,USA,,
13040,NY0232050,2761 ST RTE 26,CINCINNATUS,NY,USA,42.54,-75.9
13607,NY0270164,I-81 OVER INTERNATIONAL RIFT,WELLESLEY ISLAND,NY,USA,44.35,-75.98
11968,NY0098736,50 CO RD 39A|SCTM#904-4-2-020,SOUTHAMPTON,NY,USA,40.9,-72.4
13471,NY0257001,5017 CHURCH ST,TABERG,NY,USA,43.3,-75.61
14757,NY0291218,6169 Elm Flat Rd,Mayville,NY,USA,42.27,-79.47
14755,NY0104795,103 ROCK CITY ST EXT,LITTLE VALLEY,NY,USA,42.25,-78.79
10580,NY0026719,141 OAKLAND BEACH AVE,RYE,NY,USA,40.96,-73.69
14728,NY0269450,ST RTE 430 - W SIDE,SHORELANDS,NY,USA,42.25,-79.47
14067,NY0029963,4244 BOLTON RD,GASPORT,NY,USA,43.2,-78.56
11371,NY0008133,GRAND CENTRAL PKWY & 94TH ST,FLUSHING,NY,USA,40.77,-73.87
12553,NY0093572,1254 RIVER RD|HUDSON RIVER,NEW WINDSOR,NY,USA,41.49,-74.01
,NY0268429,US RTE 9W  - 3/4 MILE NORTH OF SCHOHARIE TPKE,ATHENS,NY,USA,42.3,-73.85
10940,NY0149497,US RTE 6 - S SIDE - W OF SEWARD RD,MIDDLETOWN,NY,USA,41.4,-74.45
14760,NY0003441,1648 DUGAN RD,OLEAN,NY,USA,42.07,-78.39
12822,NY0266167,37 White St,Corinth,NY,USA,43.25,-73.82
13615,NY0257923,101 BRIDGE ST,BROWNVILLE,NY,USA,44,-75.98
14072,NY0027693,3500 BASELINE RD,GRAND ISLAND,NY,USA,43.06,-78.97
13754,NY0029211,MILL ST,DEPOSIT,NY,USA,42.06,-75.42
12033,NY0223085,970 US Rte 9 @ Kingman Rd,Schodack,NY,USA,42.5,-73.67
12883,NY0036706,219 MONTCALM ST,TICONDEROGA,NY,USA,43.85,-73.42
12056,NY0261271,US RTE 20 - S SIDE - BEHIND TOWN HALL,DUANESBURG,NY,USA,42.76,-74.15
10941,NY0215198,35 BRISTOL DR,MIDDLETOWN,NY,USA,41.45,-74.32
11768,NY0024881,"1 KETCHUM PL|SCTM  404-12-1-30,31",NORTHPORT,NY,USA,40.89,-73.36
13361,NY0257125,CO RTE 155 - W SIDE - N OF ST RTE 167,JORDANVILLE,NY,USA,42.92,-74.96
13624,NY0027545,GARDNER ST,CLAYTON,NY,USA,44.24,-76.08
12866,NY0230278,267 UNION AVE |E OF NELSON AVE,SARATOGA SPRINGS,NY,USA,43.07,-73.77
13606,NY0257575,ST RTE 178 @ I-81 - EXIT 41,ADAMS,NY,USA,43.81,-76.04
13411,NY0262447,4238 ST RTE 8,NEW BERLIN,NY,USA,42.58,-75.33
,NY0267155,ENTIRE WATER DISTRICT WIDE,SUFFOLK,NY,USA,,
14733,NY0078506,1870 NEW YORK AVE,FALCONER,NY,USA,42.12,-79.18
12734,NY0275140,1243 OLD RTE 17,FERNDALE,NY,USA,41.74,-74.73
12170,NY0093637,RUNDLE LN,STILLWATER,NY,USA,42.94,-73.65
11205,NY0027073,63 FLUSHING AVE,BROOKLYN,NY,USA,40.7,-73.98
,NY0245038,RTE 104,MAPLEVIEW,NY,USA,43.46,-76.1
12853,NY0248967,BRIDGE ST - 0.25 MILE EAST OF ST RTE 28,NORTH CREEK,NY,USA,43.7,-73.98
12846,NY0265527,119 TOWNER RD,LAKE LUZERNE,NY,USA,43.34,-73.83
13212,NY0244074,1000 COLONEL EILEEN COLLINS BLVD,SYRACUSE,NY,USA,43.11,-76.11
11717,NY0226556,201 SECOND AVE,BRENTWOOD,NY,USA,40.78,-73.23
12754,NY0259446,W LILY POND RD,LIBERTY,NY,USA,41.88,-74.74
10511,NY0234826,295 BROADWAY,BUCHANAN,NY,USA,41.27,-73.95
11980,NY0270415,50 ZORN BLVD,SOUTH YAPHANK,NY,USA,40.81,-72.94
12985,NY0256188,KELLY RD,SCHUYLER FALLS,NY,USA,44.67,-73.52
11720,NY0227196,1830 MIDDLE COUNTRY RD|SCTM 200-487-400-1001,CENTEREACH,NY,USA,40.86,-73.08
12901,NY0256668,26 Werner Schluter Way,Plattsburgh,NY,USA,44.66,-73.49
12583,NY0248363,185 W KERLEY CORNERS RD,TIVOLI,NY,USA,42.06,-73.88
13668,NY0021369,DUBLIN RD,NORWOOD,NY,USA,44.75,-75.01
14103,NY0271497,4141 BATES RD,MEDINA,NY,USA,43.21,-78.37
12974,NY0022969,29 BULWAGGA DR,PORT HENRY,NY,USA,44.04,-73.46
11706,NY0266868,1546-1569 BRENTWOOD RD|SCTM 500-246-04-1 & 2 & 500-225-3-108,BAY SHORE,NY,USA,40.76,-73.24
14036,NY0069388,857 MAIN RD,CORFU,NY,USA,42.99,-78.42
11559,NY0028495,1 BAY BLVD,LAWRENCE,NY,USA,40.63,-73.74
13317,NY0260720,RT 5S I-90 EXT 29,CANAJOHARIE,NY,USA,42.9,-74.57
12534,NY0240672,90 INDUSTRIAL TRACK,HUDSON,NY,USA,42.25,-73.77
14895,NY0085286,37 COATS ST,WELLSVILLE,NY,USA,42.13,-77.96
12149,NY0022519,347 Main St,RICHMONDVILLE,NY,USA,42.64,-74.56
13808,NY0263044,LAKE ST AT MILL ST,MORRIS,NY,USA,42.55,-75.24
14304,NY0000906,6200 NIAGARA FALLS BLVD,NIAGARA FALLS,NY,USA,43.09,-78.99
10474,NY0026191,COSTER ST & RYAWA AVE,BRONX,NY,USA,40.8,-73.88
14072,NY0001201,2801 LONG RD,GRAND ISLAND,NY,USA,43.05,-79
12803,NY0265322,RESERVOIR RD - N SIDE - � MI W OF FT EDWARD RD,SOUTH GLENS FALLS,NY,USA,43.27,-73.61
11954,NY0197963,45 SOUTH ELMWOOD AVE,MONTAUK,NY,USA,41.03,-71.95
12144,NY0005690,367 AMERICAN OIL RD,RENSSELAER,NY,USA,42.61,-73.76
11561,NY0020567,NATIONAL BLVD & BAY ST,LONG BEACH,NY,USA,40.59,-73.67
14213,NY0028410,90 W FERRY ST,BUFFALO,NY,USA,42.92,-78.9
,NY0234141,INTERCHANGE 15 ON NYS THRUWAY,RAMAPO,NY,USA,41.14,-74.18
14839,NY0161926,CO RTE 62,GREENWOOD,NY,USA,42.16,-77.66
12095,NY0026042,191 UNION AVE,JOHNSTOWN,NY,USA,42.99,-74.4
12189,NY0100153,222 WATERVLIET - SHAKER RD,WATERVLIET,NY,USA,42.73,-73.73
12010,NY0020290,QUIST RD,AMSTERDAM,NY,USA,42.92,-74.17
14533,NY0068225,3289 GENESEE ST,PIFFARD,NY,USA,42.83,-77.84
14891,NY0002330,3580 SALT POINT RD,WATKINS GLEN,NY,USA,42.41,-76.89
10562,NY0104701,19 S WATER ST,OSSINING,NY,USA,41.16,-73.87
12834,NY0006785,2322 ST RTE 29,CENTER FALLS,NY,USA,43.1,-73.46
10582,NY0102211,RAILROAD AVE & QUIMBY ST,OSSINING,NY,USA,41.16,-73.87
13619,NY0215872,701 W END AVE,CARTHAGE,NY,USA,43.99,-75.62
14059,NY0202673,7540 SENECA ST,ELMA,NY,USA,42.79,-78.65
10994,NY0105180,169 WESTERN AVE,WEST NYACK,NY,USA,41.09,-73.96
10987,NY0031216,WEE WAH RD - N END WEE WAH LAKE,TUXEDO PARK,NY,USA,41.22,-74.19
14202,NY0032174,JERSEY ST,BUFFALO,NY,USA,42.89,-78.9
14821,NY0228354,8537 CLINTON ST,CAMPBELL,NY,USA,42.23,-77.19
14612,NY0000612,1101 BEACH AVE,GREECE,NY,USA,43.27,-77.63
13452,NY0024333,BRIDGE ST,ST JOHNSVILLE,NY,USA,42.99,-74.68
12553,NY0272582,1141 RIVER RD,NEW WINDSOR,NY,USA,41.48,-74.01
12022,NY0005011,28 TAYLOR AVE,BERLIN,NY,USA,42.7,-73.37
,NY0247197,1 WOODROW DR|NEAR ST RTE 63 @ ST RTE 19,PAVILION,NY,USA,42.88,-78.03
12020,NY0005843,350 ATOMIC PROJECT RD,WEST MILTON,NY,USA,43.04,-73.95
13126,NY0233196,76 INDEPENDENCE WAY,SCRIBA,NY,USA,43.5,-76.45
11561,NY0225916,"LIDO BLVD (PART OF LIDO BEACH TOWN PARK PROPERTY)|NCTM SEC 60, BLK 91, BLK 2",LIDO BEACH,NY,USA,40.59,-73.62
14150,NY0001023,3500 RIVER RD,TONAWANDA,NY,USA,42.97,-78.93
11763,NY0266574,2690 ST RTE 112,MEDFORD,NY,USA,40.82,-73
13338,NY0236756,RIVER ST,FORESTPORT,NY,USA,43.44,-75.21
11788,NY0066028,725 VETERANS MEMORIAL HWY,HAUPPAUGE,NY,USA,40.83,-73.23
14105,NY0022331,3825 N HARTLAND ST,MIDDLEPORT,NY,USA,43.22,-78.48
14472,NY0002992,HONEOYE FALLS RD #6 & DALTON RD,LIMA,NY,USA,42.94,-77.63
11356,NY0276936,20th Ave & 119th St between 126 ST & US BULKHEAD,College Point,NY,USA,40.78,-73.85
,NY0245780,HARECK RD - S OF RTE 531 & E OF MANITOU RD,GATES,NY,USA,43.16,-77.74
11788,NY0108154,225 MARCUS BLVD,HAUPPAUGE,NY,USA,40.82,-73.25
12428,NY0109924,1421 BERME RD,ELLENVILLE,NY,USA,41.77,-74.31
14482,NY0020028,7875 E MAIN ST,LEROY,NY,USA,42.99,-77.96
11751,NY0237035,404 ROSEVALE AVE|SCTM# 500-21-1-37,RONKONKOMA,NY,USA,40.82,-73.13
14551,NY0162469,142 ST RTE 31 E,SODUS,NY,USA,43.23,-77.04
11553,NY0109258,300 OAK ST,UNIONDALE,NY,USA,40.73,-73.61
12944,NY0256382,I-87 AT ST RTE 9N|EXIT 34,KEESEVILLE,NY,USA,44.5,-73.5
11105,NY0026158,43-10 BERRIAN BLVD,ASTORIA,NY,USA,40.78,-73.89
10962,NY0031895,4 RTE 340,ORANGEBURG,NY,USA,41.04,-73.94
14125,NY0023639,19 IRVING PKWY,OAKFIELD,NY,USA,43.07,-78.27
10520,NY0006866,1 CROTON POINT AVE,CROTON-ON-HUDSON,NY,USA,41.19,-73.89
14551,NY0088625,7673 SODUS CENTER RD,SODUS,NY,USA,43.21,-77.02
14423,NY0271993,159 FLINT HILL RD,CALEDONIA,NY,USA,42.98,-77.91
13401,NY0002232,8550 MILL POND WAY,MCCONNELLSVILLE,NY,USA,43.28,-75.69
12839,NY0202215,93 RIVER ST,HUDSON FALLS,NY,USA,43.31,-73.59
14422,NY0160971,ST RTE 237 - W SIDE - OPPOSITE MILL POND RD,BYRON,NY,USA,43.08,-78.07
14753,NY0242845,362 QUINN RD,LIMESTONE,NY,USA,42.02,-78.59
11722,NY0237515,120 W SUFFOLK AVE|SCTM 500-119-1-85,CENTRAL ISLIP,NY,USA,40.79,-73.22
12518,NY0022152,35 HOWARD ST,CORNWALL,NY,USA,41.45,-74.05
14150,NY0105678,700 GRAND ISLAND BLVD,TONAWANDA,NY,USA,42.99,-78.93
14302,NY0003336,BUFFALO AVE AND 47TH ST,NIAGARA FALLS,NY,USA,43.08,-79.01
12456,NY0076376,PARK CIRCLE,MT MARION,NY,USA,42.04,-74
13842,NY0263222,58200 ST RTE 10,SOUTH KORTRIGHT,NY,USA,42.35,-74.7
14867,NY0110752,TABER RD,NEWFIELD-T,NY,USA,42.37,-76.58
12569,NY0077593,68 FOREST VALLEY RD,PLEASANT VALLEY,NY,USA,41.73,-73.81
12144,NY0267546,75 RIVERSIDE AVE,RENSSELAER,NY,USA,42.63,-73.75
11716,NY0209996,876 CHURCH ST STE G & H,BOHEMIA,NY,USA,40.77,-73.11
10940,NY0026328,159 DOLSON AVE,MIDDLETOWN,NY,USA,41.43,-74.42
12550,NY0281093,5349 RTE 9W,NEWBURGH,NY,USA,41.56,-74
,NY0262676,124 MAIN ST|FAIRVIEW DR & RTE 17,WINDSOR,NY,USA,42.1,-75.77
12047,NY0031046,MYRTLE AVE/HUDSON AVE/BRIDGE AVE/VAN SCHAICK AVE/N GANSVOORT AVE/ONTARIO ST/N MOHAWK & VLIET STS/SARATOGA ST/CONBOY AVE/PEACH ST/CEDAR ST/GARNER ST/COLUMBIA,COHOES,NY,USA,42.77,-73.7
14744,NY0024431,ST RTE 19 AND GENESEE RD OPPOSITE CHAMBERLAIN ST,HOUGHTON,NY,USA,42.43,-78.14
14760,NY0171620,E RIVER RD,OLEAN,NY,USA,42.06,-78.41
12801,NY0131679,QUAKER RD,GLENS FALLS,NY,USA,43.33,-73.66
10980,NY0235067,23 GRASSY POINT RD,STONY POINT,NY,USA,41.22,-73.97
14221,NY0243752,560 SMITH RD|NEAR INTERSECTION OF MILLERSPORT HWY & NEW RD,AMHERST,NY,USA,43.06,-78.72
13865,NY0262366,463 ATWELL HILL RD,WINDSOR,NY,USA,42.01,-75.58
14120,NY0107468,1174 ERIE AVE,NORTH TONAWANDA,NY,USA,43.05,-78.85
14813,NY0031844,WILLARD & ERIE STS,BELMONT,NY,USA,42.23,-78.04
12561,NY0030082,HUGUENOT ST,NEW PALTZ,NY,USA,41.75,-74.09
10167,NY0109932,250 VESEY ST,NEW YORK,NY,USA,40.71,-74.02
12831,NY0265195,ST RTE 32 - � MILE EAST OF ST RTE 50,GANSEVOORT,NY,USA,43.19,-73.64
13502,NY0025780,51 LELAND AVE,UTICA,NY,USA,43.1,-75.19
14072,NY0258636,3159 STALEY RD,GRAND ISLAND,NY,USA,43.01,-79.01
12986,NY0256315,MADDOX LN,TUPPER LAKE,NY,USA,44.19,-74.49
11763,NY0226823,3202 HORSEBLOCK RD,MEDFORD,NY,USA,40.83,-72.98
12061,NY0212695,140 AMERICAN OIL RD,EAST GREENBUSH,NY,USA,42.6,-73.76
10922,NY0264393,WEST SIDE OF BEAR MOUNTAIN BRIDGE AT BRIDGE PLAZA,FORT MONTGOMERY,NY,USA,41.32,-73.99
,NY0276731,BRONX TO RANDALLS  ISLAND,NEW YORK,NY,USA,40.8,-73.92
14890,NY0160610,87 LAKE ST,HAMMONDSPORT,NY,USA,42.41,-77.23
12067,NY0260860,1297 FEURA BUSH RD,FEURA BUSH,NY,USA,42.58,-73.87
11931,NY0267244,311 WEST LN|SCTM 600-066-02-2.1,AQUEBOGUE,NY,USA,40.96,-72.63
12090,NY0024821,N HOOSICK RD,HOOSICK FALLS,NY,USA,42.91,-73.36
14006,NY0275689,8730 DELAMETER RD,ANGOLA,NY,USA,42.65,-79.02
11968,NY0267465,50 CO RD 39A|SCTM#904-4-2-020,SOUTHAMPTON,NY,USA,40.9,-72.4
11717,NY0222127,345-349 JEFFERSON AVE,BRENTWOOD,NY,USA,40.8,-73.25
14870,NY0107221,792 ADDISON RD - S HAMILTON RD,PAINTED POST,NY,USA,42.12,-77.14
14126,NY0027774,6349 E LAKE RD,OLCOTT,NY,USA,43.34,-78.69
12474,NY0099562,PINES DR,ROXBURY,NY,USA,42.24,-74.58
13643,NY0236616,23080 CO RTE 47,GREAT BEND,NY,USA,44,-75.69
11716,NY0075809,555 CHURCH ST,BOHEMIA,NY,USA,40.77,-73.1
10928,NY0022586,ROSE DR & HUDSON RIVER,HIGHLAND FALLS,NY,USA,41.35,-73.97
12590,NY0250643,8 NANCY COURT,WAPPINGERS FALLS,NY,USA,41.61,-73.84
12986,NY0255882,ST RTES 3 & 30 W OF WAWBEEK,WAWBEEK,NY,USA,44.24,-74.39
13861,NY0034037,3919 ST RTE 23,WEST ONEONTA,NY,USA,42.47,-75.12
13856,NY0008494,261 DELAWARE ST,WALTON,NY,USA,42.17,-75.14
12750,NY0260100,5935 ST RTE 52,KENOZA LAKE,NY,USA,41.72,-74.96
10314,NY0276499,FRESH KILLS LANDFILL SITE,STATEN ISLAND,NY,USA,40.57,-74.2
,NY0271837,115 SOUTH AVE,ROCHESTER,NY,USA,43.15,-77.61
,NY0271314,745 ST RTE 17B,MONGAUP VALLEY,NY,USA,41.67,-74.76
12547,NY0109720,DOCK RD - E OF US RTE 9W,MILTON,NY,USA,41.61,-73.97
12413,NY0124958,ST RTE 23 - N OF INTERSECTION WITH BROSS RD,CAIRO,NY,USA,42.3,-73.99
14716,NY0023507,LAKE AVE,BROCTON,NY,USA,42.4,-79.44
11901,NY0226459,431 E MAIN ST|SCTM  600-129-4-21.3,RIVERHEAD,NY,USA,40.92,-72.66
10950,NY0166481,ST RTE 17 @ ST RTE 208,MONROE,NY,USA,41.34,-74.19
12953,NY0217859,215 JOHNSON RD,MALONE,NY,USA,44.75,-74.24
14722,NY0259179,2 RAMBLE AVE,CHAUTAUQUA,NY,USA,42.21,-79.47
11779,NY0266396,77 RAYNOR AVE,RONKONKOMA,NY,USA,40.8,-73.11
11771,NY0021822,15 BAY AVE|27-A-6,OYSTER BAY,NY,USA,40.88,-73.53
14741,NY0203548,PETH RD,GREAT VALLEY,NY,USA,42.19,-78.64
12144,NY0242586,39 RIVERSIDE AVE,RENSSELAER,NY,USA,42.63,-73.75
13153,NY0261777,700 VISIONS DR,SKANEATELES FALLS,NY,USA,42.99,-76.46
13321,NY0029076,TREATMENT PLANT ACCESS ROAD OFF OF WESTMORELAND RD,CLARK MILLS,NY,USA,43.09,-75.38
,NY0271942,BOAT LAUNCH RD  - 1985 FT S,DIX,NY,USA,42.37,-76.86
11738,NY0267082,411-B HORSEBLOCK RD,FARMINGVILLE,NY,USA,40.84,-73.05
13646,NY0033561,LAKE ST,HAMMOND,NY,USA,44.45,-75.69
13838,NY0029271,72 RIVER ST,SIDNEY,NY,USA,42.31,-75.4
,NY0266914,ENTIRE WATER DISTRICT WIDE,SUFFOLK,NY,USA,,
14171,NY0074101,9129 US RTE 219|ASHFORD HOLLOW,WEST VALLEY,NY,USA,42.4,-78.68
12246,NY0206105,FOOT OF STATE ST,ALBANY,NY,USA,42.66,-73.77
12510,NY0248282,2296-2332 ST RTE 82,BILLINGS,NY,USA,41.67,-73.76
12401,NY0021563,1101 DOGWOOD ST EXT,KINGSTON,NY,USA,41.97,-74.01
12953,NY0030376,4 LANE ST,MALONE,NY,USA,44.86,-74.3
12942,NY0256072,SCHAFFER RD,KEENE,NY,USA,44.24,-73.78
13656,NY0121070,SUNRISE AVE,LA FARGEVILLE,NY,USA,44.19,-75.96
13692,NY0030686,PARK AVE,THOUSAND IS PARK,NY,USA,44.29,-76.03
12601,NY0005541,2455 SOUTH RD,POUGHKEEPSIE,NY,USA,41.65,-73.94
,NY0201138,11TH ST BETWEEN 53RD AND ASH,LONG ISLAND CITY/GREENPOINT,NY,USA,40.74,-73.95
14218,NY0269310,1951 HAMBURG TPKE,LACKAWANNA,NY,USA,42.83,-78.86
10990,NY0274305,186 PINE ISLAND TPK,WARWICK,NY,USA,41.27,-74.39
12430,NY0260584,CO RT 3 IN JOHNSON HOLLOW,HALCOTT CENTER,NY,USA,42.23,-74.47
13305,NY0257826,9635 MAIN ST,BEAVER FALLS,NY,USA,43.89,-75.44
,NY0260193,51 PURDY AVE,WHITE PLAINS,NY,USA,40.98,-73.75
13146,NY0162663,1564 N MAIN ST,SAVANNAH,NY,USA,43.07,-76.76
12095,NY0265896,325 WATERSHED RD,JOHNSTOWN,NY,USA,43.04,-74.48
13639,NY0034533,54 S SHORE RD |E OF SKATE CREEK,WANAKENA,NY,USA,44.13,-74.92
11792,NY0225282,NORTH COUNTRY RD|SCTM #200-39-1-1,WADING RIVER,NY,USA,40.96,-72.88
10710,NY0251291,353 TUCKAHOE RD|& GRASSY SPRAIN RD,YONKERS,NY,USA,40.96,-73.86
12015,NY0102041,SCHOHARIE TPKE,ATHENS,NY,USA,42.31,-73.88
14891,NY0020524,N PORTER ST,WATKINS GLEN,NY,USA,42.38,-76.87
14072,NY0000400,3175 STALEY RD,GRAND ISLAND,NY,USA,43.01,-79.01
11754,NY0023311,87 MARINER DR,KINGS PARK,NY,USA,40.89,-73.23
10451,NY0276952,2401 3rd Ave|BX B:2319 L:2,Bronx,NY,USA,40.81,-73.93
,NY0259659,ST RTE 22 - E SIDE - BETW TOWER HILL & SINPATH RDS,WASSAIC,NY,USA,41.78,-73.57
10511,NY0006645,350 BROADWAY,BUCHANAN,NY,USA,41.27,-73.96
12184,NY0021806,OFF ST LUKES DR,VALATIE,NY,USA,42.41,-73.69
12953,NY0255700,CONSTABLE STREET RD (ST RTE 30) - W SIDE - N OF WHITTEN RD,MALONE,NY,USA,44.87,-74.29
12186,NY0099651,NEW SALEM S RD,NEW SALEM,NY,USA,42.62,-73.96
10973,NY0062278,52 VIEW POINT DR,SLATE HILL,NY,USA,41.38,-74.45
13642,NY0001791,408 SYLVIA LAKE RD,GOUVERNEUR,NY,USA,44.27,-75.41
,NY0261475,2331 ST RTE 66,GHENT,NY,USA,42.33,-73.61
11023,NY0026999,236 E SHORE RD,GREAT NECK,NY,USA,40.8,-73.71
14830,NY0087084,CENTERWAY,CORNING,NY,USA,42.15,-77.06
11558,NY0005908,1 MCCARTHY RD,ISLAND PARK,NY,USA,40.62,-73.65
12051,NY0191892,2 FLINT MINE RD,COXSACKIE,NY,USA,42.34,-73.82
10314,NY0005100,4401 VICTORY BLVD,STATEN ISLAND,NY,USA,40.59,-74.2
12143,NY0242101,JARVIS RD SOUTH,COEYMANS,NY,USA,42.48,-73.84
11378,NY0200841,48-01 58TH RD,MASPETH,NY,USA,40.73,-73.92
10993,NY0028533,ECOLOGY LN,WEST HAVERSTRAW,NY,USA,41.21,-73.97
11743,NY0227315,15 WASHINGTON DR|NW CORNER OF WASHINGTON DR & FLEETS COVE RD,HUNTINGTON,NY,USA,40.89,-73.39
14012,NY0104213,7725 LAKE RD,BARKER,NY,USA,43.36,-78.6
12302,NY0260495,431-435 SARATOGA RD,SCHENECTADY,NY,USA,42.88,-73.93
13206,NY0110311,6223 THOMPSON RD - PLANT 1,SYRACUSE,NY,USA,43.07,-76.09
12834,NY0251968,72 County Route 53,Greenwich,NY,USA,43.1,-73.53
12981,NY0239305,ST RTE 3 - SE SIDE,SARANAC,NY,USA,44.65,-73.74
,NY0275808,4328 ST RTE 19,ROCK GLEN,NY,USA,42.68,-78.12
13733,NY0003867,BAINBRIDGE AFTON RD (ST RTE 7) - E SIDE,BAINBRIDGE,NY,USA,42.28,-75.48
13811,NY0076121,2812 SETTLE RD,NEWARK VALLEY,NY,USA,42.21,-76.13
12550,NY0022446,CAESARS LN,NEW WINDSOR,NY,USA,41.46,-74.03
11746,NY0108341,1 NORDEN LN AND 10 & 15 STEPAR PL,HUNTINGTON STATION,NY,USA,40.84,-73.43
10601,NY0026701,W BOSTON POST RD,WHITE PLAINS,NY,USA,40.95,-73.73
14172,NY0020419,109 ONTARIO ST,WILSON,NY,USA,43.32,-78.84
12603,NY0026271,78 SAND DOCK RD,POUGHKEEPSIE,NY,USA,41.65,-73.94
14150,NY0243469,4545 RIVER RD,TOWN OF TONAWANDA,NY,USA,43,-78.93
14880,NY0269379,5540 WOLFSPRING RD,SCIO,NY,USA,42.1,-78.04
,NY0262374,US RTE 11 - S OF EXIT 10 OF I-81,POLKVILLE,NY,USA,42.59,-76.13
13655,NY0256340,ST RTE 95 - S OF ST RTE 37,HOGANSBURG,NY,USA,44.96,-74.64
14304,NY0258679,2221 NIAGARA FALLS BLVD,NIAGARA FALLS,NY,USA,43.1,-78.93
14055,NY0243493,KISSING BRIDGE LN,CONCORD,NY,USA,42.6,-78.65
,NY0109398,1900 PLAZA AVE AT HOFFMAN RD,NEW HYDE PARK,NY,USA,40.73,-73.68
14443,NY0271853,6621 ST RTE 5 & 20,EAST BLOOMFIELD,NY,USA,42.88,-77.39
12822,NY0004405,15 PINE ST,CORINTH,NY,USA,43.25,-73.82
13833,NY0156299,PORTER HOLLOW RD,FENTON,NY,USA,42.18,-75.78
12572,NY0110281,ASTOR DR,RHINEBECK,NY,USA,41.93,-73.92
13021,NY0008559,SWIFT ST & PULSIFER DR,AUBURN,NY,USA,42.92,-76.55
14228,NY0025950,455 TONAWANDA CREEK RD,AMHERST,NY,USA,43.05,-78.81
10930,NY0081311,911 ST RTE 32 - W SIDE - S OF I-87,HIGHLAND MILLS,NY,USA,41.37,-74.11
11788,NY0267481,100 ENGINEERS RD|SCTM#182-2-5,HAUPPAUGE,NY,USA,40.81,-73.24
14541,NY0246972,5786 State Route 96|ROMULUS,Romulus,NY,USA,42.74,-76.83
14098,NY0002577,247 WEST AVE,LYNDONVILLE,NY,USA,43.33,-78.4
14810,NY0160873,7909 ST RTE 53,BATH,NY,USA,42.39,-77.36
11971,NY0226726,GARDINERS BAY|off Plum Island,SOUTHOLD,NY,USA,41.17,-72.18
12701,NY0264032,85 Kaufman Rd,Monticello,NY,USA,41.67,-74.72
14092,NY0027766,501 PLETCHER RD,LEWISTON,NY,USA,43.21,-79.04
12834,NY0006807,3235 CO RTE 113,GREENWICH,NY,USA,43.11,-73.57
12534,NY0282260,121 COLUMBIA CO RTE 31 (BLUE HILL RD),HUDSON,NY,USA,42.2,-73.8
13108,NY0155888,2460 LAWRENCE RD,MARCELLUS,NY,USA,42.96,-76.34
11764,NY0210803,725 ST RTE 25A,MILLER PLACE,NY,USA,40.94,-72.97
13827,NY0244597,ST RTE 17C,OWEGO,NY,USA,42.1,-76.22
,NY0213918,4170 ST RTE 31 - E OF RTE 481,CLAY,NY,USA,43.2,-76.28
14127,NY0258423,6860 S ABBOTT RD,ORCHARD PARK,NY,USA,42.7,-78.78
13503,NY0108537,2200 BLEECKER ST,FRANKFORT,NY,USA,43.09,-75.18
11354,NY0276944,131-02 40th Rd,Flushing,NY,USA,40.76,-73.84
12836,NY0265217,"DECKER HILL RD, DODD HILL RD, RT. 9N, RT 8",HAGUE,NY,USA,43.75,-73.52
,NY0204188,9645 WEHRLE DR,CLARENCE,NY,USA,42.96,-78.62
11239,NY0276839,911 Erskine St,Brooklyn,NY,USA,40.65,-73.87
13368,NY0257737,E OF CONTINENTAL CIR & N OF NEW ST,LYONS FALLS,NY,USA,43.62,-75.36
11720,NY0137243,2073 MIDDLE COUNTRY RD,CENTEREACH,NY,USA,40.86,-73.09
14480,NY0032328,ST RTE 256 - E SIDE - S OF ST RTE 15 & N OF US RTE 20A,LAKEVILLE,NY,USA,42.85,-77.71
14150,NY0203483,RIVER RD,TONAWANDA,NY,USA,42.99,-78.93
14823,NY0023248,2240 DUNNING RD,CANISTEO,NY,USA,42.27,-77.59
12485,NY0026573,ALLEN RD,TANNERSVILLE,NY,USA,42.19,-74.15
11725,NY0109673,4 BRAYTON CT,COMMACK,NY,USA,40.84,-73.31
12561,NY0109886,OHIOVILLE RD - E SIDE - N OF NEW PALTZ RD,NEW PALTZ,NY,USA,41.74,-74.06
14510,NY0030741,103 SULLIVAN ST,MOUNT MORRIS,NY,USA,42.73,-77.87
12754,NY0030261,LAKE MARIE RD|(2851 ST RTE 52W),LIBERTY,NY,USA,41.79,-74.79
12822,NY0265284,421 MILL ST EXT,CORINTH,NY,USA,43.24,-73.82
11779,NY0279790,720 EASTON ST,RONKONKOMA,NY,USA,40.81,-73.13
10950,NY0250520,BAKERTOWN RD,KIRYAS JOEL,NY,USA,41.33,-74.16
11779,NY0279927,432 HAWKINS AVE|SCTM  200-688-3-11,LAKE RONKONKOMA,NY,USA,40.82,-73.11
12997,NY0255998,RESERVOIR RD|WHITE & RED BROOK,WILMINGTON,NY,USA,44.39,-73.84
12783,NY0264911,522 HAPPY AVE,BETHEL,NY,USA,41.71,-74.86
11716,NY0178152,105 WILBUR PL,BOHEMIA,NY,USA,40.78,-73.1
,NY0268437,ST RTE 159 (MARIAVILLE RD) - S CHUCTANUNDA CREEK,MARIAVILLE,NY,USA,42.83,-74.15
11727,NY0079324,969 OLD TOWN RD,CORAM,NY,USA,40.88,-73.03
14775,NY0025381,ST RTE 5 OPPOSITE ST RTE 76,RIPLEY,NY,USA,42.28,-79.72
12309,NY0023973,2913 WHITMYER RD,SCHENECTADY,NY,USA,42.8,-73.86
11740,NY0211923,80 A BROADWAY,GREENLAWN,NY,USA,40.87,-73.36
,NY0256552,ADJACENT TO KENT FALLS RD - 0.25 M E OF CLOSED LANDFILL,SCHUYLER FALLS,NY,USA,44.7,-73.59
12510,NY0250031,1496 ST RTE 55 - S SIDE - W OF ST RTE 82,BILLINGS,NY,USA,41.67,-73.76
13053,NY0262200,681 CORNELL LN,DRYDEN,NY,USA,42.44,-76.25
14810,NY0159930,7748 ST RTE 53|EXIT 37 OF I-86,KANONA,NY,USA,42.38,-77.36
14304,NY0027979,7346 LIBERTY DR,NIAGARA FALLS,NY,USA,43.07,-78.92
11211,NY0007641,1100 GRAND ST,BROOKLYN,NY,USA,40.71,-73.93
12547,NY0219011,1519 US RTE 9W,MILTON,NY,USA,41.62,-73.97
14302,NY0003328,BUFFALO AVE & 26TH ST,NIAGARA FALLS,NY,USA,43.08,-79.02
11223,NY0276898,2505 Coney Island Ave,Brooklyn,NY,USA,40.6,-73.96
,NY0201375,"BOUNDED BY I-678, ST RTE 878, GRAND CENTRAL PKWY & CITY LINE",QUEENS,NY,USA,40.65,-73.75
13501,NY0235881,LELAND AVE,UTICA,NY,USA,43.1,-75.19
10987,NY0031224,41 CONTRACTORS RD,TUXEDO PARK,NY,USA,41.19,-74.18
12144,NY0268925,290 RIVERSIDE AVE,RENSSELAER,NY,USA,42.62,-73.75
10549,NY0100293,33 HUBBELS DR,MT KISCO,NY,USA,41.22,-73.72
,NY0260312,33 CANAL ST,MT VERNON,NY,USA,40.9,-73.82
12138,NY0205524,ST RTE 22,PETERSBURG,NY,USA,42.81,-73.33
14513,NY0029475,321 MURRAY ST,NEWARK,NY,USA,43.05,-77.09
11560,NY0266973,159 FOREST AVE|NCTM# 23-29-113,LOCUST VALLEY,NY,USA,40.87,-73.6
12834,NY0252093,1165 ST RTE 29,GREENWICH,NY,USA,43.1,-73.52
12842,NY0023329,BRIAN ST,INDIAN LAKE,NY,USA,43.78,-74.29
12514,NY0259764,HOLLOW RD NEAR CLINTON CORNERS RD,CLINTON CORNERS,NY,USA,41.82,-73.77
,NY0251569,101 MANVILLE RD,PLEASANTVILLE,NY,USA,41.14,-73.78
13403,NY0218367,9570 RIVERSIDE DR,MARCY,NY,USA,43.13,-75.26
12306,NY0123561,DUANESBURG RD,SCHENECTADY,NY,USA,42.79,-74
13035,NY0262005,2777 US RTE 20 E,CAZENOVIA,NY,USA,42.92,-75.81
11770,NY0020168,94 BAY WALK,OCEAN BEACH,NY,USA,40.65,-73.15
,NY0266787,ENTIRE WATER DISTRICT WIDE,SUFFOLK,NY,USA,,
,NY0267708,CITYWIDE,NEW YORK CITY,NY,USA,,
11722,NY0279978,120 CARLETON AVE|SCTM# 500-141-4-40.1,CENTRAL ISLIP,NY,USA,40.78,-73.2
11780,NY0226378,82 ARLINGTON AVE,SAINT JAMES,NY,USA,40.86,-73.16
12589,NY0021521,HOFFMAN RD,WALLKILL,NY,USA,41.63,-74.19
11777,NY0021750,500 BEACH ST,PORT JEFFERSON,NY,USA,40.95,-73.08
10990,NY0281018,10 FENCE RD,WARWICK,NY,USA,41.3,-74.4
,NY0274712,OLD RTE 17|EXIT 102 OFF ST RTE 17W ONTO OLD RTE 17 BLDG .5 MI ON RIGHT,MONTICELLO,NY,USA,41.71,-74.73
,NY0267023,ENTIRE WATER DISTRICT WIDE,SUFFOLK,NY,USA,,
13634,NY0031461,WATER ST - S SIDE - W OF LIBERTY ST,DEXTER,NY,USA,44.01,-76.05
11717,NY0266345,916 SUFFOLK AVE,BRENTWOOD,NY,USA,40.78,-73.24
12015,NY0261009,9300 US RTE 9W,ATHENS,NY,USA,42.27,-73.85
11968,NY0206270,529 COUNTY RD 39,SOUTHAMPTON,NY,USA,40.9,-72.42
12603,NY0026085,132 SIMONE DR,POUGHKEEPSIE,NY,USA,41.65,-73.85
12972,NY0183636,47 SPITFIRE DR,PERU,NY,USA,44.62,-73.44
13461,NY0022110,FAIRWAY LN,SHERRILL,NY,USA,43.07,-75.62
,NY0264300,CO RTE 58 - OPPOSITE CO RTE 61,NORTHEAST,NY,USA,41.9,-73.52
12525,NY0109096,FARMERS TPKE AT WALL KILL,GARDINER,NY,USA,41.68,-74.16
12927,NY0257648,7045 ST RTE 3,CRANBERRY LAKE,NY,USA,44.23,-74.85
13503,NY0257206,37 MEADOW ST,UTICA,NY,USA,43.11,-75.22
14706,NY0107310,RTE 219,ALLEGANY,NY,USA,42.01,-78.61
10591,NY0251551,OLD SAWMILL RIVER RD,GREENBURGH,NY,USA,41.08,-73.83
12077,NY0005959,380 RIVER RD,GLENMONT,NY,USA,42.59,-73.76
13101,NY0245046,3779 US RTE 11,MCGRAW,NY,USA,42.59,-76.14
11764,NY0221678,3 PIPE STAVE HOLLOW RD,MILLER PLACE,NY,USA,40.93,-72.99
12018,NY0223964,ST RTES 43 & 66 @ TEAL RD,AVERILL PARK,NY,USA,42.63,-73.53
13733,NY0030597,WALNUT AVE,BAINBRIDGE,NY,USA,42.29,-75.48
14304,NY0000469,2221 NIAGARA FALLS BLVD,WHEATFIELD,NY,USA,43.1,-78.93
14005,NY0110523,SE OF US RTE 20 & ST RTE 98,Alexander,NY,USA,42.9,-78.25
10303,NY0004502,500 WESTERN AVE AND GULF AVE B 1760 L 115,STATEN ISLAND,NY,USA,40.63,-74.18
14224,NY0203734,502 MINERAL SPRINGS RD,WEST SENECA,NY,USA,42.87,-78.8
11932,NY0252948,1927 SCUTTLEHOLE RD,BRIDGEHAMPTON,NY,USA,40.96,-72.31
13459,NY0033588,ST RTE 10 @ NORTH VILLAGE LINE,SHARON SPRINGS,NY,USA,42.8,-74.61
12524,NY0037281,BEEKMAN RD,FISHKILL,NY,USA,41.59,-73.78
14611,NY0162884,275 MCKEE RD,ROCHESTER,NY,USA,43.16,-77.67
11788,NY0277703,545 JOHNSON AVE,BOHEMIA,NY,USA,40.78,-73.09
13626,NY0257711,OUTER MILL ST,COPENHAGEN,NY,USA,43.89,-75.67
13326,NY0023591,213 LINDEN AVE|S END,COOPERSTOWN,NY,USA,42.69,-74.93
11740,NY0266744,2594 MIDDLE COUNTRY RD,CENTEREACH,NY,USA,40.86,-73.1
12204,NY0026867,209 CHURCH ST,ALBANY,NY,USA,42.63,-73.76
13685,NY0027014,HILL ST,SACKETS HARBOR,NY,USA,43.95,-76.13
,NY0200859,BETWEEN AUDUBON & AMSTERDAM AND BETWEEN W 178TH&  W 179TH STS,NEW YORK,NY,USA,40.85,-73.93
14882,NY0001333,228 CAYUGA DR,LANSING,NY,USA,42.6,-76.63
11772,NY0227200,601 MONTAUK HWY,EAST PATCHOGUE,NY,USA,40.77,-72.99
14880,NY0095052,4393 RIVER ST,SCIO,NY,USA,42.17,-77.98
10994,NY0110612,1 Crusher Rd,West Nyack,NY,USA,41.11,-73.96
10048,NY0200506,WORLD TRADE CENTER,NEW YORK,NY,USA,40.71,-74.01
10541,NY0029017,DAHLIA DR,MAHOPAC,NY,USA,41.36,-73.74
14055,NY0275697,9125 SIBLEY RD,EAST CONCORD,NY,USA,42.55,-78.65
12779,NY0024520,ST RTE 42 - E SIDE - N OF WILLOW HEIGHTS RD,SOUTH FALLSBURG,NY,USA,41.72,-74.62
14810,NY0021431,144 E MORRIS ST,BATH,NY,USA,42.33,-77.31
12077,NY0004839,552 RIVER RD,GLENMONT,NY,USA,42.59,-73.76
14138,NY0269719,8458 US RTE 62,SOUTH DAYTON,NY,USA,42.37,-78.99
11725,NY0279781,360 MORELAND RD,COMMACK,NY,USA,40.81,-73.27
14580,NY0002402,800 PHILLIPS RD,WEBSTER,NY,USA,43.23,-77.41
12538,NY0034584,225 PINEBROOK DR,HYDE PARK,NY,USA,41.75,-73.92
10511,NY0004472,450 BROADWAY,BUCHANAN,NY,USA,41.27,-73.95
12474,NY0084590,55724 ST RTE 30,ROXBURY,NY,USA,42.31,-74.55
10979,NY0021695,299-300 LONG MEADOW RD|CO RTE 84 - STERLING LAKE RD @ STERLING FOREST LAKE,STERLING FOREST,NY,USA,41.17,-74.26
13327,NY0206768,MAIN ST,CROGHAN,NY,USA,43.9,-75.4
12302,NY0268631,701 Corporations Park,Schenectady,NY,USA,42.84,-73.98
14701,NY0003701,TURNER RD,JAMESTOWN,NY,USA,42.16,-79.25
14304,NY0025267,8875 QUARRY RD,NIAGARA FALLS,NY,USA,43.13,-78.96
10594,NY0264652,600 NANNYHAGEN RD,THORNWOOD,NY,USA,41.12,-73.75
14021,NY0229466,4080 PEARL ST,BATAVIA,NY,USA,42.99,-78.21
12156,NY0268852,RAIL LN,SCHODACK LANDING,NY,USA,42.48,-73.77
,NY0000167,BIDWELLS CRK - N OF ST RTE 63 & E OF RR GRADE|GENESEE R - N OF BEARDS CREEK,RETSOF,NY,USA,42.79,-77.85
12189,NY0030899,HUDSON RIVER,WATERVLIET,NY,USA,42.71,-73.7
14150,NY0259098,300 EAST NIAGARA ST,TONAWANDA,NY,USA,43.02,-78.86
,NY0247308,135 GILBERT ST,LEROY,NY,USA,42.97,-78.01
11967,NY0266647,575 MONTAUK HWY,SHIRLEY,NY,USA,40.8,-72.87
10987,NY0028789,STERLING LAKE RD,TUXEDO,NY,USA,41.24,-74.21
14031,NY0202843,9070 SHERIDAN DR,CLARENCE,NY,USA,42.97,-78.65
14722,NY0029769,99 S LAKE DR,CHAUTAUQUA,NY,USA,42.2,-79.46
12189,NY0088188,FIFTH ST,COLONIE,NY,USA,42.71,-73.72
,NY0231240,1520 THRUMANSBURG RD|ST RTE 96 - NE SIDE - BETW TOWNLINE & WILKINS RD,ULYSSES,NY,USA,42.48,-76.57
13413,NY0007129,4317 MIDDLE SETTLEMENT RD,NEW HARTFORD,NY,USA,43.08,-75.34
12901,NY0255751,151 BANKER RD,PLATTSBURGH,NY,USA,44.7,-73.63
13654,NY0121142,34 UNION ST,HEUVELTON,NY,USA,44.61,-75.41
10081,NY0072281,1 NEW YORK PLZ,NEW YORK,NY,USA,40.7,-74.01
12771,NY0026522,46 N MAPLE AVE,PORT JERVIS,NY,USA,41.36,-74.68
14502,NY0246042,200 E MAIN ST,MACEDON,NY,USA,43.07,-77.29
13156,NY0157104,ST RTES 38 AND 104,NORTH VICTORY,NY,USA,43.25,-76.64
14715,NY0022381,WEST LIBERTY ST,BOLIVAR,NY,USA,42.06,-78.17
13420,NY0207080,300 McCauley Rd,Webb,NY,USA,43.69,-74.98
14766,NY0258270,YOUNGS RD,OTTO,NY,USA,42.36,-78.83
,NY0226980,10 VITAMIN DR,BAYPORT,NY,USA,40.76,-73.05
13159,NY0026824,GROVE ST,TULLY,NY,USA,42.79,-76.11
13673,NY0033022,GARDEN ST - N SIDE BY INDIAN R,PHILADELPHIA,NY,USA,44.16,-75.71
13601,NY0257516,OUTER WEST MAIN STREET,WATERTOWN,NY,USA,44,-75.93
12452,NY0263311,ST RTE 23A,LEXINGTON,NY,USA,42.24,-74.36
12149,NY0262820,PODPADIC RD - 1200' N OF ST RTE 7,RICHMONDVILLE,NY,USA,42.65,-74.54
11706,NY0267325,3 CANDLEWOOD RD,Bay Shore,NY,USA,40.77,-73.27
14882,NY0101290,191 PORTLAND PT RD,SOUTH LANSING,NY,USA,42.53,-76.53
12936,NY0256455,20 BEGGS POINT ST,ESSEX,NY,USA,44.31,-73.35
,NY0282588,2986 RTE 9,HUDSON,NY,USA,42.15,-73.77
14523,NY0161501,7500 W HENRIETTA RD,RUSH,NY,USA,43,-77.67
14741,NY0258318,4353 HORTON RD,GREAT VALLEY,NY,USA,42.19,-78.66
10507,NY0264229,301 ADAMS ST,BEDFORD HILLS,NY,USA,41.25,-73.63
11779,NY0210960,1021-19 PORTION RD,RONKONKOMA,NY,USA,40.84,-73.07
12901,NY0026018,53 GREEN ST - CITY ISLAND,PLATTSBURGH,NY,USA,44.7,-73.45
12913,NY0020991,112 RIVER RD,BLOOMINGDALE,NY,USA,44.4,-74.08
12901,NY0256307,ST RTE 22 - W SIDE ~ � MI N OF CO RTE 33,SOUTH PLATTSBURGH,NY,USA,44.65,-73.49
12180,NY0087971,FOOT OF WATER ST,TROY,NY,USA,42.68,-73.71
13833,NY0262731,160 ST RTE 369,PORT CRANE,NY,USA,42.17,-75.83
12043,NY0024201,EAST MACARTHUR AVE,COBLESKILL,NY,USA,42.68,-74.48
10520,NY0149195,10 GERSTEIN ST,CROTON-ON-HUDSON,NY,USA,41.21,-73.87
10970,NY0248550,FIREMEN'S MEMORIAL DR,POMONA,NY,USA,41.17,-74.04
10549,NY0264113,506 Byram Lake Rd,Mount Kisco,NY,USA,41.18,-73.7
11968,NY0227111,404 CO RTE 39A,SOUTHAMPTON,NY,USA,40.9,-72.38
14512,NY0229652,136-138 S MAIN ST,NAPLES,NY,USA,42.61,-77.4
14006,NY0171859,8752 DELAMATER RD,ANGOLA,NY,USA,42.65,-79.02
13901,NY0213781,ST RTE 12 & US RTE 11|S OF CASTLE CREEK,BINGHAMTON,NY,USA,42.16,-75.89
,NY0223794,CAMEL HILL RD,BRUNSWICK & GRAFTON,NY,USA,42.78,-73.52
14107,NY0243698,PLETCHER RD,MODEL CITY,NY,USA,43.21,-78.98
14702,NY0027570,QUAINT RD,JAMESTOWN,NY,USA,42.11,-79.16
14527,NY0246492,40 POWELL LANE,PENN YAN,NY,USA,42.67,-77.06
13209,NY0244848,9629 CAROUSEL CENTER,SYRACUSE,NY,USA,43.05,-76.14
11717,NY0267198,21 SAGTIKOS PKWY|SCTM 500-71-1-1.11,BRENTWOOD,NY,USA,40.79,-73.29
13601,NY0099091,HOLCOMB ST|SUNSET RIDGE,WATERTOWN,NY,USA,43.96,-75.94
13753,NY0068292,40236 ST RTE 10,DELHI,NY,USA,42.25,-74.96
12136,NY0261203,155 SHAKER MUSEUM RD,OLD CHATHAM,NY,USA,42.45,-73.59
11933,NY0025453,4062 GRUMMAN BLVD,CALVERTON,NY,USA,40.91,-72.79
12485,NY0103187,HYLAND RD,TANNERSVILLE,NY,USA,42.2,-74.17
10992,NY0215457,GLENWOOD & CLOVE RDS,WASHINGTONVILLE,NY,USA,41.4,-74.14
13754,NY0249700,ST RTE 10 - W SIDE - NE OF ST RTE 17,DEPOSIT,NY,USA,42.05,-75.41
11717,NY0226653,432 SUFFOLK AVE,BRENTWOOD,NY,USA,40.78,-73.26
14760,NY0027162,174 S 19TH ST,OLEAN,NY,USA,42.07,-78.45
14058,NY0020907,MECHANIC ST,ELBA,NY,USA,43.09,-78.19
11934,NY0266817,165B MAIN ST,CENTER MORICHES,NY,USA,40.8,-72.78
11101,NY0201227,38-54 VERNON BLVD,LONG ISLAND CITY,NY,USA,40.76,-73.95
13126,NY0029114,71 MERCER ST,OSWEGO,NY,USA,43.47,-76.5
12541,NY0104817,US RTE 9 - E SIDE - OPPOSITE PLANTER RD,LIVINGSTON,NY,USA,42.13,-73.79
12056,NY0122891,9898 WESTERN TPKE (US RTE 20),DUANESBURG,NY,USA,42.76,-74.23
13126,NY0261874,8033 ST RTE 104,OSWEGO,NY,USA,43.39,-76.57
,NY0028525,ST RTE 13 NORTH - E SIDE - N OF CLARK ST,CAZENOVIA,NY,USA,42.94,-75.84
14302,NY0105201,HYDE PARK BLVD,NIAGARA FALLS,NY,USA,43.11,-78.96
11356,NY0026239,127-01 POWELLS COVE BLVD,COLLEGE POINT,NY,USA,40.8,-73.84
12405,NY0026557,8811 ST RTE 28,SHANDAKEN,NY,USA,42.12,-74.46
12550,NY0145599,FOSTERTOWN RD - N SIDE - E OF FROZEN LN,NEWBURGH,NY,USA,41.55,-74.03
12701,NY0259942,91 LANDFILL DR,MONTICELLO,NY,USA,41.64,-74.66
14545,NY0247227,ST RTE 63 - W SIDE - N OF ST RTE 258,GROVELAND,NY,USA,42.66,-77.77
12118,NY0265403,GEORGE THOMPSON ROAD,MECHANICVILLE,NY,USA,42.92,-73.72
12546,NY0234800,5430 N ELM AVE|ST RTE 22 - E SIDE - N OF MAIN ST,MILLERTON,NY,USA,41.95,-73.51
12309,NY0005851,2401 RIVER RD,NISKAYUNA,NY,USA,42.82,-73.87
13142,NY0020257,48 RIVERVIEW DR,PULASKI,NY,USA,43.57,-76.14
13093,NY0001015,348 LAKE RD,LYCOMING,NY,USA,43.52,-76.41
14456,NY0001031,459 WEST RIVER RD,GENEVA,NY,USA,42.87,-76.93
11798,NY0267147,1339 STRAIGHT PATH RD|SCTM# 100-80-2-6 & 7,WYANDANCH,NY,USA,40.74,-73.37
10994,NY0005231,362 SCRATCHUP RD,HAVERSTRAW,NY,USA,41.18,-73.95
12118,NY0028240,1002 HUDSON RIVER RD,MECHANICVILLE,NY,USA,42.88,-73.69
11231,NY0028606,537 SMITH ST,BROOKLYN,NY,USA,40.67,-74
13021,NY0021903,35 BRADLEY ST,AUBURN,NY,USA,42.94,-76.59
14517,NY0108421,SEWER PLANT RD - OFF WALNUT ST,NUNDA,NY,USA,42.58,-77.93
14606,NY0001538,1975 LYELL AVE,ROCHESTER,NY,USA,43.16,-77.68
11787,NY0238040,540 SMITHTOWN BYPASS,SMITHTOWN,NY,USA,40.83,-73.2
12586,NY0005720,30 COLDENHAM RD,WALDEN,NY,USA,41.56,-74.19
11520,NY0226530,220 W SUNRISE HWY,FREEPORT,NY,USA,40.66,-73.59
11354,NY0032816,31-70 COLLEGE POINT BLVD,QUEENS,NY,USA,40.77,-73.84
13126,NY0002186,261 WASHINGTON BLVD,OSWEGO,NY,USA,43.46,-76.53
13143,NY0246930,6765 FORD RD,RED CREEK,NY,USA,43.28,-76.75
10511,NY0267911,BROADWAY - E SIDE - S OF 1ST ST,BUCHANAN,NY,USA,41.26,-73.95
14425,NY0023531,1216 MCMAHON RD,VICTOR,NY,USA,42.98,-77.38
12550,NY0165921,343 RTE 32|PLATTEKILL TPKE,NEWBURGH,NY,USA,41.56,-74.06
12144,NY0006220,30-49-54 RIVERSIDE AVE,RENSSELAER,NY,USA,42.62,-73.75
,NY0215341,LONG MOUNTAIN PKWY AT SUMMIT LAKE|US RTE 6 - S SIDE,WOODBURY,NY,USA,41.31,-74.09
14125,NY0063681,40 STEVENS ST,OAKFIELD,NY,USA,43.06,-78.28
13662,NY0000540,56 CHEVROLET RD|ROOSEVELTOWN ACCESS RD,MASSENA,NY,USA,44.98,-74.73
13037,NY0106615,901 E GENESEE ST,CHITTENANGO,NY,USA,43.06,-75.86
11803,NY0273571,39750 CO RTE 48,SOUTHOLD,NY,USA,41.06,-72.44
10986,NY0005240,ELM ST - S SIDE - N OF BATTLEFIELD RD,TOMKINS COVE,NY,USA,41.25,-73.98
14532,NY0024651,60 MILL ST,PHELPS,NY,USA,42.96,-77.05
13601,NY0096997,25133 ST RTE 3|BLACK RIVER RD,WATERTOWN,NY,USA,43.99,-75.87
11937,NY0226017,33 COVE HOLLOW RD|SCTM# 300-185-2-2,EAST HAMPTON,NY,USA,40.96,-72.21
11096,NY0199508,464 DOUGHTY BLVD,INWOOD,NY,USA,40.63,-73.75
14733,NY0171671,CO RTE 16 - SW SIDE - N OF ST RTE 17 (I-86)|3198 GERRY LAVANT RD,FALCONER,NY,USA,42.14,-79.18
13205,NY0262153,4504 BUSSEY RD,SYACUSE,NY,USA,42.99,-76.23
12553,NY0233781,1281 RIVER RD,NEW WINDSOR,NY,USA,41.49,-74.01
14485,NY0161942,300 COLE RD,LYONS,NY,USA,43.05,-76.97
13045,NY0244805,1911 LORING CROSSING RD,CORTLAND,NY,USA,42.63,-76.15
12524,NY0250678,2200 OLD RTE 9,FISHKILL,NY,USA,41.55,-73.9
12996,NY0006092,803 MOUNTAIN VIEW DR,WILLSBORO,NY,USA,44.36,-73.4
12009,NY0031534,GUN CLUB RD,ALTAMONT,NY,USA,42.71,-74.02
11717,NY0104671,295 SECOND AVE,BRENTWOOD,NY,USA,40.78,-73.23
12933,NY0255734,RTE 190,ELLENBURG,NY,USA,44.89,-73.84
13433,NY0216119,MARMON LOWDALE & LYONSDALE RDS,LYONSDALE,NY,USA,43.62,-75.31
13440,NY0006777,ONE REVERE PARK,ROME,NY,USA,43.21,-75.44
11704,NY0104809,600 BERGEN AVE|SCTM  100-241-1-1.1,W BABYLON,NY,USA,40.67,-73.34
10541,NY0101753,279 US RTE 6,MAHOPAC,NY,USA,41.35,-73.75
13438,NY0257265,MAIN ST,TRENTON,NY,USA,43.31,-75.12
11944,NY0226009,ST RTE 25 - W OF CHAPEL LN,SOUTHOLD,NY,USA,41.09,-72.39
11746,NY0070033,28 EBBTIDE LN,DIX HILLS,NY,USA,40.78,-73.36
13662,NY0000728,ROBERT MOSES POWER DAM,MASSENA,NY,USA,45,-74.81
14469,NY0024007,5 ELM ST,BLOOMFIELD,NY,USA,42.9,-77.42
10511,NY0029971,6TH ST - RIVER END,BUCHANAN,NY,USA,41.27,-73.94
14879,NY0275336,HESELTON GULLY RD,WHITESVILLE,NY,USA,42.07,-77.75
13316,NY0001490,12 MASONIC AVE,CAMDEN,NY,USA,43.34,-75.75
13455,NY0236730,7593 US RTE 20,SANGERFIELD,NY,USA,42.92,-75.38
,NY0260827,73 COLUMBIA CO RTE 11A &|BLOODY HILL RD,CRARYVILLE,NY,USA,42.18,-73.6
11742,NY0227102,1018 WAVERLY AVE,HOLTSVILLE,NY,USA,40.81,-73.05
14437,NY0024384,2 COMMERCE RD @ CANASERAGA CK,DANSVILLE,NY,USA,42.57,-77.72
14850,NY0034657,202 WATER ST,ITHACA,NY,USA,42.43,-76.48
14052,NY0028436,201 MILL ST,EAST AURORA,NY,USA,42.76,-78.63
14870,NY0025712,138 KANE ST,PAINTED POST,NY,USA,42.15,-77.09
14589,NY0108723,7614 MAKEN RD,WILLIAMSON,NY,USA,43.27,-77.17
12929,NY0239577,2 SUNSET RD,LYON MOUNTAIN,NY,USA,44.73,-73.91
14082,NY0275310,5241 ST RTE 78,JAVA,NY,USA,42.64,-78.33
11746,NY0226491,1 NORDEN LN AND 10 & 15 STEPAR PL,HUNTINGTON STATION,NY,USA,40.84,-73.43
12056,NY0242659,RTE 7,DUANESBURG,NY,USA,42.76,-74.11
12553,NY0234915,ST RTE 17K W SIDE,NEWBURGH,NY,USA,41.5,-74.1
12785,NY0166472,US RTE 6 @ I-84 EXIT 1,PORT JERVIS,NY,USA,41.35,-74.68
11706,NY0222267,1639 FIFTH AVE,BAY SHORE,NY,USA,40.76,-73.26
14052,NY0171352,119 ELLICOTT RD|RT 240,EAST AURORA,NY,USA,42.73,-78.69
10994,NY0037265,55 OLD MILL RD,WEST NYACK,NY,USA,41.1,-73.97
12401,NY0021571,ULSTER LANDING RD - N OF ST RTE 199,KINGSTON,NY,USA,41.98,-73.96
,NY0249050,BLUE GOOSE RD,DRESDEN,NY,USA,43.58,-73.44
10027,NY0276545,637 W 125TH ST & 615 W 131ST ST,NEW YORK,NY,USA,40.82,-73.96
14527,NY0002097,1789 TRANSELCO DR @ PERRY PT RD,PENN YAN,NY,USA,42.68,-76.94
13815,NY0004146,147 ST RTE 320,NORWICH,NY,USA,42.56,-75.52
12586,NY0030490,16 BRADLEY LN,WALDEN,NY,USA,41.57,-74.19
10509,NY0026581,40 PARK ST,BREWSTER,NY,USA,41.39,-73.62
13830,NY0156876,29 S CANAL ST |OPPOSITE S WASHINGTON AVE SPUR AT CHENANGO RIVER,OXFORD,NY,USA,42.44,-75.6
13316,NY0021377,TABERG ST,CAMDEN,NY,USA,43.33,-75.74
12202,NY0260738,140 PORT RD S,ALBANY,NY,USA,42.61,-73.76
14086,NY0033065,91 BARTON RD,LANCASTER,NY,USA,42.95,-78.65
12158,NY0007072,1 NORYL AVE,SELKIRK,NY,USA,42.58,-73.86
11763,NY0266876,1909 ST RTE 112|SCTM # 200-808-05-09,MEDFORD,NY,USA,40.81,-73
12065,NY0265748,217 VISCHER FERRY RD,CLIFTON PARK,NY,USA,42.83,-73.82
13213,NY0157473,SYRACUSE HANCOCK INTERNATIONAL AIRPORT,SYRACUSE,NY,USA,43.11,-76.13
14432,NY0020311,LADUE AVE,CLIFTON SPRINGS,NY,USA,42.97,-77.13
13126,NY0028274,1 W VANBUREN ST,OSWEGO,NY,USA,43.46,-76.51
13440,NY0000850,530 HENRY ST,ROME,NY,USA,43.21,-75.47
10940,NY0103357,33 SPRAGUE AVE,MIDDLETOWN,NY,USA,41.44,-74.41
14738,NY0204153,225 FALCONER ST,FREWSBURG,NY,USA,42.07,-79.16
11222,NY0276987,1 Bell Slip,Brooklyn,NY,USA,40.74,-73.96
13368,NY0002372,7801 LYONSDALE RD (CO RTE 39) @ LOWDALE RD,LYONS FALLS,NY,USA,43.62,-75.31
12207,NY0100145,FILTRATION PLANT RD,FEURA BUSH,NY,USA,42.55,-73.87
13088,NY0261629,ELECTRONICS PKWY,LIVERPOOL,NY,USA,43.11,-76.19
14895,NY0020621,152 BOLIVAR RD - ST RTE 417 W,WELLSVILLE,NY,USA,42.13,-77.96
14623,NY0000442,1260 JEFFERSON RD,HENRIETTA,NY,USA,43.09,-77.6
12754,NY0030074,WILLOW LN,LIBERTY,NY,USA,41.79,-74.73
10310,NY0026107,1801 RICHMOND TER,STATEN ISLAND,NY,USA,40.64,-74.13
13153,NY0106674,4341 STATE STREET RD,SKANEATELES FALLS,NY,USA,42.98,-76.43
14519,NY0247201,369 ST RTE 104,ONTARIO,NY,USA,43.23,-77.36
11941,NY0098779,OLD COUNTRY RD & HOWELL PARK,EASTPORT,NY,USA,40.83,-72.7
13666,NY0001856,875 CO RTE 60,NEWTON FALLS,NY,USA,44.21,-74.99
10956,NY0165841,200 ST RTE 303 N,CLARKSTOWN,NY,USA,41.16,-73.93
,NY0246948,BAKER RD,CHEMUNG,NY,USA,42,-76.62
12068,NY0072451,1188 CAYADUTTA ST,FONDA,NY,USA,42.96,-74.39
,NY0267091,ENTIRE WATER DISTRICT WIDE,SUFFOLK,NY,USA,,
,NY0272663,199-209 RIVER RD N,CHELSEA,NY,USA,41.56,-73.96
,NY0268500,13451 US RTE 9W,HANNACROIX,NY,USA,42.42,-73.82
14902,NY0228133,1 HARDINGE DR,HORSEHEADS,NY,USA,42.14,-76.82
10019,NY0005134,850 12TH AVE,NEW YORK,NY,USA,40.77,-73.99
12173,NY0223000,122 SMITH RD EXT,STUYVESANT,NY,USA,42.38,-73.73
14781,NY0036315,30 HART ST,SHERMAN,NY,USA,42.16,-79.6
12095,NY0110167,NORBORO RD BY RICE RESERVOIR,JOHNSTOWN,NY,USA,43.09,-74.33
12920,NY0024830,161 CO RTE 35 - W SIDE - 0.6 MI NW OF US RTE 11,CHATEAUGAY,NY,USA,44.93,-74.1
13029,NY0027596,5225 GUY YOUNG RD,BREWERTON,NY,USA,43.24,-76.16
13654,NY0257605,34 UNION ST,HEUVELTON,NY,USA,44.61,-75.41
,NY0260126,ST RTE 22 - 0.6 MI NORTH OF WASSAIC,WASSAIC,NY,USA,41.81,-73.56
,NY0266612,274-D W MONTAUK HWY,HAMPTON BAYS,NY,USA,40.87,-72.55
13903,NY0213934,VIA YEZZI & FOWLER PL,BINGHAMTON,NY,USA,42.03,-75.92
14709,NY0269620,6653 HERDMAN RD,ANGELICA,NY,USA,42.29,-78.01
14650,NY0001643,"EASTMAN BUSINESS PARK UTILITIES WATER, POWER, WASTEWATER|1669 LAKE AVE",ROCHESTER,NY,USA,43.2,-77.67
12401,NY0108138,ENTERPRISE DR,KINGSTON,NY,USA,41.97,-74
13607,NY0258059,COLLINS LANDING,ALEXANDRIA,NY,USA,44.3,-75.97
,NY0259462,RIDGEBURY HILL RD,WAWAYANDA,NY,USA,41.39,-74.46
14480,NY0078735,3401 ROCHESTER RD,LAKEVILLE,NY,USA,42.84,-77.71
10973,NY0029149,ROBINN DR OFF POCATELLO RD,SLATE HILL,NY,USA,41.42,-74.49
14806,NY0259217,HARDY HILL RD,ANDOVER,NY,USA,42.16,-77.79
13050,NY0090867,6891 MAIN ST,CUYLER,NY,USA,42.74,-75.95
14466,NY0245968,7412 RIX HILL RD,HEMLOCK,NY,USA,42.78,-77.61
13795,NY0231088,70 CRESCENT DR|BEAGELL SUBDIVISION,KIRKWOOD,NY,USA,42.11,-75.83
12550,NY0006262,994 RIVER RD,NEWBURGH,NY,USA,41.57,-73.96
11746,NY0266906,188 DEPOT RD,HUNTINGTON STATION,NY,USA,40.84,-73.41
12589,NY0218821,TILLSON LAKE RD,WALLKILL,NY,USA,41.67,-74.23
,NY0282456,2173 Spruceton Rd,Lexington,NY,USA,42.19,-74.29
10931,NY0248258,65 ST RTE 59,HILLBURN,NY,USA,41.13,-74.17
12887,NY0024929,RIVERSIDE DR,WHITEHALL,NY,USA,43.55,-73.4
12025,NY0265586,229 UNION MILLS RD,BROADALBIN,NY,USA,43.07,-74.18
14810,NY0271535,ST RTE 53 OFF I-86,KANONA,NY,USA,42.38,-77.36
14210,NY0085294,101 KATHERINE ST,BUFFALO,NY,USA,42.86,-78.86
11235,NY0026182,2591 KNAPP ST,BROOKLYN,NY,USA,40.59,-73.93
13902,NY0156671,2534 AIRPORT RD|ADJACENT TO COMMERCIAL DR,JOHNSON CITY,NY,USA,42.21,-75.98
13114,NY0002909,SCENIC AVE,MEXICO,NY,USA,43.48,-76.24
13440,NY0005665,ONE REVERE PARK,ROME,NY,USA,43.21,-75.44
11950,NY0210889,1674-76 & 1678 MONTAUK HWY,MASTIC,NY,USA,40.81,-72.84
11978,NY0226971,CO RTE 31,WESTHAMPTON BEACH,NY,USA,40.84,-72.63
,NY0251267,130 S PUTT CORNERS RD,NEW PALTZ,NY,USA,41.73,-74.08
10303,NY0200484,3249 RICHMOND TER,STATEN ISLAND,NY,USA,40.64,-74.17
,NY0264351,ST RTE 59 @ HACKENSACK RIVER,WEST NYACK,NY,USA,41.09,-73.96
12563,NY0265080,APPROX 2000 FT SE OF INTERSECTION OF RT 311 & RT 216,PATTERSON,NY,USA,41.51,-73.61
10705,NY0006629,1 FEDERAL ST,YONKERS,NY,USA,40.93,-73.91
10601,NY0265039,9 NEW ST,WHITE PLAINS,NY,USA,41.03,-73.77
13166,NY0244546,ST RTE 34 @ I-90|THRUWAY EXIT 40,BRUTUS,NY,USA,43.06,-76.56
12110,NY0102148,100 ONDERDONK RD|(COORDINATES FOR STP CENTROID),LATHAM,NY,USA,42.79,-73.78
11768,NY0005941,301 WATERSIDE AVE (& EATONS NECK RD),NORTHPORT,NY,USA,40.92,-73.34
10512,NY0235083,79 OLD RTE 6,CARMEL,NY,USA,41.41,-73.66
14870,NY0003972,1 SCIENCE CENTER DR|END OF CO RTE 107,PAINTED POST,NY,USA,42.16,-77.13
12211,NY0212245,737 ALBANY SHAKER RD,ALBANY,NY,USA,42.74,-73.81
14059,NY0033995,ROLLING GREEN LN,ELMA,NY,USA,42.83,-78.6
11371,NY0276740,LAGUARDIA AIRPORT CENTRAL TERMINAL BUILDING|GRAND CENTRAL PKWY & 94TH ST,FLUSHING,NY,USA,40.77,-73.87
11801,NY0267252,55 CANTIAGUE ROCK RD,HICKSVILLE,NY,USA,40.77,-73.55
11430,NY0008109,JOHN F KENNEDY EXPRY,JAMAICA,NY,USA,40.65,-73.79
12533,NY0267953,330 ST RTE 376,HOPEWELL,NY,USA,41.57,-73.81
14059,NY0032051,JACKMAN LN,ELMA,NY,USA,42.85,-78.65
11980,NY0085693,490 OAK ST,YAPHANK,NY,USA,40.81,-72.92
11743,NY0227358,219 BROADWAY,GREENLAWN,NY,USA,40.86,-73.36
12303,NY0260428,3008 CHRYSLER AVE,ROTTERDAM,NY,USA,42.78,-73.93
14564,NY0022713,1250 BRACE RD,VICTOR,NY,USA,42.98,-77.4
12701,NY0030708,HEMLOCK LN - S SIDE - W OF PINE LN,MONTICELLO,NY,USA,41.59,-74.67
12945,NY0255874,ADIRONDACK REGIONAL AIRPORT BUSINESS PARK,LAKE CLEAR JUNCTION,NY,USA,44.38,-74.19
12242,NY0104060,"BETWEEN MADISON AVE & SWAN, STATE, & EAGLE STS",ALBANY,NY,USA,42.65,-73.76
13305,NY0002755,9567 MAIN ST,BEAVER FALLS,NY,USA,43.88,-75.43
13815,NY0021423,ST RTE 12 - 0.3 MI S OF CITY LINE,NORWICH,NY,USA,42.51,-75.52
13340,NY0257150,3020 SOUTHSIDE RD,FRANKFORT,NY,USA,43.07,-75.13
11798,NY0226297,243 WYANDANCH AVE,WYANDANCH,NY,USA,40.73,-73.35
12510,NY0271276,ST RTE 82 - W SIDE - S OF BARMORE RD,BILLINGS,NY,USA,41.69,-73.75
10931,NY0270598,137 ST RTE 17,HILLBURN,NY,USA,41.12,-74.16
13503,NY0098248,37 WURZ AVE,UTICA,NY,USA,43.11,-75.22
13676,NY0023337,SISSONVILLE RD,UNIONVILLE,NY,USA,44.72,-74.99
12065,NY0251976,36 Boyack Rd,Clifton Park,NY,USA,42.81,-73.79
12803,NY0252069,ROUTE 9 AT I-87,SOUTH GLENS FALLS,NY,USA,43.24,-73.69
12087,NY0109151,ST RTE 144 - E SIDE,HANNACROIX,NY,USA,42.46,-73.79
12822,NY0020397,33 Pine St,Corinth,NY,USA,43.25,-73.81
14843,NY0023647,69 PARK DR,HORNELL,NY,USA,42.31,-77.65
13093,NY0020109,268 LAKE RD E,LYCOMING,NY,USA,43.52,-76.4
12979,NY0021831,LILY AVE,ROUSES POINT,NY,USA,45,-73.37
,NY0089923,Gina Marie Ct,Cairo,NY,USA,42.31,-74.04
14589,NY0106984,6509 LAKE AVE,WILLIAMSON,NY,USA,43.26,-77.19
14606,NY0002551,1840 LYELL AVE,ROCHESTER,NY,USA,43.17,-77.68
13165,NY0162515,631 WATERLOO-GENEVA RD (ST RTE 5 & US RTE 20),WATERLOO,NY,USA,42.89,-76.92
14150,NY0000337,35 SAWYER AVE,TONAWANDA,NY,USA,42.97,-78.93
14094,NY0027057,611 W JACKSON ST,LOCKPORT,NY,USA,43.19,-78.71
13078,NY0261785,ST RTE 91 - S OF ST RTE 173,JAMESVILLE,NY,USA,42.99,-76.06
13827,NY0029262,75 SOUTHSIDE DR - N OF I-86 (ST RTE 17) @ EXIT 64,OWEGO,NY,USA,42.09,-76.27
11746,NY0226327,1668 NEW YORK AVE,HUNTINGTON STATION,NY,USA,40.84,-73.41
12306,NY0074489,200 VON ROLL DR,SCHENECTADY,NY,USA,42.8,-73.98
13403,NY0121410,6520 GLASSFACTORY RD,MARCY,NY,USA,43.18,-75.23
14536,NY0242896,11537 ST RTE 19A,Hume,NY,USA,42.5,-78.07
14094,NY0001295,1 NORTH TRANSIT RD,LOCKPORT,NY,USA,43.18,-78.7
12043,NY0206075,DOW STREET,COBLESKILL,NY,USA,42.67,-74.44
13478,NY0256889,ST RTE 365 AT I-90 EXIT 33 NYS THRUWAY,VERONA,NY,USA,43.12,-75.59
14454,NY0030635,275 RIVERSIDE DR,GENESEO,NY,USA,42.81,-77.82
10701,NY0105571,1130 NEPPERHAN AVE,YONKERS,NY,USA,40.96,-73.87
13069,NY0003344,2885 ST RTE 481,FULTON,NY,USA,43.35,-76.43
11105,NY0201154,31-01 20TH AVE,ASTORIA,NY,USA,40.79,-73.9
12771,NY0069604,RIVER RD AT RAIL YARD,PORT JERVIS,NY,USA,41.38,-74.7
12037,NY0260690,ST RTE 203,CHATHAM,NY,USA,42.35,-73.58
13695,NY0031526,257 RANGER SCHOOL ROAD,WANAKENA,NY,USA,44.17,-75.15
14048,NY0026409,4700 W LAKE RD,DUNKIRK,NY,USA,42.47,-79.37
12921,NY0007170,641 RIDGE RD,CHAZY,NY,USA,44.89,-73.47
14006,NY0022543,8443 LAKE SHORE RD,ANGOLA,NY,USA,42.66,-79.06
11729,NY0199095,161 E INDUSTRY CT,DEER PARK,NY,USA,40.77,-73.29
12589,NY0274381,25 MYERS RD,WALLKILL,NY,USA,41.61,-74.23
11709,NY0279854,48 BAYVILLE AVE,BAYVILLE,NY,USA,40.91,-73.58
14544,NY0161071,6 WAREHOUSE ST,RUSHVILLE,NY,USA,42.76,-77.23
12051,NY0268267,TITUS MILL RD,COXSACKIE,NY,USA,42.37,-73.86
12083,NY0241547,ST RTE 32 - IN BRYANTS PLZ,GREENVILLE,NY,USA,42.43,-74.02
,NY0262102,RIVER RD,AURELIUS,NY,USA,42.95,-76.73
13342,NY0263095,4020 ST RTE 51|SE CORNER OF ST RTE 51 & WALTERS RD,GARRATTSVILLE,NY,USA,42.62,-75.19
,NY0243787,HALLSPORT-INDEPENDENCE RD,INDEPENDENCE,NY,USA,42.09,-77.82
10962,NY0026051,127 ST RTE 303,ORANGEBURG,NY,USA,41.04,-73.94
11547,NY0108651,300 SHORE RD,GLENWOOD LANDING,NY,USA,40.83,-73.65
13290,NY0232386,9090 Carousel Ctr,Syracuse,NY,USA,43.07,-76.17
14810,NY0099635,SAND PIT RD,BATH,NY,USA,42.35,-77.33
10914,NY0062251,NORTH DR - W SIDE,BLOOMING GROVE,NY,USA,41.4,-74.19
14086,NY0291234,1035 RANSOM RD,LANCASTER,NY,USA,42.93,-78.59
11231,NY0110001,722 COURT ST & GOWANUS CREEK,BROOKLYN,NY,USA,40.67,-74
13076,NY0245062,WEST OF US RTE 11 & NORTH OF ONEIDA RIVER,HASTINGS,NY,USA,43.25,-76.15
14001,NY0258644,13613 MAIN ST,AKRON,NY,USA,43,-78.48
,NY0202711,VAN BUREN RD,POMFRET,NY,USA,42.44,-79.39
11772,NY0226831,770 MONTAUK HWY,EAST PATCHOGUE,NY,USA,40.77,-72.99
13617,NY0270237,6005 US RTE 11,CANTON,NY,USA,44.6,-75.14
11212,NY0084671,1275 LINDEN BLVD,BROOKLYN,NY,USA,40.66,-73.91
12901,NY0239780,151 BANKER RD,PLATTSBURGH,NY,USA,44.7,-73.54
10950,NY0094064,WOODCOCK RD,MONROE,NY,USA,41.3,-74.19
12929,NY0022195,284 RYAN RD,DANNEMORA,NY,USA,44.71,-73.71
14456,NY0160709,300 FORGE AVE,GENEVA,NY,USA,42.88,-76.97
12484,NY0150100,3121 NYS RTE 209,STONE RIDGE,NY,USA,41.87,-74.12
13060,NY0233234,1812 ST RTE 5,ELBRIDGE,NY,USA,43.03,-76.38
14727,NY0003646,4520 Haskell Rd,Cuba,NY,USA,42.2,-78.28
11105,NY0200824,18-18 41ST ST,ASTORIA,NY,USA,40.78,-73.9
11740,NY0075752,1 HAZELTINE WAY,GREENLAWN,NY,USA,40.86,-73.37
13660,NY0024635,RIVER ST,MADRID,NY,USA,44.75,-75.13
13691,NY0207004,124 COMMERCIAL ST,THERESA,NY,USA,44.22,-75.8
13820,NY0031151,11 SILAS RD|ST RTE 205 & I-88,ONEONTA,NY,USA,42.44,-75.1
13045,NY0027561,251 PORT WATSON ST,CORTLAND,NY,USA,42.6,-76.16
12423,NY0191973,3169 ST RTE 145,EAST DURHAM,NY,USA,42.38,-74.12
12533,NY0005096,2070 ST RTE 52,HOPEWELL JUNCTION,NY,USA,41.54,-73.82
12822,NY0230286,24 WHITE ST,CORINTH,NY,USA,43.25,-73.81
12749,NY0099368,FLOWER AVE OFF ST RTE 55,KAUNEONGA LAKE,NY,USA,41.69,-74.83
10455,NY0007650,1040 E 149TH ST,BRONX,NY,USA,40.8,-73.9
14851,NY0262445,33 QUARRY RD,ITHACA,NY,USA,42.43,-76.43
11571,NY0225665,110 MAPLE AVE,ROCKVILLE CTR,NY,USA,40.66,-73.64
11368,NY0201278,127-20 34TH AVE,FLUSHING,NY,USA,40.76,-73.84
13642,NY0002984,1837 ST RTE 812,GOUVERNEUR,NY,USA,44.26,-75.4
12590,NY0035637,MARTIN DR - N END,WAPPINGERS FALLS,NY,USA,41.62,-73.86
11742,NY0109193,605 UNION AVE,HOLTSVILLE,NY,USA,40.81,-73.06
11746,NY0237311,237 OLD WALT WHITMAN RD,HUNTINGTON STATION,NY,USA,40.82,-73.41
,NY0218332,US RTE 20 AT ST RTE 12,SANGERFIELD,NY,USA,42.91,-75.38
12997,NY0128783,5021 ST RTE 86,WILMINGTON,NY,USA,44.35,-73.86
14891,NY0002241,518 E 4TH ST,WATKINS GLEN,NY,USA,42.38,-76.87
,NY0023566,"PARKER RD WTP IN FAYETTE, SERVICE AREA IN SENECA FALLS & PORTIONS OF WATERLOO AND FAYETTE",MULTI-TOWN,NY,USA,42.85,-76.74
12589,NY0025925,900 RED MILLS RD,WALLKILL,NY,USA,41.64,-74.26
12871,NY0031941,SPRING ST,SCHUYLERVILLE,NY,USA,43.1,-73.58
12526,NY0268992,273 HOVER AVE,GERMANTOWN,NY,USA,42.14,-73.87
12923,NY0256358,US RTE 11 & ST RTE 189,CHURUBUSCO,NY,USA,44.92,-73.93
,NY0244139,US RTE 11 E OF CORTLAND @ POLKVILLE,CORTLANDVILLE,NY,USA,42.59,-76.14
13035,NY0261998,3425 CONSTINE BRIDGE RD,CAZENOVIA,NY,USA,42.89,-75.85
13335,NY0249688,DUTCH VALLEY RD,EDMESTON,NY,USA,42.69,-75.26
12866,NY0202371,ST RTE 9N N OF GREENFIELD/SARATOGA SPRINGS LINE,SARATOGA SPRINGS,NY,USA,43.09,-73.83
14826,NY0245739,30 PARK AVE,COHOCTON,NY,USA,42.5,-77.5
,NY0270491,ROTRON RD,WOODSTOCK,NY,USA,42.03,-74.1
12946,NY0022187,153 POWER HOUSE RD,LAKE PLACID,NY,USA,44.27,-73.97
11771,NY0227030,1 RAIL RD PLZ,OYSTER BAY,NY,USA,40.87,-73.53
12592,NY0281310,78 Sinpatch Rd,Wassaic,NY,USA,41.78,-73.56
10509,NY0248002,NORTH MAIN ST,BREWSTER,NY,USA,41.4,-73.62
12901,NY0256218,30 SUNSET DR,PLATTSBURGH,NY,USA,44.67,-73.44
11747,NY0267490,ONE CANON PARK|SCTM  400-254-2-4 & 49,MELVILLE,NY,USA,40.78,-73.43
11767,NY0210790,292 SMITHTOWN BLVD,NESCONSET,NY,USA,40.83,-73.14
12801,NY0005525,1 GLEN ST,GLENS FALLS,NY,USA,43.31,-73.64
12414,NY0006874,6446 Rte 9W,Catskill,NY,USA,42.16,-73.91
13856,NY0263192,32266 ST RTE 10,WALTON,NY,USA,42.16,-75.05
14830,NY0003859,11884 HICKLING RD,CORNING,NY,USA,42.12,-76.98
11747,NY0076996,350 S SERVICE RD,MELVILLE,NY,USA,40.78,-73.41
14219,NY0107671,S 3663 LAKE SHORE RD,BUFFALO,NY,USA,42.79,-78.84
14441,NY0246905,50 MAIN ST,DRESDEN,NY,USA,42.67,-76.95
13650,NY0257656,NYS RTE 3|HENDERSON & HENDERSON HARBOR,HENDERSON,NY,USA,43.87,-76.19
,NY0110795,OQUAGA LAKE,SANFORD,NY,USA,42.01,-75.46
14892,NY0031089,424 CAYUTA AVE (ST RTE 34),WAVERLY,NY,USA,42,-76.52
,NY0260266,END OF OLD WEST POINT RD,CORNWALL-ON-HUDSON,NY,USA,41.42,-74.02
14304,NY0026336,1200 BUFFALO AVE,NIAGARA FALLS,NY,USA,43.08,-79.04
14760,NY0245089,140 MOORE AVE,OLEAN,NY,USA,42.09,-78.45
14850,NY0213730,72 BROWN RD,ITHACA,NY,USA,42.49,-76.46
12977,NY0129062,1097 ST RTE 86,RAYBROOK,NY,USA,44.3,-74.08
13753,NY0262838,40196 ST HWY 10,DELHI,NY,USA,42.24,-74.96
10573,NY0251488,FOOT PURDY ST,PORT CHESTER,NY,USA,41,-73.66
12407,NY0263214,ALONG ST RTE 23 & CO RTE 63,ASHLAND,NY,USA,42.3,-74.35
,NY0264431,31 FIELDS LN,BREWSTER,NY,USA,41.36,-73.61
10550,NY0004588,40 CANAL ST,MOUNT VERNON,NY,USA,40.9,-73.82
12919,NY0032204,45 RIVER ST,CHAMPLAIN,NY,USA,44.99,-73.44
14030,NY0275735,9988 S PROTECTION RD,HOLLAND,NY,USA,42.61,-78.5
10562,NY0108324,75 WESTERLY RD,OSSINING,NY,USA,41.15,-73.87
12590,NY0101338,17 POINT ST,NEW HAMBURG,NY,USA,41.59,-73.95
11944,NY0020079,1885 MOORES LN,GREENPORT,NY,USA,41.1,-72.38
11509,NY0023523,"2150 BAY BLVD|NCTM  58-3-8,9,40,41,110,201",ATLANTIC BEACH,NY,USA,40.59,-73.74
12434,NY0026565,570 VAN AKEN RD,GRAND GORGE,NY,USA,42.36,-74.47
12095,NY0249114,KECKS CENTER RD,JOHNSTOWN,NY,USA,43.03,-74.46
12028,NY0265276,BELLE RD,BUSKIRK,NY,USA,42.98,-73.43
11722,NY0227021,20 CARLETON AVE,CENTRAL ISLIP,NY,USA,40.79,-73.2
12472,NY0234931,JOHN STREET EXTENSION,ROSENDALE,NY,USA,41.84,-74.08
13680,NY0257613,JOHNSTON RD @ HUEVELTON RD,RENSSELEAR FALLS,NY,USA,44.6,-75.33
14302,NY0203335,1801 BUFFALO AVE,NIAGARA FALLS,NY,USA,43.08,-79.04
,NY0257044,218 WINDFALL RD,UTICA,NY,USA,43.1,-75.13
13601,NY0216135,STARBUCK AVE & PEARL ST,WATERTOWN,NY,USA,43.98,-75.89
,NY0266736,ENTIRE WATER DISTRICT WIDE,SUFFOLK,NY,USA,,
13404,NY0257915,WHITTAKER RD - 1000' W OF ST RTE 12,MARTINSBURG,NY,USA,43.74,-75.44
11901,NY0032760,212 SOUND SHORE RD,RIVERHEAD,NY,USA,40.98,-72.64
11717,NY0279919,1052 ISLIP AVE,BRENTWOOD,NY,USA,40.77,-73.21
14551,NY0021482,6792 MUD LN,SODUS,NY,USA,43.25,-77.06
12144,NY0241733,161 RIVERSIDE AVE,RENSSELAER,NY,USA,42.62,-73.75
,NY0268607,WEBB RD,CLAVERACK,NY,USA,42.23,-73.75
11729,NY0227218,1680 DEER PARK AVE,DEER PARK,NY,USA,40.75,-73.33
14472,NY0025259,100 ULRICH LN,HONEOYE FALLS,NY,USA,42.96,-77.59
14701,NY0107204,74 Walden Ave,Jamestown,NY,USA,42.1,-79.27
14304,NY0243281,5801 BUFFALO AVE,NIAGARA FALLS,NY,USA,43.08,-79
13408,NY0261742,CALAHAN DR,MORRISVILLE,NY,USA,42.89,-75.65
12974,NY0255980,26-30 Pump House Ln,Port Henry,NY,USA,44.05,-73.47
,NY0263141,4675 US RTE 20,SPRINGFIELD,NY,USA,42.84,-74.89
12501,NY0008265,307 LEEDSVILLE RD,AMENIA,NY,USA,41.84,-73.51
11232,NY0200808,53RD ST & FIRST AVE|4 WHALE SQUARE,BROOKLYN,NY,USA,40.65,-74.03
14719,NY0100463,261 S MAIN ST,CATTARAUGUS,NY,USA,42.32,-78.87
11205,NY0251577,"63 FLUSHING AVE|BROOKLYN NAVY YARD, BLDG 41 UNIT #234",BROOKLYN,NY,USA,40.7,-73.98
12602,NY0071897,FOOT OF PROSPECT ST,POUGHKEEPSIE,NY,USA,41.69,-73.94
12047,NY0004880,628 S SARATOGA ST,COHOES,NY,USA,42.76,-73.7
,NY0260291,3695 ST RTE 55,KAUNEONGA LAKE,NY,USA,41.69,-74.83
14519,NY0161977,1961 LAKE RD,ONTARIO,NY,USA,43.27,-77.29
12401,NY0029351,91-129 E STRAND ST,KINGSTON,NY,USA,41.92,-73.98
11935,NY0252808,36225 MAIN RD,CUTCHOGUE,NY,USA,41.03,-72.47
11746,NY0279803,215 DEPOT RD,HUNTINGTON STATION,NY,USA,40.84,-73.4
12063,NY0242012,ST RTE 150,EAST SCHODACK,NY,USA,42.56,-73.64
14733,NY0068781,ONE MAROCO RD,FALCONER,NY,USA,42.12,-79.18
12306,NY0020141,26 W CAMPBELL AVE,SCHENECTADY,NY,USA,42.8,-73.99
,NY0272060,ONTARIO ST OFF ST RTE 21,NAPLES,NY,USA,42.62,-77.4
13126,NY0008575,1633 RATHBURN RD,OSWEGO,NY,USA,43.43,-76.52
13642,NY0000191,4921 ST RTE 58N - W OF GOUVENEUR|OSWEGATCHIE RIVER,GOUVERNEUR,NY,USA,44.34,-75.5
13856,NY0027154,SOUTH ST,WALTON,NY,USA,42.16,-75.14
,NY0271951,670 ST RTE 14,PENN YAN,NY,USA,42.73,-76.97
11725,NY0266795,1103 JERICHO TPKE,COMMACK,NY,USA,40.85,-73.26
13309,NY0020494,3040 MILL CREEK RD,BOONVILLE,NY,USA,43.49,-75.33
12144,NY0028843,58 RIVERSIDE AVE,RENSSELAER,NY,USA,42.62,-73.75
11717,NY0237493,1849 5TH AVE,BRENTWOOD,NY,USA,40.78,-73.26
10920,NY0259900,150 WELLS AVE,CONGERS,NY,USA,41.16,-73.94
13648,NY0110779,HERMITAGE RD AT ST RTE 3,LAKE BONAPARTE,NY,USA,44.12,-75.38
14304,NY0106259,100 ENERGY BLVD AT 56TH ST,NIAGARA FALLS,NY,USA,43.08,-79.01
14094,NY0105210,HINMAN RD - SE SIDE - W OF BEAR RIDGE RD,LOCKPORT,NY,USA,43.15,-78.72
14225,NY0002712,4455 GENESEE ST,BUFFALO,NY,USA,42.93,-78.72
11793,NY0206181,3020 BURNS AVE,WANTAGH,NY,USA,40.67,-73.52
14020,NY0026514,5 TREADEASY AVE,BATAVIA,NY,USA,42.99,-78.2
14036,NY0246077,8484 ALLEGHANY RD (ST RTE 77),PEMBROKE,NY,USA,43,-78.41
11771,NY0005878,1 COMMANDER SQ,OYSTER BAY,NY,USA,40.88,-73.53
14031,NY0167169,10000 WEHRLE DR,CLARENCE,NY,USA,42.97,-78.62
14512,NY0001147,1 LAKE NIAGARA LN,NAPLES,NY,USA,42.62,-77.4
12752,NY0030694,OLSEN RD,LAKE HUNTINGTON,NY,USA,41.67,-74.99
13850,NY0262749,"702 VESTAL PKWY E, 2400 VESTAL RD, 2014 VESTAL RD, 1801 VESTAL PKWY E & 1300 CAMPUS DR",VESTAL,NY,USA,42.1,-76.02
12466,NY0207519,RIVER ROAD,PORT EWEN,NY,USA,41.89,-73.96
13165,NY0022365,E RIVER ST,WATERLOO,NY,USA,42.9,-76.85
12993,NY0217760,834 ST RTE 22,WADHAMS,NY,USA,44.23,-73.46
11208,NY0276821,11629 Seaview Ave,Brooklyn,NY,USA,40.65,-73.87
12543,NY0108472,1000 HOMESTEAD AVE,MAYBROOK,NY,USA,41.5,-74.21
14706,NY0258431,BUFFALO ST & SEVENTH ST,ALLEGANY,NY,USA,42.09,-78.47
14092,NY0024481,130 N WATER ST,LEWISTON,NY,USA,43.17,-79.05
13622,NY0257851,ABANDONED STONE QUARRY NORTH OF VILLAGE ON CO RTE 179,CHAUMONT,NY,USA,44.07,-76.13
12414,NY0224936,15 MAIN ST,CATSKILL,NY,USA,42.21,-73.86
14830,NY0110531,OFF RIVER RD,SOUTH CORNING,NY,USA,42.12,-77.03
12932,NY0256439,75 PARK ST,ELIZABETHTOWN,NY,USA,44.22,-73.6
13624,NY0109681,BARTLETT POINT RD,CLAYTON,NY,USA,44.24,-76.11
11772,NY0211141,350-19 E MAIN ST,PATCHOGUE,NY,USA,40.77,-73
12852,NY0023132,43 HANMER LN,NEWCOMB,NY,USA,43.96,-74.12
13613,NY0030732,11 FACTORY ST,BRASHER FALLS,NY,USA,44.81,-74.77
13601,NY0025984,700 WM T FIELD DR,WATERTOWN,NY,USA,43.99,-75.93
12927,NY0270211,CO RTE 60,CRANBERRY LAKE,NY,USA,44.21,-74.99
12480,NY0268151,7148 ST RTE 28,SHANDAKEN,NY,USA,42.11,-74.36
12590,NY0037117,NEW HACKENSACK RD,WAPPINGERS FALLS,NY,USA,41.61,-73.9
14706,NY0104949,CHIPMUNK RD,ALLEGANY,NY,USA,42.05,-78.57
14737,NY0028991,PENNSYLVANIA AVE - S END|SW CORNER OF VILLAGE,FRANKLINVILLE,NY,USA,42.33,-78.46
13865,NY0262722,610 OLD RTE 17,WINDSOR,NY,USA,42.08,-75.65
11937,NY0279706,42 MONTAUK HWY,EAST HAMPTON,NY,USA,40.96,-72.21
,NY0264679,608 OLD WHITE LAKE TPKE,SWAN LAKE,NY,USA,41.72,-74.79
10924,NY0264954,320 RTE 17A,GOSHEN,NY,USA,41.36,-74.36
11788,NY0175943,2929 EXPRESSWAY DR N,HAUPPAUGE,NY,USA,40.81,-73.19
12508,NY0005754,45 OLD GLENHAM RD,BEACON,NY,USA,41.52,-73.94
10509,NY0149331,360 Riverside Dr,Brewster,NY,USA,41.4,-73.6
12771,NY0248029,6 SLEEPY HOLLOW RD|RIVER & HOOK RDS,PORT JERVIS,NY,USA,41.41,-74.73
14867,NY0284076,1253 W DANBY RD,NEWFIELD,NY,USA,42.39,-76.55
,NY0229725,KIEFER RD,PEMBROKE,NY,USA,43.02,-78.31
12077,NY0212105,495 RIVER RD,GLENMONT,NY,USA,42.59,-73.77
,NY0209546,34 NUGENT ST,SOUTHAMPTON,NY,USA,40.89,-72.39
14103,NY0160423,10830 BLAIR RD,MEDINA,NY,USA,43.19,-78.42
12538,NY0097896,GREENFIELDS SEWER DIST,HYDE PARK,NY,USA,41.77,-73.88
11224,NY0276901,"CONEY ISLAND CREEK  W 12TH ST, W 15TH W ST & 21ST ST",BROOKLYN,NY,USA,40.58,-73.98
14830,NY0246506,1 STEUBEN ST,CORNING,NY,USA,42.14,-77.04
12841,NY0248983,BROOK WAY OFF CO RTE 6B,HULETTS LANDING,NY,USA,43.64,-73.5
14519,NY0096415,6845 N SLOCUM RD,ONTARIO,NY,USA,43.25,-77.32
11786,NY0026344,NORTH COUNTRY RD,SHOREHAM,NY,USA,40.96,-72.88
14120,NY0026280,830 RIVER RD,NORTH TONAWANDA,NY,USA,43.04,-78.89
11965,NY0267180,"178 N FERRY RD|SCTM 0700-7-4-79.4, 79.5, 79.6 & 79.7 and 700-7-4-5",SHELTER ISLAND HEIGHTS,NY,USA,41.08,-72.35
12058,NY0261076,89 POTIC CREEK RD,EARLTON,NY,USA,42.33,-73.91
12155,NY0205681,578 CO RTE 56,SCHENEVUS,NY,USA,42.54,-74.82
12803,NY0007226,1 River St,South Glens Falls,NY,USA,43.31,-73.64
14814,NY0109363,ST RTE 352 - N SIDE - E OF CO LINE,BIG FLATS,NY,USA,42.13,-76.96
14831,NY0003956,MUSEUM WAY,CORNING,NY,USA,42.15,-77.06
13209,NY0232491,3000 MILTON AVE,SOLVAY,NY,USA,43.06,-76.23
12015,NY0020877,WATER ST,ATHENS,NY,USA,42.28,-73.8
14170,NY0258652,1864 DAVIS RD,WEST FALLS,NY,USA,42.7,-78.68
11779,NY0226637,90 RAILROAD AVE,RONKONKOMA,NY,USA,40.81,-73.11
11794,NY0206644,CIRCLE RD (LOOP RD),STONY BROOK,NY,USA,40.92,-73.12
11105,NY0201219,31-01 20TH AVE,ASTORIA,NY,USA,40.79,-73.9
12306,NY0124028,797 BURDECK ST,SCHENECTADY,NY,USA,42.8,-74
13626,NY0270245,8055 SEVEN BY NINE RD - S OF ST RTE 177,BARNES CORNERS,NY,USA,43.82,-75.82
14814,NY0084468,673 CO RTE 64,BIG FLATS,NY,USA,42.14,-76.92
14821,NY0004308,8600 MAIN ST,CAMPBELL,NY,USA,42.23,-77.19
14101,NY0291269,8600 NYS RTE 16,MACHIAS,NY,USA,42.38,-78.47
13021,NY0261858,7659 NORTH STREET RD (ST RTE 34),SENNETT,NY,USA,42.99,-76.56
12956,NY0256081,PLANK RD & BARTLETT POND RD,MINEVILLE,NY,USA,44.09,-73.51
12477,NY0145564,234 HUDSON ST,SAUGERTIES,NY,USA,42.04,-73.94
12212,NY0086908,1912 CENTRAL AVE,ALBANY,NY,USA,42.74,-73.86
11746,NY0226734,2008 NEW YORK AVE,HUNTINGTON STATION,NY,USA,40.83,-73.41
14559,NY0160849,2441 S UNION ST,SPENCERPORT,NY,USA,43.17,-77.81
12157,NY0249751,WATERBURY RD,SCHOHARIE,NY,USA,42.68,-74.29
14895,NY0107352,ALMA HILL RD,WELLSVILLE,NY,USA,42.02,-78.03
10977,NY0264024,UNION/MAPLE/HOYT STS,SPRING VALLEY,NY,USA,41.12,-74.05
12754,NY0234770,2582 ST RTE 52,LIBERTY,NY,USA,41.8,-74.77
13416,NY0235865,7432 MAIN ST,NEWPORT,NY,USA,43.19,-75.01
12583,NY0022098,MONTGOMERY ST,TIVOLI,NY,USA,42.05,-73.91
12553,NY0006815,1096 RIVER RD,NEW WINDSOR,NY,USA,41.47,-74.01
11201,NY0005151,1 HUDSON AVE,BROOKLYN,NY,USA,40.7,-73.98
13421,NY0257176,3960 KENWOOD RD,ONEIDA,NY,USA,43.06,-75.6
14572,NY0032999,300 S MAIN ST|MILLEN ST EXT,WAYLAND,NY,USA,42.56,-77.59
12401,NY0250406,2-36 DELAWARE AVE,KINGSTON,NY,USA,41.93,-73.96
10990,NY0021890,50 STATE SCHOOL RD |E SIDE @ BEND TO WEST,WARWICK,NY,USA,41.27,-74.3
11968,NY0227170,224 NORTH MAIN ST,SOUTHAMPTON,NY,USA,40.9,-72.39
14617,NY0028339,1574 LAKE SHORE BLVD,ROCHESTER,NY,USA,43.24,-77.58
13027,NY0030571,BARBARA LN,BALDWINSVILLE,NY,USA,43.14,-76.3
14303,NY0001635,2400 BUFFALO AVE,NIAGARA FALLS,NY,USA,43.08,-79.03
11725,NY0136859,440 MORELAND RD,COMMACK,NY,USA,40.81,-73.27
11949,NY0222445,268 MORICHES-YAPHANK RD,MANORVILLE,NY,USA,40.83,-72.86
14580,NY0161373,840 SALT RD [ST RTE 104 & SALT RD],WEBSTER,NY,USA,43.22,-77.4
11935,NY0253251,31320 MAIN RD,CUTCHOGUE,NY,USA,41.01,-72.48
13788,NY0029254,RIVER ST,HOBART,NY,USA,42.37,-74.68
14240,NY0171409,4454 GENESEE ST,BUFFALO,NY,USA,42.94,-78.73
11716,NY0237817,4740 SUNRISE HWY,BOHEMIA,NY,USA,40.76,-73.11
12563,NY0215503,1150 ST RTE 311,PATTERSON,NY,USA,41.52,-73.61
14787,NY0021334,OLD HAWLEY ST,WESTFIELD,NY,USA,42.33,-79.59
13078,NY0002178,4800 JAMESVILLE RD,JAMESVILLE,NY,USA,43,-76.07
12037,NY0023582,BROOKSIDE AVE EXT,CHATHAM,NY,USA,42.37,-73.6
14001,NY0204005,1 ICE CREAM PLZ,AKRON,NY,USA,43.03,-78.5
12590,NY0149209,171 SHEAFE RD,WAPPINGERS FALLS,NY,USA,41.61,-73.94
12921,NY0256285,MINER FARM RD - � MI W OF EXIT 41 OF I-87,CHAZY,NY,USA,44.89,-73.46
14612,NY0063673,4799 DEWEY AVE,ROCHESTER,NY,USA,43.27,-77.65
14094,NY0000558,200 UPPER MOUNTAIN RD,LOCKPORT,NY,USA,43.17,-78.73
13626,NY0257991,WOODBATTLE RD,COPENHAGEN,NY,USA,43.89,-75.67
12302,NY0242250,421 SACANDAGA RD,SCOTIA,NY,USA,42.84,-73.98
12525,NY0218855,815 ST RTE 208,GARDINER,NY,USA,41.66,-74.14
10310,NY0033090,1515 Richmond Terrace|FOOT OF BEMENT AVE & FOOT OF BROADWAY,STATEN ISLAND,NY,USA,40.64,-74.12
14433,NY0023965,45 FORD ST,CLYDE,NY,USA,43.08,-76.87
13744,NY0262234,1225 US Rte 11 @ I-81 EXIT 7,CASTLE CREEK,NY,USA,42.24,-75.91
12861,NY0265594,LAPOINTE LN & ANCHORAGE WAY,PUTNAM,NY,USA,43.75,-73.46
10990,NY0005266,103 RIVER ST,WARWICK,NY,USA,41.25,-74.37
12413,NY0260819,CO RTE 41 NE OF HAMLET OF CAIRO,CAIRO,NY,USA,42.31,-74
14048,NY0027961,WRIGHT PARK DR,DUNKIRK,NY,USA,42.5,-79.32
14895,NY0275905,2860 ANDOVER RD,WELLSVILLE,NY,USA,42.14,-77.89
10509,NY0219401,RTE 312 & ZIMMER RD,SOUTHEAST,NY,USA,41.43,-73.62
14127,NY0243621,7 CENTRE DR,ORCHARD PARK,NY,USA,42.77,-78.77
13676,NY0103390,547A SISSONVILLE RD,POTSDAM,NY,USA,44.71,-75
14551,NY0003255,7211 QUARRY RD,SODUS,NY,USA,43.18,-77.04
14485,NY0022420,7405 Ziegler Dr,Lima,NY,USA,42.92,-77.61
13608,NY0235890,206 MAIN ST,ANTWERP,NY,USA,44.2,-75.61
10992,NY0023671,3 Walt Cole Blvd,Washingtonville,NY,USA,41.43,-74.14
14449,NY0076058,4949 ST RTE 104,EAST WILLIAMSON,NY,USA,43.24,-77.15
14837,NY0025445,929 DUNDEE-GLENORA RD,DUNDEE,NY,USA,42.52,-76.97
12764,NY0110205,210 BRIDGE ST,NARROWSBURG,NY,USA,41.6,-75.07
12601,NY0248614,26 Howard St,Poughkeepsie,NY,USA,41.71,-73.9
11778,NY0266825,64 BROADWAY,ROCKY POINT,NY,USA,40.95,-72.92
11520,NY0226416,289 BUFFALO AVE|62-D-397,FREEPORT,NY,USA,40.64,-73.57
,NY0272035,8443 SPIRIT RUN,NAPLES,NY,USA,42.61,-77.41
13032,NY0029807,715 N MAIN ST,CANASTOTA,NY,USA,43.1,-75.76
13480,NY0028461,ST RTE 315 - 0.95 MI NW OF ST RTE 12,WATERVILLE,NY,USA,42.94,-75.39
,NY0267058,ENTIRE WATER DISTRICT WIDE,SUFFOLK,NY,USA,,
13037,NY0021539,TOWPATH RD,CHITTENANGO,NY,USA,43.06,-75.88
12143,NY0102962,2025 US RTE 9W,RAVENA,NY,USA,42.5,-73.82
12883,NY0266191,448 CO RTE 56,Ticonderoga,NY,USA,43.86,-73.47
13753,NY0020265,ST RTE 10 - SW OF VILLAGE,DELHI,NY,USA,42.26,-74.94
12202,NY0028592,301 NORMANSKILL ST|PORT OF ALBANY,ALBANY,NY,USA,42.62,-73.76
,NY0259756,POCANTICO HILLS FERGUSON LK&LK # 3/ROCKEFELLER ESTATES/BEDFORD RD,POCANTICO HILLS,NY,USA,41.1,-73.82
14456,NY0072257,100 GAMBEE RD,GENEVA,NY,USA,42.89,-76.98
12817,NY0252026,6110 ST RTE 8,CHESTERTOWN,NY,USA,43.66,-73.78
10573,NY0026786,75 FOX ISLAND RD,PORT CHESTER,NY,USA,40.99,-73.66
13148,NY0001694,240 FALL ST,SENECA FALLS,NY,USA,42.91,-76.81
13669,NY0257478,110 DENNY ST,OGDENSBURG,NY,USA,44.7,-75.48
13108,NY0020532,6 Mile High Dr,Marcellus,NY,USA,43,-76.34
14009,NY0002267,400 MAIN ST,ARCADE,NY,USA,42.53,-78.43
,NY0006904,22 HUDSON FALLS RD,MOREAU,NY,USA,43.3,-73.59
11738,NY0210919,875 HORSEBLOCK RD,FARMINGVILLE,NY,USA,40.83,-73.03
14427,NY0269336,PARK RD E,CASTILE,NY,USA,42.63,-78.05
12754,NY0030252,SWAN LAKE RD - S OF TOWN LINE,LIBERTY,NY,USA,41.75,-74.78
14741,NY0204650,FARM TO MARKET RD (CO RTE 71),GREAT VALLEY,NY,USA,42.24,-78.6
12204,NY0026875,1 CANAL RD S OFF JONES RD,MENANDS,NY,USA,42.68,-73.73
11933,NY0278319,2182 SOUND AVE,BAITING HOLLOW,NY,USA,40.96,-72.75
13440,NY0030864,7180 E DOMINICK ST,ROME,NY,USA,43.2,-75.41
10801,NY0267805,CEDAR ST & CROSS ST,NEW ROCHELLE,NY,USA,40.92,-73.78
11729,NY0279994,29 LINCOLN AVE,DEER PARK,NY,USA,40.75,-73.31
14886,NY0024902,35 LAKE ST,TRUMANSBURG,NY,USA,42.54,-76.65
11222,NY0006131,25 PAIDGE AVE,BROOKLYN,NY,USA,40.74,-73.95
,NY0229172,EAGLE ISLAND,HURON,NY,USA,43.26,-76.95
11214,NY0006297,1776 SHORE PKWY,BROOKLYN,NY,USA,40.59,-74
14853,NY0077607,COLLEGE AVE,ITHACA,NY,USA,42.44,-76.48
12524,NY0264237,VAN WYCK LAKE RD & I-84,FISHKILL,NY,USA,41.52,-73.86
12719,NY0264202,450 ST RTE 55,BARRYVILLE,NY,USA,41.51,-74.89
14539,NY0106518,3546 RETSOF RD,RETSOF,NY,USA,42.83,-77.9
14589,NY0000523,4363 ST RTE 104,WILLIAMSON,NY,USA,43.24,-77.17
12901,NY0256510,189 IRISH SETTLEMENT RD,PLATTSBURGH,NY,USA,44.65,-73.5
14034,NY0171778,14299 US RTE 62 @ WHEATER RD,COLLINS,NY,USA,42.49,-78.93
14760,NY0094781,500 PAUL CLARK DR,OLEAN,NY,USA,42.09,-78.44
12468,NY0223506,FALKE RD OFF ST RTE 23A|W SIDE OF SCHOHARIE CREEK,PRATTSVILLE/LEXINGTON,NY,USA,42.28,-74.4
11801,NY0110591,125 LAUMAN LN,HICKSVILLE,NY,USA,40.74,-73.5
14141,NY0036714,ST RTE 240 - W SIDE - 1 MI S OF GLENWOOD,SPRINGVILLE,NY,USA,42.6,-78.65
13669,NY0236179,21 ENTRANCE AVE,OGDENSBURG,NY,USA,44.73,-75.44
12134,NY0030066,ROOSEVELT TER,NORTHVILLE,NY,USA,43.21,-74.18
11703,NY0266957,1502 DEER PARK AVE,NORTH BABYLON,NY,USA,40.75,-73.32
11764,NY0266469,450 ST RTE 25A,MILLER PLACE,NY,USA,40.94,-72.98
11787,NY0107760,90 OSER AVE,HAUPPAUGE,NY,USA,40.82,-73.24
10988,NY0004430,STATE LINE RD,UNIONVILLE,NY,USA,41.29,-74.54
12912,NY0201910,215 GROVE RD,AUSABLE FORKS,NY,USA,44.45,-73.65
12534,NY0268615,CO RTE 25 & ROSSMAN HILL RD,HUDSON,NY,USA,42.34,-73.74
13502,NY0031429,SEVERAL LOCATIONS,UTICA,NY,USA,43.09,-75.25
13126,NY0029106,FIRST AVE AND W SCHUYLER ST,OSWEGO,NY,USA,43.46,-76.53
14870,NY0080152,3863 MEADS CREEK RD (CO RTE 26),PAINTED POST,NY,USA,42.19,-77.14
12814,NY0093688,BROOK ST EXT,BOLTON LANDING,NY,USA,43.55,-73.66
14207,NY0259055,180 UAW-GM Blvd (350 VULCAN ST),TONAWANDA,NY,USA,42.97,-78.91
14303,NY0108251,4501 ROYAL AVE,NIAGARA FALLS,NY,USA,43.09,-79.01
10986,NY0166456,ELM AVE,TOMPKINS COVE,NY,USA,41.25,-73.98
14719,NY0025861,TANNERY RD @ S BRANCH CATTARAUGUS CRK,CATTARAUGUS,NY,USA,42.33,-78.86
12983,NY0021733,680 ST RTE 3,SARANAC LAKE,NY,USA,44.35,-74.11
12457,NY0248355,475 COMMERCE ST,MOUNT PLEASANT,NY,USA,41.11,-73.79
14853,NY0231878,COLLEGE AVE,ITHACA,NY,USA,42.44,-76.48
11694,NY0026221,106-21 BEACH CHANNEL DR,ROCKAWAY,NY,USA,40.58,-73.83
12980,NY0255858,70 CAMPSITE RD,ST REGIS FALLS,NY,USA,44.68,-74.55
12401,NY0088005,129 ST RTE 28,KINGSTON,NY,USA,41.95,-74.03
12565,NY0260959,370 STEVENS CROSSING RD (SAME AS 4562 MARTINDALE RD),PHILMONT,NY,USA,42.23,-73.63
12045,NY0022772,67 SEWER PLANT ACCESS RD - S MAIN ST & ST RTE 144,COEYMANS,NY,USA,42.47,-73.79
,NY0267309,ENTIRE WATER DISTRICT WIDE,SUFFOLK,NY,USA,,
12110,NY0027758,200 ONDERDONK AVE,LATHAM,NY,USA,42.78,-73.77
12871,NY0265373,ST RTE 29 - N SIDE @ RIVER IN FORT HARDY PARK,SCHUYLERVILLE,NY,USA,43.1,-73.58
13662,NY0270067,TUCKER TER,LOUISVILLE,NY,USA,44.95,-74.97
14214,NY0204218,3435 MAIN ST,BUFFALO,NY,USA,42.95,-78.82
12188,NY0265438,MOHAWK RIVER NEAR CONFLUENCE WITH HUDSON,WATERFORD/COHOES,NY,USA,42.78,-73.69
13734,NY0157295,400 LEPRINO AVE,BARTON,NY,USA,42,-76.54
13021,NY0244872,488 ST RTE 5 W|1300' W OF HAMILTON RD,ELBRIDGE,NY,USA,43.03,-76.47
14840,NY0001007,8260 PLEASANT VALLEY RD| CO RTE 88,HAMMONDSPORT,NY,USA,42.4,-77.25
14772,NY0258202,6 JAMESTOWN ST,RANDOLPH,NY,USA,42.16,-78.98
11434,NY0276596,179-37 137TH AVE,QUEENS,NY,USA,40.68,-73.76
,NY0271608,9301 CO RTE 76,HAMMONDSPORT,NY,USA,42.45,-77.2
10504,NY0109584,15 BUSINESS PARK DR,ARMONK,NY,USA,41.12,-73.71
11776,NY0226505,689 OLD TOWN RD|SCTM# 200-311-02-9.1,PORT JEFFERSON STATION,NY,USA,40.9,-73.05
14011,NY0021849,122 PROSPECT ST,ATTICA,NY,USA,42.87,-78.28
12188,NY0029173,41 MOHAWK AVE,WATERFORD,NY,USA,42.79,-73.68
14416,NY0078794,15 CHURCH ST,BERGEN,NY,USA,43.08,-77.95
13620,NY0033511,ST RTE 410 - NW SIDE JUST SW OF RIVER,CASTORLAND,NY,USA,43.89,-75.51
11741,NY0266892,310 MAIN ST,HOLBROOK,NY,USA,40.81,-73.08
12603,NY0218723,350 DUTCHESS TPKE,POUGHKEEPSIE,NY,USA,41.71,-73.87
13163,NY0261661,139 N COURT ST,WAMPSVILLE,NY,USA,43.08,-75.71
12590,NY0021601,FLEETWOOD DR - W END,WAPPINGERS FALLS,NY,USA,41.56,-73.92
14221,NY0202631,WEST SIDE OF MILL ST @ EDWARD ST,WILLIAMSVILLE,NY,USA,42.97,-78.75
13602,NY0206938,EUPHRATES RIVER VALLEY RD & ONEIDA AVE,FORT DRUM,NY,USA,44.04,-75.77
14012,NY0030651,8500 LOWER LAKE RD,BARKER,NY,USA,43.36,-78.56
12913,NY0256242,1380 ST RTE 3,BLOOMINGDALE,NY,USA,44.39,-74.08
10541,NY0026590,35 MUD POND RD,MAHOPAC,NY,USA,41.38,-73.72
11232,NY0201006,29TH ST & 2ND AVE,BROOKLYN,NY,USA,40.66,-74
12032,NY0265471,1801 ST RTES 10 & 29A,CAROGA LAKE,NY,USA,43.16,-74.49
13425,NY0005487,ST RTE 12B - W SIDE @ GREEN VEDDER RD,ORISKANY FALLS,NY,USA,42.95,-75.46
11968,NY0267295,376 NORTH HWY,SOUTHAMPTON,NY,USA,40.9,-72.41
11704,NY0271462,380 PATTON AVE|NEXT TO BABYLON RESOURCE RECOVERY,WEST BABYLON,NY,USA,40.74,-73.39
11779,NY0199320,71 REMINGTON BLVD,RONKONKOMA,NY,USA,40.79,-73.14
10921,NY0020273,MEADOW RD - N OF QUAKER CREEK,FLORIDA,NY,USA,41.34,-74.36
12564,NY0165891,39 CORBIN RD,PAWLING,NY,USA,41.57,-73.59
13662,NY0257303,30M SEAWAY INTERNATIONAL BRIDGE|ST RTE 37 & MASSENA-CORNWALL INTERNATIONAL BRIDGE,MASSENA,NY,USA,44.98,-74.74
13676,NY0020818,115 CHERRY ST,POTSDAM,NY,USA,44.68,-75
12037,NY0241555,EXIT B2,CHATHAM,NY,USA,42.42,-73.55
13803,NY0028363,FRONT ST EXT,MARATHON,NY,USA,42.43,-76.03
14548,NY0000426,1 FISHERS RD/ PARK ST,SHORTSVILLE,NY,USA,42.96,-77.22
11101,NY0276979,52-41 Center Blvd,Long Island City,NY,USA,40.74,-73.96
13135,NY0020664,NORTH ST,PHOENIX,NY,USA,43.23,-76.31
11742,NY0225746,607 UNION AVE,HOLTSVILLE,NY,USA,40.82,-73.06
14150,NY0002399,3875 RIVER RD,TONAWANDA,NY,USA,42.98,-78.93
14470,NY0023256,FRISBEE TERR,HOLLEY,NY,USA,43.23,-78.02
12828,NY0006050,1 EDDY ST,FORT EDWARD,NY,USA,43.27,-73.59
12603,NY0259551,729 DUTCHESS TPKE,POUGHKEEPSIE,NY,USA,41.7,-73.88
12601,NY0251046,35 PECKHAM RD,POUGHKEEPSIE,NY,USA,41.69,-73.88
13215,NY0261637,3384 HOWLETT HILL RD,SYRACUSE,NY,USA,43.02,-76.27
14787,NY0099627,100 NORTH PORTAGE ST,WESTFIELD,NY,USA,42.33,-79.58
11430,NY0026115,150-20 134TH ST,JAMAICA,NY,USA,40.66,-73.81
14482,NY0030546,7500 RED MILL RD,LEROY,NY,USA,42.99,-77.99
12932,NY0255769,RT 9N/WESTPORT-ELIZABETHTOWN RD,ELIZABETHTOWN,NY,USA,44.21,-73.53
14009,NY0026948,HURDVILLE RD,ARCADE,NY,USA,42.54,-78.46
12077,NY0072532,461 RIVER RD (ST RTE 144),GLENMONT,NY,USA,42.59,-73.77
11569,NY0106721,330 LIDO BLVD,POINT LOOKOUT,NY,USA,40.59,-73.58
12550,NY0165328,924 RIVER RD,NEWBURGH,NY,USA,41.56,-73.98
,NY0272779,64 KUTGER RD,THOMPSONVILLE,NY,USA,41.67,-74.61
12076,NY0192392,397 POWER PLANT ACCESS RD|ST RTE 30 - E SIDE,GILBOA,NY,USA,42.45,-74.46
11788,NY0065447,94 ROBERTA AVE,SELDEN,NY,USA,40.85,-73.04
,NY0267139,ENTIRE WATER DISTRICT WIDE,SUFFOLK,NY,USA,,
10314,NY0200867,310  W SERVICE RD,STATEN ISLAND,NY,USA,40.58,-74.19
10009,NY0005126,701-827 E 14TH ST,NEW YORK,NY,USA,40.73,-73.97
11742,NY0110086,586 UNION AVE,HOLTSVILLE,NY,USA,40.81,-73.07
13165,NY0001406,228 E MAIN ST,WATERLOO,NY,USA,42.9,-76.85
,NY0242730,BROADWAY - W SIDE - S OF HILL ST,GOWANDA,NY,USA,42.45,-78.93
12936,NY0240001,20 BEGGS POINT ST,ESSEX,NY,USA,44.31,-73.35
11729,NY0266639,1060 LONG ISLAND AVE,DEER PARK,NY,USA,40.77,-73.31
12834,NY0251984,ROUTES 29 AND 338,GREENWICH,NY,USA,43.14,-73.42
13160,NY0024228,CHAPEL ST,UNION SPRINGS,NY,USA,42.84,-76.7
12967,NY0110116,FACTORY ST - N END,NORTH LAWRENCE,NY,USA,44.81,-74.68
11763,NY0236942,"700-55 CO RTE 101|SCTM# 200-813-1-3.1, 3.2",MEDFORD,NY,USA,40.81,-72.95
11693,NY0276910,ROCKAWAY BEACH BLVD|BEACH 73RD ST to BEACH 88TH ST,Far Rockaway,NY,USA,40.59,-73.81
13619,NY0236306,24475 Arca St,Herrings,NY,USA,44.02,-75.66
11733,NY0025828,19 BELLE MEADE RD,EAST SETAUKET,NY,USA,40.92,-73.09
12203,NY0107930,1 CROSSGATES MALL RD|120 WASHINGTON AVE EXT,ALBANY,NY,USA,42.69,-73.85
10598,NY0020435,1101 KITCHAWAN RD/ST RTE 134,YORKTOWN HEIGHTS,NY,USA,41.21,-73.8
12817,NY0202479,RTE 8,CHESTERTOWN,NY,USA,43.67,-73.78
14081,NY0105104,12784 BUFFALO RD,IRVING,NY,USA,42.57,-79.11
12158,NY0268585,435 CREBLE RD - FORMERLY LONG LN,SELKIRK,NY,USA,42.56,-73.84
13116,NY0025461,KALINE DR,MINOA,NY,USA,43.08,-76
12449,NY0106968,LOHMAIER LN,LAKE KATRINE,NY,USA,42.01,-74
14760,NY0258890,CITYWIDE,OLEAN,NY,USA,42.09,-78.43
12529,NY0268771,ST RTES 22 & 23 - SE OF INTERSECTION,HILLSDALE,NY,USA,42.18,-73.52
10598,NY0281280,MOHEGAN LAKE,YORKTOWN,NY,USA,41.31,-73.85
12921,NY0255971,US RTE 9,CHAZY,NY,USA,44.9,-73.43
14611,NY0003352,1075 CHILI AVE,ROCHESTER,NY,USA,43.14,-77.66
10541,NY0263991,90 MYRTLE AVE,MAHOPAC,NY,USA,41.37,-73.76
14588,NY0160407,CO RTE 132,WILLARD,NY,USA,42.67,-76.88
13471,NY0090123,8937 BECKWITH RD,TABERG,NY,USA,43.31,-75.62
14411,NY0161314,14120 W LEE RD,ALBION,NY,USA,43.21,-78.21
14416,NY0246859,8200 BUFFALO RD,BERGEN,NY,USA,43.07,-77.95
13069,NY0026301,1690 ST RTE 48|WEST RIVER RD N,FULTON,NY,USA,43.34,-76.42
13850,NY0156396,3301 OLD VESTAL RD,VESTAL,NY,USA,42.1,-75.99
14218,NY0022136,260 LEHIGH AVE|NE CORNER OF WILLMUTH & WELL STS,LACKAWANNA,NY,USA,42.82,-78.84
,NY0002917,PRE-EMPTION RD,PHELPS,NY,USA,42.94,-77.02
12723,NY0110574,36 VIADUCT RD,CALLICOON,NY,USA,41.76,-75.05
14840,NY0109177,8440 ST RTE 54,URBANA,NY,USA,42.4,-77.23
12345,NY0007056,1 RIVER RD,SCHENECTADY,NY,USA,42.81,-73.96
11772,NY0210871,585-15 ST RTE 112,PATCHOGUE,NY,USA,40.79,-73.01
12565,NY0030996,ST RTE 217 - S SIDE - OPPOSITE CO RTE 9,PHILMONT,NY,USA,42.25,-73.66
13830,NY0262242,ST RTE 12 - SE SIDE - JUST NE OF VILLAGE LINE,OXFORD,NY,USA,42.45,-75.58
12540,NY0264989,OVERLOOK RD,LAGRANGE,NY,USA,41.69,-73.87
,NY0268844,COLD SPRING RD,LIVINGSTON,NY,USA,42.14,-73.78
14505,NY0031569,4243 SMITH RD,MARION,NY,USA,43.13,-77.18
10601,NY0100803,700 HIGHLAND AVE,PEEKSKILL,NY,USA,41.3,-73.93
10704,NY0250929,MARCO & SMART AVE,YONKERS,NY,USA,40.94,-73.86
12533,NY0032972,94 MILLER RD,HOPEWELL JUNCTION,NY,USA,41.61,-73.74
10911,NY0215309,PALISADES PKWY EXIT 19,HIGHLANDS,NY,USA,41.31,-74.03
14850,NY0244741,983 E SHORE DR,ITHACA,NY,USA,42.47,-76.5
11746,NY0136751,235 PINELAWN RD,MELVILLE,NY,USA,40.76,-73.41
14569,NY0171450,3879 ST RTE 19,SOUTH WARSAW,NY,USA,42.7,-78.13
14210,NY0110043,55 LEE ST,BUFFALO,NY,USA,42.86,-78.84
12158,NY0025739,98 DINMORE RD & ST RTE 144,SELKIRK,NY,USA,42.54,-73.76
,NY0276791,I-278 - RANDALLS ISLAND @ HARLEM RIVER & EAST RIVER,NEW YORK,NY,USA,40.79,-73.92
11743,NY0021342,CREEK RD,HUNTINGTON,NY,USA,40.88,-73.42
,NY0226891,ENTIRE WATER DISTRICT WIDE,SUFFOLK,NY,USA,,
13669,NY0029831,RAILROAD ST,OGDENSBURG,NY,USA,44.7,-75.49
12885,NY0265306,HORICON AVE,WARRENSBURG,NY,USA,43.5,-73.76
14219,NY0243876,3049 LAKESHORE RD,BLASDELL,NY,USA,42.8,-78.84
12428,NY0008087,RTE 209,ELLENVILLE,NY,USA,41.72,-74.38
,NY0260835,LOT 5 BERKSHIRE SPUR BUSINESS PARK,SCHODACK,NY,USA,42.52,-73.67
11787,NY0279943,279 W Main St,Smithtown,NY,USA,40.86,-73.21
14701,NY0003689,31-33 WATER ST,JAMESTOWN,NY,USA,42.09,-79.23
12545,NY0264245,26 WING RD,MILLBROOK,NY,USA,41.83,-73.68
13815,NY0284254,5054 St Rte 23,Norwich,NY,USA,42.55,-75.5
12901,NY0255831,48 SPELLMAN RD,PLATTSBURGH,NY,USA,44.78,-73.43
14304,NY0275387,6100 NIAGARA FALLS BLVD,NIAGARA FALLS,NY,USA,43.09,-78.99
10516,NY0022721,53 FAIR ST,COLD SPRING,NY,USA,41.42,-73.96
11717,NY0267431,110 EMJAY BLVD,BRENTWOOD,NY,USA,40.78,-73.28
14304,NY0094251,56TH ST & NIAGARA FALLS BLVD,NIAGARA FALLS,NY,USA,43.1,-78.99
13319,NY0236772,3512 BLEACHERY PL,CHADWICKS,NY,USA,43.03,-75.27
,NY0280402,5503 ST RTE 9W|3 MI SECTION - ROSETON AREA TO CHELSEA AREA,NEWBURGH,NY,USA,41.57,-73.97
13407,NY0036528,106 W MAIN ST,MOHAWK,NY,USA,43.01,-75.01
12496,NY0262935,491 SOUTH ST|CO RTE 12 & ST RTE 23,WINDHAM,NY,USA,42.3,-74.27
13090,NY0027618,4020 WETZEL RD,LIVERPOOL,NY,USA,43.15,-76.24
12701,NY0030716,SACKETT LAKE RD - 0.3 MILES NORTH OF SQUIRREL CORNERS,MONTICELLO,NY,USA,41.61,-74.75
11953,NY0227081,1195 MIDDLE COUNTRY RD,MIDDLE ISLAND,NY,USA,40.89,-72.93
12401,NY0260134,300 ENTERPRISE DR,KINGSTON,NY,USA,41.97,-74
13042,NY0214370,LAKE ST,CLEVELAND - V,NY,USA,43.24,-75.88
11786,NY0267171,227 N COUNTRY RD,SHOREHAM,NY,USA,40.96,-72.87
13317,NY0023485,INCINERATOR RD,CANAJOHARIE,NY,USA,42.91,-74.57
12758,NY0025437,38 COVERED BRIDGE RD|S OF ST RTE 17,LIVINGSTON MANOR,NY,USA,41.91,-74.83
,NY0269131,WITTER ST @ LINCOLN,FORT PLAIN,NY,USA,42.94,-74.62
,NY0173908,SW CORNER OF NYS 347 (NESCONSET HWY) & NEW MORICHES RD,LAKE GROVE,NY,USA,40.87,-73.13
11738,NY0266841,689 HORSE BLOCK RD|SCTM 0200-654-3-38 39 & 40,FARMINGVILLE,NY,USA,40.83,-73.04
13357,NY0218324,ELIZABETHTOWN RD,ILION,NY,USA,42.99,-75.05
13856,NY0249483,ST RTE 10 - N SIDE - BETW WM BEERS RD & PINES BROOK RD,WALTON,NY,USA,42.16,-75.16
,NY0232700,BOLIVAR RD,CHITTENANGO,NY,USA,43.09,-75.9
10607,NY0275051,RTE 100C,GREENBURGH,NY,USA,41.08,-73.81
14456,NY0027049,45 DORAN AVE,GENEVA,NY,USA,42.88,-76.97
12187,NY0249581,1353 ST RTE 7,WARNERVILLE,NY,USA,42.65,-74.53
12090,NY0124257,RT 22 RIVER RD,HOOSICK FALLS,NY,USA,42.88,-73.36
14726,NY0075035,6028 US RTE 62,CONEWANGO VALLEY,NY,USA,42.26,-79.03
13367,NY0020125,7514 E STATE ST,LOWVILLE,NY,USA,43.78,-75.48
13601,NY0270288,HQ  10TH MTN DIV (LI),LEWIS & JEFFERSON CO,NY,USA,44.23,-75.55
13026,NY0244236,3260 ST RTE 90,AURORA,NY,USA,42.78,-76.71
,NY0270610,14 BOXWOOD CIR|PHILLIPS RD & MOORE RD,EAST FISHKILL,NY,USA,41.59,-73.74
11733,NY0226629,361 SHEEP PASTURE RD,EAST SETAUKET,NY,USA,40.93,-73.08
10306,NY0026174,751 MILL RD,STATEN ISLAND,NY,USA,40.55,-74.12
12944,NY0025097,1858 US RTE 9 (N AUSABLE ST),KEESEVILLE,NY,USA,44.51,-73.47
14441,NY0001325,590 PLANT RD,DRESDEN,NY,USA,42.68,-76.95
13152,NY0094480,26 FENNELL ST,SKANEATELES,NY,USA,42.96,-76.44
13676,NY0070637,POTSDAM CANTON RD,POTSDAM,NY,USA,44.63,-75.09
13619,NY0257699,20260 CO RTE 47,CHAMPION,NY,USA,43.96,-75.69
13209,NY0000825,575 STATE FAIR BLVD,GEDDES,NY,USA,43.07,-76.21
12015,NY0020869,WATER ST,ATHENS,NY,USA,42.26,-73.81
12870,NY0020231,49 FOWLER AVE,SCHROON LAKE,NY,USA,43.84,-73.76
12561,NY0248185,32 MULBERRY ST,NEW PALTZ,NY,USA,41.76,-74.08
10541,NY0259811,600 RTE 6N|MYRTLE AVE & ST RTE 6N,MAHOPAC,NY,USA,41.37,-73.76
14047,NY0027120,722 STURGEON PT RD,DERBY,NY,USA,42.69,-79.04
12601,NY0005649,SHEAFE RD,POUGHKEEPSIE,NY,USA,41.62,-73.94
11788,NY0206148,690 OLD WILLETS PATH,HAUPPAUGE,NY,USA,40.81,-73.23
14903,NY0085910,151 E MCCANNS BLVD,ELMIRA HEIGHTS,NY,USA,42.12,-76.82
14723,NY0100102,6804 MAIN ST,CHERRY CREEK,NY,USA,42.29,-79.1
13329,NY0024554,VAN BUREN ST,DOLGEVILLE,NY,USA,43.09,-74.77
13440,NY0006548,220 S Madison St,Rome,NY,USA,43.21,-75.47
13167,NY0216291,46 CO RTE 11,WEST MONROE,NY,USA,43.24,-76.12
14555,NY0028088,8120 LAKE RD,SODUS POINT,NY,USA,43.27,-77
14001,NY0001899,12600 CLARENCE CENTER RD,AKRON,NY,USA,43.01,-78.51
13165,NY0245623,ST RTE 318 & NINEFOOT RD,JUNIUS,NY,USA,42.96,-76.93
13827,NY0004057,1801 ST RTE 17C,OWEGO,NY,USA,42.1,-76.22
14718,NY0202771,RT 60,CASSADAGA,NY,USA,42.34,-79.31
12428,NY0034002,EDWARDS PL EXT @ SANDBURG CK,ELLENVILLE,NY,USA,41.72,-74.38
14760,NY0101583,1116 E STATE ST,OLEAN,NY,USA,42.07,-78.41
11777,NY0005932,700 Beach St,Port Jefferson,NY,USA,40.95,-73.08
12090,NY0005061,11 COTTRELL RD,HOOSICK FALLS,NY,USA,42.92,-73.32
11930,NY0266728,497 MONTAUK HWY,AMAGANSETT,NY,USA,40.98,-72.13
13662,NY0031194,302 E ORVIS ST,MASSENA,NY,USA,44.94,-74.87
13778,NY0021407,WATER ST,GREENE,NY,USA,42.32,-75.77
11704,NY0225991,RAILROAD AVE (ON BAHAMA ST AT THE SOUTH END OF HENRY ST; ZIP = 11757),WEST BABYLON,NY,USA,40.7,-73.35
14590,NY0104001,10951 LUMMISVILLE RD,WOLCOTT,NY,USA,43.24,-76.86
14546,NY0228117,249 BRIARWOOD LN,SCOTTSVILLE,NY,USA,43.03,-77.76
11769,NY0227234,4250 SUNRISE HWY,OAKDALE,NY,USA,40.75,-73.12
,NY0000736,ROBERT MOSES PKWY,LEWISTON,NY,USA,43.14,-79.04
12827,NY0252051,MAIN ST,FORT ANN,NY,USA,43.42,-73.48
12085,NY0022217,N EASTERN IND PK,GUILDERLAND CENTER,NY,USA,42.7,-73.96
14040,NY0228346,BROADWAY,DARIEN CENTER,NY,USA,42.9,-78.38
14105,NY0000345,100 NIAGARA ST,MIDDLEPORT,NY,USA,43.21,-78.47
13036,NY0035131,ST RTE 49 E - S SIDE,CENTRAL SQUARE,NY,USA,43.28,-76.14
14739,NY0002518,6701 County Road 20,Friendship,NY,USA,42.21,-78.11
12929,NY0256366,2089 ST RTE 374 AT PLANK RD,DANNEMORA,NY,USA,44.76,-73.77
12414,NY0020389,LOWER MAIN ST,CATSKILL,NY,USA,42.21,-73.86
14150,NY0026395,779 TWO MILE CREEK RD,TONAWANDA,NY,USA,42.99,-78.9
12841,NY0265365,MARINA WAY|LAKESIDE WAY AREA,HULETTS LANDING,NY,USA,43.64,-73.51
14420,NY0162540,200 STATE ST,BROCKPORT,NY,USA,43.21,-77.93
12602,NY0036731,WATER WORKS RD,POUGHKEEPSIE,NY,USA,41.71,-73.94
13411,NY0004189,669 CO RTE 25,NEW BERLIN,NY,USA,42.69,-75.32
14132,NY0001988,2040 CORY RD,SANBORN,NY,USA,43.13,-78.94
14830,NY0245526,WALNUT ST,CORNING,NY,USA,42.14,-77.06
10591,NY0098264,WEST MAIN ST,TARRYTOWN,NY,USA,41.08,-73.87
14611,NY0021181,275 MCKEE RD,ROCHESTER,NY,USA,43.16,-77.67
10566,NY0025569,ROA HOOK RD,CORTLANDT,NY,USA,41.3,-73.95
11767,NY0252824,TOWN COMMONS DR|SCTM # 800-106-5-34.5,NESCONSET,NY,USA,40.85,-73.17
12603,NY0105511,1098 DUTCHESS TPKE,POUGHKEEPSIE,NY,USA,41.72,-73.86
13316,NY0121860,29 HARDEN BLVD,CAMDEN,NY,USA,43.33,-75.75
12458,NY0029718,PLANK RD - N SIDE - NW OF INSTITUTION RD,NAPANOCH,NY,USA,41.75,-74.36
12863,NY0007161,1135 ROCK CITY RD,ROCK CITY FALLS,NY,USA,43.06,-73.92
11784,NY0210251,379 BOYLE RD,SELDEN,NY,USA,40.89,-73.05
11105,NY0267503,31-03 20TH AVE,ASTORIA,NY,USA,40.79,-73.91
11795,NY0279862,201 Union Blvd,West Islip,NY,USA,40.71,-73.31
13165,NY0246778,3754 KIME BEACH RD,WATERLOO,NY,USA,42.84,-76.94
,NY0268275,6030 DUANESBURG RD|ST RTE 7,DUANESBURG,NY,USA,42.76,-74.12
13812,NY0262480,3626 E RIVER RD,NICHOLS,NY,USA,42.06,-76.33
10601,NY0026697,1 LEFEVRES LN,NEW ROCHELLE,NY,USA,40.91,-73.77
,NY0264334,65 DORRAUGH LN,SPARROW BUSH,NY,USA,41.4,-74.73
,NY0258458,ST RTE 19 - W SIDE - N OF ST RTE 243,CANEADA,NY,USA,42.39,-78.16
11901,NY0108880,600 DOCTORS PATH,RIVERHEAD,NY,USA,40.94,-72.65
12148,NY0265225,1601 ST RTE 146,REXFORD,NY,USA,42.86,-73.89
13635,NY0023809,DEPOT ST,EDWARDS,NY,USA,44.32,-75.25
11972,NY0226955,11 DEPOT RD,SPEONK,NY,USA,40.82,-72.7
13601,NY0031542,24491 ST RTE 12|GIFFORD STREET RD,WATERTOWN,NY,USA,43.96,-75.87
14514,NY0098817,3484 S UNION ST,CHILI,NY,USA,43.11,-77.8
14850,NY0020958,951 E SHORE DR,CAYUGA HEIGHT,NY,USA,42.47,-76.5
13754,NY0244384,2950 OLD RTE 17,SANFORD,NY,USA,42.05,-75.49
12508,NY0025976,96 DENNINGS AVE,BEACON,NY,USA,41.49,-73.98
13305,NY0270091,MAIN ST,BEAVER FALLS,NY,USA,43.89,-75.44
12734,NY0235393,80 BROOKS RD,FERNDALE,NY,USA,41.76,-74.75
13145,NY0213705,6067 S MAIN ST,SANDY CREEK,NY,USA,43.64,-76.09
14591,NY0084689,1 MARKIN LN,WYOMING,NY,USA,42.84,-78.05
11772,NY0080683,260 E WOODSIDE AVE,EAST PATCHOGUE,NY,USA,40.8,-72.97
12885,NY0248720,509 St Rte 418,Warrensburg,NY,USA,43.48,-73.8
,NY0268313,1037 WATERVLIET-SHAKER RD,COLONIE,NY,USA,42.74,-73.84
14423,NY0160521,MCGOVERN RD,CALEDONIA,NY,USA,42.94,-77.87
11780,NY0279901,473 LAKE AVE,SAINT JAMES,NY,USA,40.88,-73.16
11733,NY0279889,1388 ST RTE 25A,EAST SETAUKET,NY,USA,40.94,-73.11
12721,NY0208426,MAIN ST (OLD RTE 17),BLOOMINGBURG,NY,USA,41.55,-74.43
13069,NY0155519,2801 ST RTE 481,FULTON,NY,USA,43.35,-76.43
12534,NY0240401,ST RTE 66 & ST RTE 9H,CLAVERACK & GHENT,NY,USA,42.28,-73.71
12967,NY0002763,22 CO RTE 52,NORTH LAWRENCE,NY,USA,44.8,-74.68
13441,NY0257061,660 HANGAR RD -STE 223,ROME,NY,USA,43.23,-75.41
13739,NY0223174,222 RIVER RD,STAMFORD,NY,USA,42.33,-74.8
10454,NY0007668,939 E 138TH ST,BRONX,NY,USA,40.8,-73.91
13812,NY0262391,317 W RIVER RD,NICHOLS,NY,USA,42.02,-76.37
14592,NY0023990,3479 RETSOF RD|AKA CALEDONIA RD @ BIDWELLS CREEK,RETSOF,NY,USA,42.84,-77.88
12920,NY0230634,7019 ST RTE 374,CHATEAUGAY,NY,USA,44.89,-74.07
12856,NY0034959,13TH LAKE RD,NORTH RIVER,NY,USA,43.73,-74.11
12734,NY0260355,36 STATION HILL RD,FERNDALE,NY,USA,41.77,-74.74
12182,NY0099309,CITY-WIDE,TROY,NY,USA,42.75,-73.69
13691,NY0215911,OLD ST RTE 37,THERESA,NY,USA,44.29,-75.8
13428,NY0261033,GERHARTZ RD,PALATINE BRIDGE,NY,USA,42.93,-74.57
13357,NY0005282,14 HOEFLER AVE,ILION,NY,USA,43.01,-75.03
14150,NY0069001,1000 E NIAGARA ST,TONAWANDA,NY,USA,43.02,-78.86
,NY0271217,29 RECREATION CTR RD,BEEKMAN,NY,USA,41.62,-73.7
11958,NY0252468,MAIN RD (RTE 25),PECONIC,NY,USA,41.04,-72.46
,NY0201243,20TH AVE & 23RD ST,ASTORIA,NY,USA,40.78,-73.91
13034,NY0025241,ST RTE 90 - E SIDE - BETW CO RTE 8 & TURNPIKE RD,CAYUGA,NY,USA,42.94,-76.72
12789,NY0272817,GREENFIELD RD & KRIEGER PARK RD,WOODRIDGE,NY,USA,41.71,-74.56
11727,NY0226700,1 MIDDLE COUNTRY RD,CORAM,NY,USA,40.87,-72.98
13628,NY0020931,126 RIVERSIDE DR,DEFERIET,NY,USA,44.04,-75.68
14739,NY0029301,E WATER ST,FRIENDSHIP,NY,USA,42.21,-78.13
13493,NY0106780,572 ST RTE 13,WILLIAMSTOWN,NY,USA,43.43,-75.89
14481,NY0073113,5705 ST RTE 36,LEICESTER,NY,USA,42.74,-77.88
13654,NY0027146,101 HORSESHOE RD,HEUVELTON,NY,USA,44.61,-75.41
11542,NY0267236,44 MORRIS AVE|NCTM# 21-A-6 & 8,GLEN COVE,NY,USA,40.86,-73.64
13118,NY0022756,AURORA ST,MORAVIA,NY,USA,42.71,-76.43
12477,NY0145556,RIVERSIDE DR - N END,SAUGERTIES,NY,USA,42.1,-73.93
12207,NY0026212,122-68 FLATLANDS AVE,BROOKLYN,NY,USA,40.65,-73.88
13029,NY0105431,CO RTE 37  - N SIDE - W OF TRACKS|RIVER RD,BREWERTON,NY,USA,43.24,-76.14
10956,NY0235504,NEW HEMPSTEAD RD,NEW CITY,NY,USA,41.15,-73.99
13221,NY0001163,6304 THOMPSON RD,SYRACUSE,NY,USA,43.08,-76.09
13755,NY0249726,ST RTE 30,DOWNSVILLE,NY,USA,42.07,-75.01
12489,NY0248339,6869 RTE 209,WARWARSING,NY,USA,41.76,-74.34
12543,NY0259667,ST RTE 208 @ I-84,MAYBROOK,NY,USA,41.51,-74.21
11547,NY0005894,SHORE RD,GLENWOOD LANDING,NY,USA,40.83,-73.65
13316,NY0235792,SKINNER SETTLEMENT RD,CAMDEN,NY,USA,43.35,-75.72
14606,NY0028550,1935 LYELL AVE,ROCHESTER,NY,USA,43.16,-77.68
10021,NY0005177,506 E 75TH ST,NEW YORK,NY,USA,40.77,-73.95
12855,NY0266141,80 Frontier Town Rd,North Hudson,NY,USA,43.94,-73.73
14171,NY0000973,10282 ROCK SPRINGS RD,WEST VALLEY,NY,USA,42.45,-78.65
14103,NY0021873,200 GULF ST |WESTWARD TO N GRAVEL RD,MEDINA,NY,USA,43.23,-78.39
14129,NY0275727,PECK HILL RD 0.7 MI S OF ST RTE 39,PERRYSBURG,NY,USA,42.45,-79.01
13662,NY0001732,45 Co Rte 42,Massena,NY,USA,44.94,-74.88
14414,NY0024449,FARMERS RD,AVON,NY,USA,42.92,-77.76
10924,NY0233528,LOWER RESERVOIR ROAD,GOSHEN,NY,USA,41.38,-74.39
14727,NY0023515,W WATER ST,CUBA,NY,USA,42.22,-78.29
,NY0274585,PEEKSKILL HOLLOW BROOK|CAMP FIELD RESERVOIR,PEEKSKILL,NY,USA,41.3,-73.91
14897,NY0102091,HESELTON GULLY ROAD,INDEPENDENCE,NY,USA,42.06,-77.76
12524,NY0060992,4 JACKSON ST,FISHKILL,NY,USA,41.53,-73.9
11779,NY0237701,60 MILL RD,RONKONKOMA,NY,USA,40.81,-73.1
12832,NY0006769,85 CHURCH ST,GRANVILLE,NY,USA,43.4,-73.26
14477,NY0268089,352 DIXON RD|WEST BRANCH RESERVOIR - NW SIDE,KENT,NY,USA,41.44,-73.72
14723,NY0204081,SOUTHSIDE AVE,CHERRY CREEK,NY,USA,42.29,-79.1
14141,NY0021474,145 MILL ST,SPRINGVILLE,NY,USA,42.5,-78.67
11249,NY0006301,26 N 12th St|(Formerly 1 N 12th St),Brooklyn,NY,USA,40.72,-73.96
13206,NY0000566,1 GENERAL MOTORS DR,SYRACUSE,NY,USA,43.09,-76.12
13206,NY0261947,6223 THOMPSON RD,EAST SYRACUSE,NY,USA,43.07,-76.09
11220,NY0026166,6700 SHORE RD,BROOKLYN,NY,USA,40.64,-74.03
13126,NY0104434,4521 CO RT 4,OSWEGO,NY,USA,43.45,-76.47
11717,NY0266779,1889 BRENTWOOD RD,BRENTWOOD,NY,USA,40.78,-73.25
14020,NY0228877,8412 SEVEN SPRINGS RD,BATAVIA,NY,USA,43.01,-78.13
13658,NY0257559,HALL RD,LISBON,NY,USA,44.72,-75.32
12090,NY0241709,FARMERS INN RD,HOOSICK,NY,USA,42.89,-73.28
11963,NY0028908,BAY ST,SAG HARBOR,NY,USA,41,-72.29
12569,NY0031691,629 N CHODIKEE LAKE RD,HIGHLAND,NY,USA,41.77,-73.98
12414,NY0241563,OFF RTE 23B,CATSKILL,NY,USA,42.25,-73.88
12993,NY0020222,18 MARKS RD,WESTPORT,NY,USA,44.19,-73.43
14138,NY0096091,COTTAGE RD,SOUTH DAYTON,NY,USA,42.37,-79.05
11224,NY0200328,502 SURF AVE,BROOKLYN,NY,USA,40.57,-73.98
11763,NY0226203,1725 N OCEAN AVE,MEDFORD,NY,USA,40.83,-73.02
14020,NY0162264,56 HARVESTOR AVE,BATAVIA,NY,USA,43,-78.19
13614,NY0070777,2522 ST RTE 37,BRIER HILL,NY,USA,44.52,-75.66
11725,NY0279820,6568 JERICHO TPK|SCTM  800-116-2-2,COMMACK,NY,USA,40.84,-73.29
13605,NY0034771,63 LIBERTY ST,ADAMS,NY,USA,43.81,-76.03
12415,NY0007242,120 ALPHA BLVD US RTE 9W,CEMENTON,NY,USA,42.14,-73.91
12074,NY0076031,5317 SACANDAGA RD,GALWAY,NY,USA,43.02,-74.03
13838,NY0003824,40-60 DELAWARE AVE,SIDNEY,NY,USA,42.31,-75.4
12302,NY0023442,1 AIR NATIONAL GUARD RD|SCHENECTADY CO AIRPORT,SCOTIA,NY,USA,42.85,-73.92
14150,NY0023621,3733 RIVER RD,TONAWANDA,NY,USA,42.98,-78.93
14150,NY0000281,175 E PARK DR,TONAWANDA,NY,USA,42.98,-78.89
13126,NY0063592,RIDGE RD & CO RTE 20,OSWEGO,NY,USA,43.41,-76.52
12553,NY0004421,WALSH AVE,NEW WINDSOR,NY,USA,41.49,-74.02
14462,NY0245879,ST RTE 63 - W SIDE - S OF ABELE RD,GROVELAND,NY,USA,42.75,-77.84
12919,NY0230766,61 W Service Rd,Champlain,NY,USA,45,-73.46
12414,NY0205044,MAPLE AVE,CEMENTON,NY,USA,42.13,-73.92
10309,NY0004961,4101 ARTHUR KILL RD,STATEN ISLAND,NY,USA,40.54,-74.24
,NY0271926,1040 SPRINGWATER DR,CHEMUNG,NY,USA,42,-76.6
,NY0268542,2855 US RTE 9,LIVINGSTON,NY,USA,42.14,-73.78
12067,NY0084271,76 W YARD RD,FEURA BUSH,NY,USA,42.58,-73.87
12534,NY0030988,38 UTILITY DR - N OF FAIRVIEW PLZ,HUDSON,NY,USA,42.26,-73.76
13350,NY0020486,501 S WASHINGTON ST,HERKIMER,NY,USA,43.02,-74.98
13732,NY0025798,1319 E MAIN ST,APALACHIN,NY,USA,42.07,-76.15
13642,NY0121053,164 SEAVEY RD,GOUVERNEUR,NY,USA,44.38,-75.47
14733,NY0030210,65 S DOW ST,FALCONER,NY,USA,42.11,-79.2
10461,NY0087874,1400 FERRIS PL,BRONX,NY,USA,40.84,-73.84
13656,NY0002607,20700 ST RTE 411,LAFARGEVILLE,NY,USA,44.2,-75.96
13209,NY0231681,300 BELLE ISLE RD,SOLVAY,NY,USA,43.07,-76.22
11559,NY0006823,74 EAST AVE,LAWRENCE,NY,USA,40.63,-73.74
14897,NY0105945,WIGHTMAN & COLEMAN RDS,WELLSVILLE,NY,USA,42.15,-77.9
14034,NY0269859,CHURCH ST AT CLEAR CRK - ST RTE 39 AND COLLINS CENTER-ZOAR RD,COLLINS,NY,USA,42.49,-78.85
12164,NY0026484,ST RTE 30 - N SIDE - E OF RIVER,SPECULATOR,NY,USA,43.5,-74.36
13731,NY0262854,5287 CO RTE 1,ANDES,NY,USA,42.18,-74.79
14802,NY0022357,198 N MAIN ST,ALFRED,NY,USA,42.26,-77.78
13731,NY0262846,MAIN ST AT THE VILLAGE LIBRARY,ANDES,NY,USA,42.19,-74.78
13209,NY0244252,264 FARRELL RD,SYRACUSE,NY,USA,43.12,-76.27
,NY0108499,ARLO LN,PEEKSKILL,NY,USA,41.3,-73.87
10037,NY0276774,E 125TH ST TO E 132 ST,NEW YORK,NY,USA,40.81,-73.93
11950,NY0227013,1495 MONTAUK HWY,MASTIC,NY,USA,40.81,-72.85
13601,NY0257567,BRADLEY STREET RD,WATERTOWN,NY,USA,44,-75.92
13694,NY0030180,PINE ST,WADDINGTON,NY,USA,44.87,-75.19
11705,NY0209589,307 BERNICE DR,BAYPORT,NY,USA,40.75,-73.05
12958,NY0256412,72 MISSILE BASE RD,MOOERS,NY,USA,44.97,-73.63
11706,NY0267422,1597 MANATUCK BLVD,BAY SHORE,NY,USA,40.76,-73.27
11050,NY0026778,70 HARBOR RD,PORT WASHINGTON,NY,USA,40.84,-73.7
14150,NY0101575,10 Sheridan Dr,Tonawanda,NY,USA,42.97,-78.92
12590,NY0264423,30 MAJOR MACDNALD WAY,WAPPINGERS FALLS,NY,USA,41.59,-73.92
14059,NY0269328,24 LAKESIDE CIR|(OFF RICE RD),ELMA,NY,USA,42.83,-78.66
11779,NY0079511,ONE ESSEX DR|BTWN ELAN LN & WARREN AVE,FARMINGVILLE,NY,USA,40.82,-73.07
12564,NY0235041,10 CHARLES ST,PAWLING,NY,USA,41.56,-73.6
13755,NY0249441,SR 206,DOWNSVILLE,NY,USA,42.08,-75
14062,NY0202959,10979 BENNETT STATE RD,FORESTVILLE,NY,USA,42.48,-79.17
11901,NY0020061,2 RIVER AVE |SCTM  600-131-3-31.1 AND 35.1,RIVERHEAD,NY,USA,40.92,-72.64
12531,NY0149390,106 LUDINGTONVILLE RD,HOLMES,NY,USA,41.48,-73.65
13628,NY0257869,ANDERSON AVE,DEFERIET,NY,USA,44.04,-75.68
12117,NY0252042,MAYFIELD LAKE,MAYFIELD,NY,USA,43.1,-74.26
12847,NY0217671,NORTHVILLE LK PLACID TRAIL|SANDY CREEK,LONG LAKE,NY,USA,43.96,-74.39
12033,NY0223921,US RTES 9 & 20 - NE SIDE - BETWEEN ST RTE 150 & 9-20 SPLIT,SCHODACK,NY,USA,42.55,-73.67
13760,NY0262706,1701 NORTH ST - BLDG 39,ENDICOTT,NY,USA,42.11,-76.04
12866,NY0248622,30 WEIBEL AVE - E SIDE,SARATOGA SPRINGS,NY,USA,43.09,-73.74
12442,NY0241075,8430 Rte 23A,HUNTER,NY,USA,42.22,-74.24
,NY0270831,KIMBALL AVE AT HILLVIEW AVE,YONKERS,NY,USA,40.91,-73.87
12430,NY0261521,MAIN ST,FLEISCHMANNS,NY,USA,42.16,-74.55
12972,NY0023949,24 SUNRISE DR,PERU,NY,USA,44.58,-73.52
14094,NY0003077,400 HINMAN RD,LOCKPORT,NY,USA,43.15,-78.72
12887,NY0229881,10068 US RTE 4,WHITEHALL,NY,USA,43.55,-73.38
13057,NY0033901,6200 GIRDEN RD,EAST SYRACUSE,NY,USA,43.07,-76.04
14715,NY0243566,HORSE RUN RD,BOLIVAR,NY,USA,42,-78.17
10926,NY0027901,72 RIVER RD,HARRIMAN,NY,USA,41.31,-74.14
14905,NY0246743,1 FOUNTAIN DR,ELMIRA,NY,USA,42.1,-76.84
10550,NY0103624,7 EDISON AVE,MT VERNON,NY,USA,40.89,-73.82
,NY0259497,8 WASHINGTON AVE,VILLAGE OF NEW SQUARE,NY,USA,41.14,-74.03
12748,NY0109029,SICKMILLER RD,JEFFERSONVILLE,NY,USA,41.77,-74.94
12920,NY0100820,39 MCCADAM LN,CHATEAUGAY,NY,USA,44.92,-74.07
12901,NY0201723,REEVES LN,PLATTSBURGH,NY,USA,44.68,-73.49
13305,NY0236101,9644 MAIN ST,BEAVER FALLS,NY,USA,43.89,-75.43
11776,NY0225771,HALLOCK AVE,PORT JEFFERSON STATION,NY,USA,40.93,-73.04
11725,NY0226424,500 COMMACK RD,COMMACK,NY,USA,40.82,-73.29
,NY0266493,ENTIRE WATER DISTRICT WIDE,SUFFOLK,NY,USA,,
12804,NY0251852,823 CORINTH RD,QUEENSBURY,NY,USA,43.27,-73.72
11786,NY0271438,1 LILCO RD,SHOREHAM,NY,USA,40.96,-72.87
14141,NY0107841,172 EATON ST,SPRINGVILLE,NY,USA,42.51,-78.67
13439,NY0031411,140 BLOOMFIELD DR,RICHFIELD SPRNGS,NY,USA,42.85,-74.99
12122,NY0192309,BAKER AVE,MIDDLEBURGH,NY,USA,42.59,-74.34
11729,NY0078221,221 W INDUSTRY CT,DEER PARK,NY,USA,40.77,-73.3
12192,NY0260894,RT 81 AND VANDENBURG ROAD,COXSACKIE,NY,USA,42.36,-73.86
12173,NY0031291,ROSSMANN RD & US RTE 9,STUYVESANT,NY,USA,42.33,-73.75
11729,NY0266931,1731 DEER PARK AVE,DEER PARK,NY,USA,40.76,-73.33
,NY0267066,ENTIRE WATER DISTRICT WIDE,SUFFOLK,NY,USA,,
12401,NY0166260,1442 SAW KILL RD (CO RTE 30),WOODSTOCK,NY,USA,42.01,-74.06
13164,NY0262056,6481 POTTERY RD,WARNERS,NY,USA,43.09,-76.29
13697,NY0104973,922 CO RTE 53,WINTHOP,NY,USA,44.81,-74.81
12832,NY0021547,90 METTAWEE ST,GRANVILLE,NY,USA,43.41,-73.27
12972,NY0240168,RESERVOIR ROAD,PERU,NY,USA,44.56,-73.59
,NY0274780,5 WEBSTER AVE,KERHONKSON,NY,USA,41.78,-74.3
14850,NY0021610,226 PHILIPS RD,WEBSTER,NY,USA,43.26,-77.41
11780,NY0195308,127 SMITHTOWN BLVD,ST JAMES,NY,USA,40.84,-73.16
,NY0274500,179 S CENTERVILLE RD,SLATE HILL,NY,USA,41.4,-74.52
14059,NY0023019,TREEHAVEN LN,ELMA,NY,USA,42.85,-78.62
12970,NY0256145,17 CO RD 31,PAUL SMITHS,NY,USA,44.44,-74.23
12515,NY0148849,24 SOUTH ST,CLINTONDALE,NY,USA,41.74,-74.04
,NY0191825,SCOTT BLVD,SOUTH ALBANY,NY,USA,42.55,-73.85
14210,NY0204480,625 ELK ST,BUFFALO,NY,USA,42.86,-78.83
12534,NY0022039,N FRONT & DOCK STS,HUDSON,NY,USA,42.26,-73.79
14589,NY0271586,7901 HAMILTON ST EXT,WILLIAMSON,NY,USA,43.28,-77.19
13850,NY0107409,3421 OLD VESTAL RD,VESTAL,NY,USA,42.1,-75.99
,NY0244937,RTE 206,BAINBRIDGE,NY,USA,42.29,-75.47
12887,NY0251992,RTE 4 & 22,WHITEHALL,NY,USA,43.53,-73.41
14004,NY0020541,W MAIN ST,ALDEN,NY,USA,42.91,-78.51
13410,NY0107565,28 OLD STATION RD,NELLISTON,NY,USA,42.92,-74.61
11542,NY0225177,31 SEA CLIFF AVE,GLEN COVE,NY,USA,40.85,-73.63
12763,NY0234486,242 MOUNTAINDALE RD,MOUNTAINDALE,NY,USA,41.69,-74.54
11222,NY0004596,125 APOLLO ST,BROOKLYN,NY,USA,40.73,-73.94
14207,NY0001601,3115 RIVER RD,BUFFALO,NY,USA,42.96,-78.92
13142,NY0000515,179 CO RTE 2A,PULASKI,NY,USA,43.56,-76.1
14080,NY0108103,457 N MAIN ST (ST RTE 16),HOLLAND,NY,USA,42.65,-78.55
12150,NY0005801,1000 MAIN ST (ST RTE 5S),ROTTERDAM JUNCTION,NY,USA,42.86,-74.02
12188,NY0006912,1 OCONNOR DR,WATERFORD,NY,USA,42.79,-73.69
11717,NY0237370,800 MOTOR PKWY |LIE EXIT 55,BRENTWOOD,NY,USA,40.81,-73.23
11022,NY0026841,E END 37TH AVE,GREAT NECK,NY,USA,40.78,-73.74
13209,NY0002275,1700 MILTON AVE,SOLVAY,NY,USA,43.06,-76.2
14731,NY0023574,US RTE 219 @ GREAT VALLEY CREEK,ELLICOTTVILLE,NY,USA,42.27,-78.66
10541,NY0251453,RT 6 & CROTON FALLS RD,MAHOPAC,NY,USA,41.38,-73.72
13126,NY0002143,448 CO RTE 1A,OSWEGO,NY,USA,43.49,-76.46
11741,NY0065358,117 JOANNE DR|PATCHOGUE - HOLBROOK RD,HOLBROOK,NY,USA,40.79,-73.06
11952,NY0278246,150 BERGEN AVE,MATTITUCK,NY,USA,40.99,-72.57
11788,NY0253324,20 NEWTON PL,HAUPPAUGE,NY,USA,40.8,-73.23
12502,NY0006157,2424 ST RTE 82,ANCRAM,NY,USA,42.05,-73.64
11101,NY0267732,52-31 2ND ST,LONG ISLAND CITY,NY,USA,40.74,-73.96
13850,NY0032620,3212 OLD VESTAL RD,VESTAL,NY,USA,42.1,-76
12845,NY0094366,BIRCH AVE,LAKE GEORGE,NY,USA,43.41,-73.72
13601,NY0215601,26572 ST RTE 37 - N OF ST RTE 342,WATERTOWN,NY,USA,44.05,-75.9
11713,NY0076988,47 HARRISON AVE,BELLPORT,NY,USA,40.79,-72.96
14830,NY0106526,HOUGHTON PARK,CORNING,NY,USA,42.15,-77.06
12043,NY0242225,W MAIN ST,COBLESKILL,NY,USA,42.67,-74.51
13346,NY0020672,81 COLLEGE ST,HAMILTON,NY,USA,42.82,-75.55
14781,NY0275891,7940 SHERMAN-STEDMAN RD,SHERMAN,NY,USA,42.16,-79.58
13902,NY0024406,IN THE CITY OF BINGHAMTON|VARIOUS LOCATIONS,BINGHAMTON,NY,USA,42.11,-75.91
12303,NY0260525,CONGRESS ST AT 10TH AVE,SCHENECTADY,NY,USA,42.79,-73.95
14304,NY0110540,914TH AIRLIFT WING|2405 FRANKLIN DR BLDG 403,NIAGARA FALLS,NY,USA,43.11,-78.94
,NY0200794,ROOSEVELT ISLAND,NEW YORK,NY,USA,40.77,-73.95
14070,NY0002950,465 PALMER ST,GOWANDA,NY,USA,42.45,-78.92
,NY0003905,201 GLENDALE DR & ST RTE 17C,ENDICOTT,NY,USA,42.1,-76.09
14779,NY0269581,4474 ST RTE 353,SALAMANCA,NY,USA,42.19,-78.75
12188,NY0008605,260 HUDSON RIVER RD,WATERFORD,NY,USA,42.82,-73.67
10990,NY0023680,RIVER ST,WARWICK,NY,USA,41.25,-74.37
13346,NY0075248,1643 RANDALLSVILLE RD,HAMILTON,NY,USA,42.79,-75.51
13795,NY0109339,958 US RTE 11,KIRKWOOD,NY,USA,42.09,-75.82
12981,NY0230855,60-70 PICKETTS CORNERS RD,SARANAC,NY,USA,44.66,-73.73
12196,NY0268739,OFF RTE 43,WEST SAND LAKE,NY,USA,42.65,-73.6
12043,NY0078956,310 MINERAL SPRINGS RD,COBLESKILL,NY,USA,42.67,-74.49
14879,NY0004278,7535 EAGLE VALLEY RD,SAVONA,NY,USA,42.31,-77.25
14830,NY0025721,E MARKET ST IN DENISON PARK,CORNING,NY,USA,42.14,-77.03
14757,NY0108235,RED WING RD,MAYVILLE,NY,USA,42.2,-79.57
13325,NY0110418,St Rte 26,CONSTABLEVILLE,NY,USA,43.56,-75.42
,NY0272027,623 LERCH RD,GENEVA,NY,USA,42.82,-76.92
10941,NY0247731,105 TOWER DR,MIDDLETOWN,NY,USA,41.47,-74.38
12498,NY0149306,UPPER BYRDCLIFF RD,WOODSTOCK,NY,USA,42.06,-74.14
13778,NY0086479,GRAND & CLINTON STS,GREENE,NY,USA,42.34,-75.77
14020,NY0002810,4815 ELLICOTT ST RD (165 CEDAR ST),BATAVIA,NY,USA,42.98,-78.16
14837,NY0247138,5435 ST RTE 14 |ST RTE 14 & N GLENORA RD,DUNDEE,NY,USA,42.5,-76.92
14416,NY0110434,6593 N LAKE RD,BERGEN,NY,USA,43.09,-77.93
12928,NY0255785,CO RTE 46 - FACTORYVILLE RD,CROWN POINT,NY,USA,43.97,-73.44
,NY0246107,1515 W LAKE RD,JERUSALEM,NY,USA,42.65,-77.08
13082,NY0027723,7530 MANLIUS CENTER RD,KIRKVILLE,NY,USA,43.05,-76.01
10031,NY0026247,725 W 135TH ST,NEW YORK,NY,USA,40.83,-73.96
12884,NY0264075,MOUNT HOPE RD (COUNTY ROAD 11),MOUNT HOPE,NY,USA,41.44,-74.52
13782,NY0263133,ST RTE 10 - ADJACENT TO LAUNT HOLLOW CRK,HAMDEN,NY,USA,42.19,-75
13827,NY0072231,1200 TAYLOR RD,OWEGO,NY,USA,42.1,-76.23
,NY0282421,42 Brick Church Rd,Troy,NY,USA,42.75,-73.58
12563,NY0207624,2981 ST RTE 22,PATTERSON,NY,USA,41.51,-73.59
14136,NY0022411,ST RTE 5 - N SIDE - W SIDE OF SILVER CREEK,SILVER CREEK,NY,USA,42.55,-79.17
13850,NY0157252,3121 SHIPPER RD,VESTAL,NY,USA,42.1,-76
12928,NY0239844,MONITOR BAY RD,CROWN POINT,NY,USA,43.95,-73.42
13148,NY0033308,9.5 SENECA ST,SENECA FALLS,NY,USA,42.91,-76.78
12526,NY0260479,50 PALATINE PARK RD,GERMANTOWN,NY,USA,42.13,-73.9
11222,NY0007676,498 KINGSLAND AVE,BROOKLYN,NY,USA,40.73,-73.94
13140,NY0020338,CLARK ST,PORT BYRON,NY,USA,43.04,-76.63
12901,NY0256498,142 MOFFITT RD,PLATTSBURGH,NY,USA,44.76,-73.44
,NY0227137,ENTIRE WATER DISTRICT WIDE,SUFFOLK,NY,USA,,
14810,NY0161730,7265 ST RTE 54,BATH,NY,USA,42.35,-77.31
10305,NY0276863,"Streetbeds to the NE of Ocean Breeze Park (incl. Olympia, Lamport Blvds, Foch, Reid, Norway, Mallory, Appleby, Scott, Patterson Aves, and more)",Staten Island,NY,USA,40.59,-74.08
14048,NY0203874,SPODEN RD & NY RT 60,FREDONIA,NY,USA,42.4,-79.31
13126,NY0029238,SLEEPY HOLLOW RD,OSWEGO,NY,USA,43.43,-76.58
13080,NY0105007,30 FOOTE ST,JORDAN,NY,USA,43.07,-76.47
11967,NY0226769,20 FLOYD RD|SCTM# 200-88-5-72.1,SHIRLEY,NY,USA,40.8,-72.86
11722,NY0211478,133 CALEBS PATH,CENTRAL ISLIP,NY,USA,40.8,-73.22
10566,NY0109690,1 CHARLES PT AVE,PEEKSKILL,NY,USA,41.28,-73.94
14725,NY0259128,5732 US RTE 62,CONEWANGO,NY,USA,42.25,-79.03
,NY0264748,EAST DELAWARE TUNNEL,GRAHAMSVILLE,NY,USA,41.86,-74.51
11742,NY0279951,282 BLUE POINT RD W,HOLTSVILLE,NY,USA,40.8,-73.05
14548,NY0030813,3980 ST RTE 96 AT CANANDAIGUA OUTLET,SHORTSVILLE,NY,USA,42.97,-77.22
11980,NY0277827,LIE & WILLIAM FLOYD PKWY,YAPHANK,NY,USA,40.85,-72.88
12550,NY0008231,992 RIVER RD,NEWBURGH,NY,USA,41.57,-73.97
12977,NY0183661,1115 ST RTE 86,RAY BROOK,NY,USA,44.3,-74.08
13411,NY0284084,NYS RTE 23|HAMLET OF S NEW BERLIN,NEW BERLIN,NY,USA,42.53,-75.39
14619,NY0110078,754 BROOKS AVE,ROCHESTER,NY,USA,43.14,-77.66
14853,NY0107077,101 Caldwell Rd|Tax Parcel 67.-1-8,Ithaca,NY,USA,42.45,-76.46
13368,NY0257974,ST RTES 12 AND 12D,LYONSDALE,NY,USA,43.62,-75.37
14059,NY0090191,SENECA ST AND JAMISON RD,ELMA,NY,USA,42.8,-78.65
10940,NY0219959,US RTE 6 - W SIDE - BETW I-84 & CO RTE 56,MIDDLETOWN,NY,USA,41.41,-74.44
13083,NY0020737,48 SALISBURY ST,LACONA,NY,USA,43.65,-76.07
,NY0100242,LILY DALE OFF FRISBEE RD,POMFRET (T),NY,USA,42.35,-79.33
14086,NY0243086,4471 WALDEN AVE,LANCASTER,NY,USA,42.93,-78.6
14701,NY0003395,2258 ALLEN ST,JAMESTOWN,NY,USA,42.11,-79.21
12944,NY0255963,"BUTTERNUT POND, FRONTAGE RD, RTE 9",KEESEVILLE,NY,USA,44.43,-73.49
11371,NY0276871,1 LAGUARDIA AIR PORT,FLUSHING,NY,USA,40.77,-73.86
13115,NY0036749,2086 SNELL RD,MINETTO,NY,USA,43.4,-76.48
10511,NY0250414,450 BROADWAY,BUCHANAN,NY,USA,41.27,-73.95
